{
"type": "FeatureCollection",
"name": "alert_cells",
"xy_coordinate_resolution": 1e-06,
"features": [
{ "type": "Feature", "properties": { "row": 18077, "col": 1815, "rank": 1, "pixels": 169, "burned_ha": 6.76, "severe_ha": 6.72, "severe_steep_ha": 6.68, "green_ndvi": 0.247, "severe_steep_share": 0.988, "priority": "1: treat first", "x": 453875.0, "y": 4519375.0, "lon": 14.45301, "lat": 40.8241 }, "geometry": { "type": "Polygon", "coordinates": [ [ [ 14.4545, 40.822983 ], [ 14.454482, 40.825235 ], [ 14.451517, 40.825221 ], [ 14.451536, 40.822969 ], [ 14.4545, 40.822983 ] ] ] } },
{ "type": "Feature", "properties": { "row": 18076, "col": 1815, "rank": 2, "pixels": 156, "burned_ha": 6.24, "severe_ha": 6.16, "severe_steep_ha": 6.12, "green_ndvi": 0.134, "severe_steep_share": 0.981, "priority": "1: treat first", "x": 453875.0, "y": 4519125.0, "lon": 14.45303, "lat": 40.82185 }, "geometry": { "type": "Polygon", "coordinates": [ [ [ 14.454519, 40.820731 ], [ 14.4545, 40.822983 ], [ 14.451536, 40.822969 ], [ 14.451554, 40.820717 ], [ 14.454519, 40.820731 ] ] ] } },
{ "type": "Feature", "properties": { "row": 18077, "col": 1814, "rank": 3, "pixels": 156, "burned_ha": 6.24, "severe_ha": 6.24, "severe_steep_ha": 6.08, "green_ndvi": 0.188, "severe_steep_share": 0.974, "priority": "1: treat first", "x": 453625.0, "y": 4519375.0, "lon": 14.45004, "lat": 40.82409 }, "geometry": { "type": "Polygon", "coordinates": [ [ [ 14.451536, 40.822969 ], [ 14.451517, 40.825221 ], [ 14.448552, 40.825207 ], [ 14.448571, 40.822955 ], [ 14.451536, 40.822969 ] ] ] } },
{ "type": "Feature", "properties": { "row": 18073, "col": 1817, "rank": 4, "pixels": 169, "burned_ha": 6.76, "severe_ha": 6.76, "severe_steep_ha": 6.36, "green_ndvi": 0.20900001, "severe_steep_share": 0.941, "priority": "1: treat first", "x": 454375.0, "y": 4518375.0, "lon": 14.45901, "lat": 40.81512 }, "geometry": { "type": "Polygon", "coordinates": [ [ [ 14.460502, 40.814003 ], [ 14.460484, 40.816255 ], [ 14.45752, 40.816241 ], [ 14.457538, 40.813989 ], [ 14.460502, 40.814003 ] ] ] } },
{ "type": "Feature", "properties": { "row": 18074, "col": 1815, "rank": 5, "pixels": 156, "burned_ha": 6.24, "severe_ha": 6.12, "severe_steep_ha": 5.68, "green_ndvi": 0.288, "severe_steep_share": 0.91, "priority": "1: treat first", "x": 453875.0, "y": 4518625.0, "lon": 14.45306, "lat": 40.81735 }, "geometry": { "type": "Polygon", "coordinates": [ [ [ 14.454555, 40.816227 ], [ 14.454537, 40.818479 ], [ 14.451573, 40.818465 ], [ 14.451591, 40.816213 ], [ 14.454555, 40.816227 ] ] ] } },
{ "type": "Feature", "properties": { "row": 18076, "col": 1814, "rank": 6, "pixels": 144, "burned_ha": 5.72, "severe_ha": 5.64, "severe_steep_ha": 5.04, "green_ndvi": 0.11, "severe_steep_share": 0.875, "priority": "1: treat first", "x": 453625.0, "y": 4519125.0, "lon": 14.45006, "lat": 40.82184 }, "geometry": { "type": "Polygon", "coordinates": [ [ [ 14.451554, 40.820717 ], [ 14.451536, 40.822969 ], [ 14.448571, 40.822955 ], [ 14.44859, 40.820703 ], [ 14.451554, 40.820717 ] ] ] } },
{ "type": "Feature", "properties": { "row": 18076, "col": 1816, "rank": 7, "pixels": 144, "burned_ha": 5.76, "severe_ha": 5.68, "severe_steep_ha": 4.8, "green_ndvi": 0.278, "severe_steep_share": 0.833, "priority": "1: treat first", "x": 454125.0, "y": 4519125.0, "lon": 14.45599, "lat": 40.82186 }, "geometry": { "type": "Polygon", "coordinates": [ [ [ 14.457483, 40.820745 ], [ 14.457465, 40.822997 ], [ 14.4545, 40.822983 ], [ 14.454519, 40.820731 ], [ 14.457483, 40.820745 ] ] ] } },
{ "type": "Feature", "properties": { "row": 18071, "col": 1815, "rank": 8, "pixels": 169, "burned_ha": 6.76, "severe_ha": 6.68, "severe_steep_ha": 5.44, "green_ndvi": 0.156, "severe_steep_share": 0.805, "priority": "1: treat first", "x": 453875.0, "y": 4517875.0, "lon": 14.45312, "lat": 40.81059 }, "geometry": { "type": "Polygon", "coordinates": [ [ [ 14.454611, 40.809471 ], [ 14.454592, 40.811723 ], [ 14.451628, 40.811709 ], [ 14.451647, 40.809457 ], [ 14.454611, 40.809471 ] ] ] } },
{ "type": "Feature", "properties": { "row": 18070, "col": 1811, "rank": 9, "pixels": 156, "burned_ha": 6.24, "severe_ha": 6.2, "severe_steep_ha": 4.96, "green_ndvi": 0.206, "severe_steep_share": 0.795, "priority": "1: treat first", "x": 452875.0, "y": 4517625.0, "lon": 14.44128, "lat": 40.80828 }, "geometry": { "type": "Polygon", "coordinates": [ [ [ 14.442774, 40.807163 ], [ 14.442755, 40.809415 ], [ 14.439791, 40.8094 ], [ 14.43981, 40.807148 ], [ 14.442774, 40.807163 ] ] ] } },
{ "type": "Feature", "properties": { "row": 18072, "col": 1815, "rank": 10, "pixels": 156, "burned_ha": 6.2, "severe_ha": 5.52, "severe_steep_ha": 4.76, "green_ndvi": 0.196, "severe_steep_share": 0.763, "priority": "1: treat first", "x": 453875.0, "y": 4518125.0, "lon": 14.4531, "lat": 40.81284 }, "geometry": { "type": "Polygon", "coordinates": [ [ [ 14.454592, 40.811723 ], [ 14.454574, 40.813975 ], [ 14.45161, 40.813961 ], [ 14.451628, 40.811709 ], [ 14.454592, 40.811723 ] ] ] } },
{ "type": "Feature", "properties": { "row": 18074, "col": 1814, "rank": 11, "pixels": 144, "burned_ha": 5.72, "severe_ha": 5.04, "severe_steep_ha": 4.28, "green_ndvi": 0.23100001, "severe_steep_share": 0.743, "priority": "1: treat first", "x": 453625.0, "y": 4518625.0, "lon": 14.4501, "lat": 40.81733 }, "geometry": { "type": "Polygon", "coordinates": [ [ [ 14.451591, 40.816213 ], [ 14.451573, 40.818465 ], [ 14.448608, 40.818451 ], [ 14.448627, 40.816199 ], [ 14.451591, 40.816213 ] ] ] } },
{ "type": "Feature", "properties": { "row": 18072, "col": 1816, "rank": 12, "pixels": 144, "burned_ha": 5.76, "severe_ha": 5.4, "severe_steep_ha": 4.24, "green_ndvi": 0.27500001, "severe_steep_share": 0.736, "priority": "1: treat first", "x": 454125.0, "y": 4518125.0, "lon": 14.45607, "lat": 40.81286 }, "geometry": { "type": "Polygon", "coordinates": [ [ [ 14.457556, 40.811737 ], [ 14.457538, 40.813989 ], [ 14.454574, 40.813975 ], [ 14.454592, 40.811723 ], [ 14.457556, 40.811737 ] ] ] } },
{ "type": "Feature", "properties": { "row": 18071, "col": 1816, "rank": 13, "pixels": 156, "burned_ha": 6.24, "severe_ha": 6.24, "severe_steep_ha": 4.4, "green_ndvi": 0.28, "severe_steep_share": 0.705, "priority": "1: treat first", "x": 454125.0, "y": 4517875.0, "lon": 14.45608, "lat": 40.8106 }, "geometry": { "type": "Polygon", "coordinates": [ [ [ 14.457575, 40.809485 ], [ 14.457556, 40.811737 ], [ 14.454592, 40.811723 ], [ 14.454611, 40.809471 ], [ 14.457575, 40.809485 ] ] ] } },
{ "type": "Feature", "properties": { "row": 18073, "col": 1815, "rank": 14, "pixels": 169, "burned_ha": 6.76, "severe_ha": 5.4, "severe_steep_ha": 4.76, "green_ndvi": 0.27200001, "severe_steep_share": 0.704, "priority": "1: treat first", "x": 453875.0, "y": 4518375.0, "lon": 14.45308, "lat": 40.81509 }, "geometry": { "type": "Polygon", "coordinates": [ [ [ 14.454574, 40.813975 ], [ 14.454555, 40.816227 ], [ 14.451591, 40.816213 ], [ 14.45161, 40.813961 ], [ 14.454574, 40.813975 ] ] ] } },
{ "type": "Feature", "properties": { "row": 18073, "col": 1814, "rank": 15, "pixels": 156, "burned_ha": 6.24, "severe_ha": 6.04, "severe_steep_ha": 4.16, "green_ndvi": 0.149, "severe_steep_share": 0.667, "priority": "1: treat first", "x": 453625.0, "y": 4518375.0, "lon": 14.45012, "lat": 40.81508 }, "geometry": { "type": "Polygon", "coordinates": [ [ [ 14.45161, 40.813961 ], [ 14.451591, 40.816213 ], [ 14.448627, 40.816199 ], [ 14.448646, 40.813947 ], [ 14.45161, 40.813961 ] ] ] } },
{ "type": "Feature", "properties": { "row": 18075, "col": 1817, "rank": 16, "pixels": 169, "burned_ha": 6.72, "severe_ha": 5.28, "severe_steep_ha": 4.48, "green_ndvi": 0.36500001, "severe_steep_share": 0.663, "priority": "1: treat first", "x": 454375.0, "y": 4518875.0, "lon": 14.45897, "lat": 40.81963 }, "geometry": { "type": "Polygon", "coordinates": [ [ [ 14.460466, 40.818507 ], [ 14.460447, 40.820759 ], [ 14.457483, 40.820745 ], [ 14.457501, 40.818493 ], [ 14.460466, 40.818507 ] ] ] } },
{ "type": "Feature", "properties": { "row": 18074, "col": 1816, "rank": 17, "pixels": 144, "burned_ha": 5.72, "severe_ha": 3.88, "severe_steep_ha": 3.68, "green_ndvi": 0.38100001, "severe_steep_share": 0.639, "priority": "1: treat first", "x": 454125.0, "y": 4518625.0, "lon": 14.45603, "lat": 40.81736 }, "geometry": { "type": "Polygon", "coordinates": [ [ [ 14.45752, 40.816241 ], [ 14.457501, 40.818493 ], [ 14.454537, 40.818479 ], [ 14.454555, 40.816227 ], [ 14.45752, 40.816241 ] ] ] } },
{ "type": "Feature", "properties": { "row": 18074, "col": 1817, "rank": 18, "pixels": 156, "burned_ha": 6.24, "severe_ha": 4.56, "severe_steep_ha": 3.8, "green_ndvi": 0.412, "severe_steep_share": 0.609, "priority": "1: treat first", "x": 454375.0, "y": 4518625.0, "lon": 14.45899, "lat": 40.81737 }, "geometry": { "type": "Polygon", "coordinates": [ [ [ 14.460484, 40.816255 ], [ 14.460466, 40.818507 ], [ 14.457501, 40.818493 ], [ 14.45752, 40.816241 ], [ 14.460484, 40.816255 ] ] ] } },
{ "type": "Feature", "properties": { "row": 18075, "col": 1815, "rank": 19, "pixels": 169, "burned_ha": 6.4, "severe_ha": 5.24, "severe_steep_ha": 4.04, "green_ndvi": 0.276, "severe_steep_share": 0.598, "priority": "1: treat first", "x": 453875.0, "y": 4518875.0, "lon": 14.45305, "lat": 40.8196 }, "geometry": { "type": "Polygon", "coordinates": [ [ [ 14.454537, 40.818479 ], [ 14.454519, 40.820731 ], [ 14.451554, 40.820717 ], [ 14.451573, 40.818465 ], [ 14.454537, 40.818479 ] ] ] } },
{ "type": "Feature", "properties": { "row": 18077, "col": 1816, "rank": 20, "pixels": 156, "burned_ha": 6.0, "severe_ha": 4.36, "severe_steep_ha": 3.52, "green_ndvi": 0.43200001, "severe_steep_share": 0.564, "priority": "1: treat first", "x": 454125.0, "y": 4519375.0, "lon": 14.45597, "lat": 40.82412 }, "geometry": { "type": "Polygon", "coordinates": [ [ [ 14.457465, 40.822997 ], [ 14.457446, 40.825249 ], [ 14.454482, 40.825235 ], [ 14.4545, 40.822983 ], [ 14.457465, 40.822997 ] ] ] } },
{ "type": "Feature", "properties": { "row": 18075, "col": 1816, "rank": 21, "pixels": 156, "burned_ha": 5.2, "severe_ha": 3.44, "severe_steep_ha": 3.44, "green_ndvi": 0.274, "severe_steep_share": 0.551, "priority": "1: treat first", "x": 454125.0, "y": 4518875.0, "lon": 14.45601, "lat": 40.81961 }, "geometry": { "type": "Polygon", "coordinates": [ [ [ 14.457501, 40.818493 ], [ 14.457483, 40.820745 ], [ 14.454519, 40.820731 ], [ 14.454537, 40.818479 ], [ 14.457501, 40.818493 ] ] ] } },
{ "type": "Feature", "properties": { "row": 18073, "col": 1816, "rank": 22, "pixels": 156, "burned_ha": 5.8, "severe_ha": 3.6, "severe_steep_ha": 3.4, "green_ndvi": 0.296, "severe_steep_share": 0.545, "priority": "1: treat first", "x": 454125.0, "y": 4518375.0, "lon": 14.45605, "lat": 40.81511 }, "geometry": { "type": "Polygon", "coordinates": [ [ [ 14.457538, 40.813989 ], [ 14.45752, 40.816241 ], [ 14.454555, 40.816227 ], [ 14.454574, 40.813975 ], [ 14.457538, 40.813989 ] ] ] } },
{ "type": "Feature", "properties": { "row": 18076, "col": 1817, "rank": 23, "pixels": 156, "burned_ha": 6.24, "severe_ha": 4.28, "severe_steep_ha": 3.2, "green_ndvi": 0.438, "severe_steep_share": 0.513, "priority": "1: treat first", "x": 454375.0, "y": 4519125.0, "lon": 14.45896, "lat": 40.82188 }, "geometry": { "type": "Polygon", "coordinates": [ [ [ 14.460447, 40.820759 ], [ 14.460429, 40.823011 ], [ 14.457465, 40.822997 ], [ 14.457483, 40.820745 ], [ 14.460447, 40.820759 ] ] ] } },
{ "type": "Feature", "properties": { "row": 18070, "col": 1812, "rank": 24, "pixels": 144, "burned_ha": 5.72, "severe_ha": 5.24, "severe_steep_ha": 2.88, "green_ndvi": 0.144, "severe_steep_share": 0.5, "priority": "1: treat first", "x": 453125.0, "y": 4517625.0, "lon": 14.44425, "lat": 40.8083 }, "geometry": { "type": "Polygon", "coordinates": [ [ [ 14.445738, 40.807177 ], [ 14.445719, 40.809429 ], [ 14.442755, 40.809415 ], [ 14.442774, 40.807163 ], [ 14.445738, 40.807177 ] ] ] } },
{ "type": "Feature", "properties": { "row": 18069, "col": 1811, "rank": 25, "pixels": 169, "burned_ha": 6.76, "severe_ha": 6.72, "severe_steep_ha": 3.32, "green_ndvi": 0.222, "severe_steep_share": 0.491, "priority": "2: treat next", "x": 452875.0, "y": 4517375.0, "lon": 14.4413, "lat": 40.80603 }, "geometry": { "type": "Polygon", "coordinates": [ [ [ 14.442793, 40.804911 ], [ 14.442774, 40.807163 ], [ 14.43981, 40.807148 ], [ 14.439829, 40.804896 ], [ 14.442793, 40.804911 ] ] ] } },
{ "type": "Feature", "properties": { "row": 18074, "col": 1818, "rank": 26, "pixels": 144, "burned_ha": 5.76, "severe_ha": 5.12, "severe_steep_ha": 2.8, "green_ndvi": 0.294, "severe_steep_share": 0.486, "priority": "2: treat next", "x": 454625.0, "y": 4518625.0, "lon": 14.46196, "lat": 40.81739 }, "geometry": { "type": "Polygon", "coordinates": [ [ [ 14.463448, 40.816269 ], [ 14.46343, 40.818521 ], [ 14.460466, 40.818507 ], [ 14.460484, 40.816255 ], [ 14.463448, 40.816269 ] ] ] } },
{ "type": "Feature", "properties": { "row": 18071, "col": 1817, "rank": 27, "pixels": 169, "burned_ha": 6.2, "severe_ha": 5.04, "severe_steep_ha": 3.0, "green_ndvi": 0.46, "severe_steep_share": 0.444, "priority": "2: treat next", "x": 454375.0, "y": 4517875.0, "lon": 14.45905, "lat": 40.81062 }, "geometry": { "type": "Polygon", "coordinates": [ [ [ 14.460539, 40.809499 ], [ 14.46052, 40.811751 ], [ 14.457556, 40.811737 ], [ 14.457575, 40.809485 ], [ 14.460539, 40.809499 ] ] ] } },
{ "type": "Feature", "properties": { "row": 18075, "col": 1810, "rank": 28, "pixels": 156, "burned_ha": 6.24, "severe_ha": 6.04, "severe_steep_ha": 2.76, "green_ndvi": 0.206, "severe_steep_share": 0.442, "priority": "2: treat next", "x": 452625.0, "y": 4518875.0, "lon": 14.43822, "lat": 40.81953 }, "geometry": { "type": "Polygon", "coordinates": [ [ [ 14.439715, 40.818408 ], [ 14.439696, 40.82066 ], [ 14.436732, 40.820646 ], [ 14.436751, 40.818394 ], [ 14.439715, 40.818408 ] ] ] } },
{ "type": "Feature", "properties": { "row": 18072, "col": 1814, "rank": 29, "pixels": 144, "burned_ha": 5.68, "severe_ha": 5.0, "severe_steep_ha": 2.44, "green_ndvi": 0.219, "severe_steep_share": 0.424, "priority": "2: treat next", "x": 453625.0, "y": 4518125.0, "lon": 14.45014, "lat": 40.81283 }, "geometry": { "type": "Polygon", "coordinates": [ [ [ 14.451628, 40.811709 ], [ 14.45161, 40.813961 ], [ 14.448646, 40.813947 ], [ 14.448664, 40.811695 ], [ 14.451628, 40.811709 ] ] ] } },
{ "type": "Feature", "properties": { "row": 18075, "col": 1818, "rank": 30, "pixels": 156, "burned_ha": 5.12, "severe_ha": 3.28, "severe_steep_ha": 2.32, "green_ndvi": 0.421, "severe_steep_share": 0.372, "priority": "2: treat next", "x": 454625.0, "y": 4518875.0, "lon": 14.46194, "lat": 40.81964 }, "geometry": { "type": "Polygon", "coordinates": [ [ [ 14.46343, 40.818521 ], [ 14.463412, 40.820773 ], [ 14.460447, 40.820759 ], [ 14.460466, 40.818507 ], [ 14.46343, 40.818521 ] ] ] } },
{ "type": "Feature", "properties": { "row": 18072, "col": 1817, "rank": 31, "pixels": 156, "burned_ha": 6.12, "severe_ha": 5.0, "severe_steep_ha": 2.16, "green_ndvi": 0.38100001, "severe_steep_share": 0.346, "priority": "2: treat next", "x": 454375.0, "y": 4518125.0, "lon": 14.45903, "lat": 40.81287 }, "geometry": { "type": "Polygon", "coordinates": [ [ [ 14.46052, 40.811751 ], [ 14.460502, 40.814003 ], [ 14.457538, 40.813989 ], [ 14.457556, 40.811737 ], [ 14.46052, 40.811751 ] ] ] } },
{ "type": "Feature", "properties": { "row": 18073, "col": 1818, "rank": 32, "pixels": 156, "burned_ha": 6.2, "severe_ha": 5.52, "severe_steep_ha": 2.04, "green_ndvi": 0.111, "severe_steep_share": 0.327, "priority": "2: treat next", "x": 454625.0, "y": 4518375.0, "lon": 14.46198, "lat": 40.81514 }, "geometry": { "type": "Polygon", "coordinates": [ [ [ 14.463466, 40.814017 ], [ 14.463448, 40.816269 ], [ 14.460484, 40.816255 ], [ 14.460502, 40.814003 ], [ 14.463466, 40.814017 ] ] ] } },
{ "type": "Feature", "properties": { "row": 18070, "col": 1810, "rank": 33, "pixels": 144, "burned_ha": 5.76, "severe_ha": 5.6, "severe_steep_ha": 1.8, "green_ndvi": 0.299, "severe_steep_share": 0.312, "priority": "2: treat next", "x": 452625.0, "y": 4517625.0, "lon": 14.43832, "lat": 40.80827 }, "geometry": { "type": "Polygon", "coordinates": [ [ [ 14.43981, 40.807148 ], [ 14.439791, 40.8094 ], [ 14.436827, 40.809386 ], [ 14.436846, 40.807134 ], [ 14.43981, 40.807148 ] ] ] } },
{ "type": "Feature", "properties": { "row": 18069, "col": 1812, "rank": 34, "pixels": 156, "burned_ha": 5.16, "severe_ha": 3.96, "severe_steep_ha": 1.92, "green_ndvi": 0.306, "severe_steep_share": 0.308, "priority": "2: treat next", "x": 453125.0, "y": 4517375.0, "lon": 14.44427, "lat": 40.80604 }, "geometry": { "type": "Polygon", "coordinates": [ [ [ 14.445756, 40.804925 ], [ 14.445738, 40.807177 ], [ 14.442774, 40.807163 ], [ 14.442793, 40.804911 ], [ 14.445756, 40.804925 ] ] ] } },
{ "type": "Feature", "properties": { "row": 18073, "col": 1813, "rank": 35, "pixels": 169, "burned_ha": 6.76, "severe_ha": 6.76, "severe_steep_ha": 2.04, "green_ndvi": 0.094, "severe_steep_share": 0.302, "priority": "2: treat next", "x": 453375.0, "y": 4518375.0, "lon": 14.44715, "lat": 40.81507 }, "geometry": { "type": "Polygon", "coordinates": [ [ [ 14.448646, 40.813947 ], [ 14.448627, 40.816199 ], [ 14.445663, 40.816185 ], [ 14.445681, 40.813933 ], [ 14.448646, 40.813947 ] ] ] } },
{ "type": "Feature", "properties": { "row": 18076, "col": 1809, "rank": 36, "pixels": 156, "burned_ha": 4.24, "severe_ha": 3.0, "severe_steep_ha": 1.88, "green_ndvi": 0.273, "severe_steep_share": 0.301, "priority": "2: treat next", "x": 452375.0, "y": 4519125.0, "lon": 14.43524, "lat": 40.82176 }, "geometry": { "type": "Polygon", "coordinates": [ [ [ 14.436732, 40.820646 ], [ 14.436713, 40.822898 ], [ 14.433748, 40.822883 ], [ 14.433767, 40.820631 ], [ 14.436732, 40.820646 ] ] ] } },
{ "type": "Feature", "properties": { "row": 18070, "col": 1816, "rank": 37, "pixels": 144, "burned_ha": 3.64, "severe_ha": 2.76, "severe_steep_ha": 1.64, "green_ndvi": 0.375, "severe_steep_share": 0.285, "priority": "2: treat next", "x": 454125.0, "y": 4517625.0, "lon": 14.4561, "lat": 40.80835 }, "geometry": { "type": "Polygon", "coordinates": [ [ [ 14.457593, 40.807233 ], [ 14.457575, 40.809485 ], [ 14.454611, 40.809471 ], [ 14.454629, 40.807219 ], [ 14.457593, 40.807233 ] ] ] } },
{ "type": "Feature", "properties": { "row": 18078, "col": 1814, "rank": 38, "pixels": 144, "burned_ha": 2.44, "severe_ha": 1.6, "severe_steep_ha": 1.6, "green_ndvi": 0.392, "severe_steep_share": 0.278, "priority": "2: treat next", "x": 453625.0, "y": 4519625.0, "lon": 14.45003, "lat": 40.82634 }, "geometry": { "type": "Polygon", "coordinates": [ [ [ 14.451517, 40.825221 ], [ 14.451498, 40.827473 ], [ 14.448534, 40.827459 ], [ 14.448552, 40.825207 ], [ 14.451517, 40.825221 ] ] ] } },
{ "type": "Feature", "properties": { "row": 18075, "col": 1809, "rank": 39, "pixels": 169, "burned_ha": 3.72, "severe_ha": 2.88, "severe_steep_ha": 1.84, "green_ndvi": 0.169, "severe_steep_share": 0.272, "priority": "2: treat next", "x": 452375.0, "y": 4518875.0, "lon": 14.43526, "lat": 40.81951 }, "geometry": { "type": "Polygon", "coordinates": [ [ [ 14.436751, 40.818394 ], [ 14.436732, 40.820646 ], [ 14.433767, 40.820631 ], [ 14.433787, 40.818379 ], [ 14.436751, 40.818394 ] ] ] } },
{ "type": "Feature", "properties": { "row": 18071, "col": 1811, "rank": 40, "pixels": 169, "burned_ha": 6.76, "severe_ha": 6.64, "severe_steep_ha": 1.72, "green_ndvi": 0.112, "severe_steep_share": 0.254, "priority": "2: treat next", "x": 452875.0, "y": 4517875.0, "lon": 14.44126, "lat": 40.81053 }, "geometry": { "type": "Polygon", "coordinates": [ [ [ 14.442755, 40.809415 ], [ 14.442736, 40.811667 ], [ 14.439772, 40.811652 ], [ 14.439791, 40.8094 ], [ 14.442755, 40.809415 ] ] ] } }
]
}
