{
"type": "FeatureCollection",
"name": "main_fire_perimeter",
"xy_coordinate_resolution": 1e-06,
"features": [
{ "type": "Feature", "properties": { "area_ha": 737.1 }, "geometry": { "type": "MultiPolygon", "coordinates": [ [ [ [ 14.43762, 40.799751 ], [ 14.437621, 40.79957 ], [ 14.437858, 40.799572 ], [ 14.437857, 40.799752 ], [ 14.43762, 40.799751 ] ] ], [ [ [ 14.436906, 40.800107 ], [ 14.436907, 40.799927 ], [ 14.437144, 40.799928 ], [ 14.437146, 40.799748 ], [ 14.43762, 40.799751 ], [ 14.437618, 40.799931 ], [ 14.437381, 40.79993 ], [ 14.43738, 40.80011 ], [ 14.436906, 40.800107 ] ] ], [ [ [ 14.437852, 40.800292 ], [ 14.437857, 40.799752 ], [ 14.438094, 40.799753 ], [ 14.438089, 40.800293 ], [ 14.437852, 40.800292 ] ] ], [ [ [ 14.436667, 40.800286 ], [ 14.436668, 40.800106 ], [ 14.436906, 40.800107 ], [ 14.436904, 40.800288 ], [ 14.436667, 40.800286 ] ] ], [ [ [ 14.43926, 40.802101 ], [ 14.439258, 40.802281 ], [ 14.439021, 40.80228 ], [ 14.43902, 40.80246 ], [ 14.438782, 40.802459 ], [ 14.438784, 40.802279 ], [ 14.438547, 40.802278 ], [ 14.438548, 40.802097 ], [ 14.43926, 40.802101 ] ] ], [ [ [ 14.447307, 40.803761 ], [ 14.447309, 40.803581 ], [ 14.447072, 40.80358 ], [ 14.44707, 40.80376 ], [ 14.446596, 40.803758 ], [ 14.446597, 40.803578 ], [ 14.446835, 40.803579 ], [ 14.446836, 40.803399 ], [ 14.447073, 40.8034 ], [ 14.447075, 40.80322 ], [ 14.447549, 40.803222 ], [ 14.447544, 40.803762 ], [ 14.447307, 40.803761 ] ] ], [ [ [ 14.446357, 40.803937 ], [ 14.446359, 40.803757 ], [ 14.446596, 40.803758 ], [ 14.446595, 40.803938 ], [ 14.446357, 40.803937 ] ] ], [ [ [ 14.432791, 40.809997 ], [ 14.432554, 40.809995 ], [ 14.43256, 40.809275 ], [ 14.432797, 40.809276 ], [ 14.432799, 40.809096 ], [ 14.433036, 40.809097 ], [ 14.433031, 40.809637 ], [ 14.433268, 40.809639 ], [ 14.433267, 40.809819 ], [ 14.433504, 40.80982 ], [ 14.433499, 40.81036 ], [ 14.433973, 40.810363 ], [ 14.43397, 40.810723 ], [ 14.433733, 40.810722 ], [ 14.433732, 40.810902 ], [ 14.433495, 40.810901 ], [ 14.433493, 40.811081 ], [ 14.433256, 40.81108 ], [ 14.433254, 40.81126 ], [ 14.43278, 40.811258 ], [ 14.432782, 40.811078 ], [ 14.432545, 40.811076 ], [ 14.432546, 40.810896 ], [ 14.432309, 40.810895 ], [ 14.432314, 40.810355 ], [ 14.432551, 40.810356 ], [ 14.432552, 40.810176 ], [ 14.432789, 40.810177 ], [ 14.432791, 40.809997 ] ] ], [ [ [ 14.435286, 40.823341 ], [ 14.435523, 40.823343 ], [ 14.435534, 40.822081 ], [ 14.435771, 40.822083 ], [ 14.435774, 40.821722 ], [ 14.435537, 40.821721 ], [ 14.435535, 40.821901 ], [ 14.434112, 40.821894 ], [ 14.434116, 40.821534 ], [ 14.433878, 40.821533 ], [ 14.433877, 40.821713 ], [ 14.43364, 40.821712 ], [ 14.433641, 40.821532 ], [ 14.433404, 40.82153 ], [ 14.433407, 40.82117 ], [ 14.432933, 40.821168 ], [ 14.432928, 40.821708 ], [ 14.432454, 40.821706 ], [ 14.432452, 40.821886 ], [ 14.431741, 40.821883 ], [ 14.431742, 40.821702 ], [ 14.431505, 40.821701 ], [ 14.431504, 40.821881 ], [ 14.431267, 40.82188 ], [ 14.43127, 40.82152 ], [ 14.431033, 40.821519 ], [ 14.431034, 40.821339 ], [ 14.430797, 40.821337 ], [ 14.430798, 40.821157 ], [ 14.430561, 40.821156 ], [ 14.430566, 40.820616 ], [ 14.430803, 40.820617 ], [ 14.430805, 40.820437 ], [ 14.431042, 40.820438 ], [ 14.431043, 40.820258 ], [ 14.43128, 40.820259 ], [ 14.431282, 40.820079 ], [ 14.431756, 40.820081 ], [ 14.431755, 40.820261 ], [ 14.431992, 40.820262 ], [ 14.431993, 40.820082 ], [ 14.432468, 40.820085 ], [ 14.432469, 40.819904 ], [ 14.432944, 40.819907 ], [ 14.432941, 40.820267 ], [ 14.433415, 40.820269 ], [ 14.433413, 40.82045 ], [ 14.43365, 40.820451 ], [ 14.433649, 40.820631 ], [ 14.434123, 40.820633 ], [ 14.434122, 40.820813 ], [ 14.434359, 40.820815 ], [ 14.43436, 40.820634 ], [ 14.434835, 40.820637 ], [ 14.434836, 40.820457 ], [ 14.435311, 40.820459 ], [ 14.435312, 40.820279 ], [ 14.435075, 40.820278 ], [ 14.435078, 40.819917 ], [ 14.435315, 40.819918 ], [ 14.435317, 40.819738 ], [ 14.435079, 40.819737 ], [ 14.435081, 40.819557 ], [ 14.434844, 40.819556 ], [ 14.434848, 40.819015 ], [ 14.435086, 40.819016 ], [ 14.435095, 40.817935 ], [ 14.434858, 40.817934 ], [ 14.434861, 40.817574 ], [ 14.434624, 40.817573 ], [ 14.434628, 40.817032 ], [ 14.433917, 40.817029 ], [ 14.433918, 40.816849 ], [ 14.433681, 40.816847 ], [ 14.433687, 40.816127 ], [ 14.433213, 40.816124 ], [ 14.433218, 40.815584 ], [ 14.43298, 40.815583 ], [ 14.432982, 40.815403 ], [ 14.432745, 40.815402 ], [ 14.432746, 40.815221 ], [ 14.432509, 40.81522 ], [ 14.432512, 40.81486 ], [ 14.432749, 40.814861 ], [ 14.432751, 40.814681 ], [ 14.432514, 40.81468 ], [ 14.432517, 40.814319 ], [ 14.43228, 40.814318 ], [ 14.432283, 40.813958 ], [ 14.432046, 40.813957 ], [ 14.432049, 40.813596 ], [ 14.432286, 40.813598 ], [ 14.432287, 40.813417 ], [ 14.43205, 40.813416 ], [ 14.432052, 40.813236 ], [ 14.432289, 40.813237 ], [ 14.43229, 40.813057 ], [ 14.432528, 40.813058 ], [ 14.432529, 40.812878 ], [ 14.432766, 40.812879 ], [ 14.432769, 40.812519 ], [ 14.432532, 40.812518 ], [ 14.432534, 40.812338 ], [ 14.432297, 40.812336 ], [ 14.432298, 40.812156 ], [ 14.432061, 40.812155 ], [ 14.432063, 40.811975 ], [ 14.431825, 40.811974 ], [ 14.431827, 40.811794 ], [ 14.432301, 40.811796 ], [ 14.4323, 40.811976 ], [ 14.432537, 40.811977 ], [ 14.432538, 40.811797 ], [ 14.43325, 40.811801 ], [ 14.433251, 40.81162 ], [ 14.433726, 40.811623 ], [ 14.433722, 40.811983 ], [ 14.43396, 40.811984 ], [ 14.433958, 40.812164 ], [ 14.434432, 40.812167 ], [ 14.434431, 40.812347 ], [ 14.435142, 40.81235 ], [ 14.435141, 40.812531 ], [ 14.435615, 40.812533 ], [ 14.435616, 40.812353 ], [ 14.435854, 40.812354 ], [ 14.435855, 40.812174 ], [ 14.435618, 40.812173 ], [ 14.435624, 40.811452 ], [ 14.43515, 40.81145 ], [ 14.435153, 40.811089 ], [ 14.434679, 40.811087 ], [ 14.434682, 40.810727 ], [ 14.434445, 40.810725 ], [ 14.434448, 40.810365 ], [ 14.43421, 40.810364 ], [ 14.434215, 40.809823 ], [ 14.433978, 40.809822 ], [ 14.433976, 40.810002 ], [ 14.433739, 40.810001 ], [ 14.433741, 40.809821 ], [ 14.433504, 40.80982 ], [ 14.433508, 40.809279 ], [ 14.433271, 40.809278 ], [ 14.433273, 40.809098 ], [ 14.433036, 40.809097 ], [ 14.433037, 40.808917 ], [ 14.4328, 40.808916 ], [ 14.432802, 40.808736 ], [ 14.432564, 40.808734 ], [ 14.432566, 40.808554 ], [ 14.432329, 40.808553 ], [ 14.43233, 40.808373 ], [ 14.432093, 40.808372 ], [ 14.432095, 40.808192 ], [ 14.431858, 40.80819 ], [ 14.431859, 40.80801 ], [ 14.431622, 40.808009 ], [ 14.431625, 40.807649 ], [ 14.432574, 40.807653 ], [ 14.432577, 40.807293 ], [ 14.432103, 40.807291 ], [ 14.432101, 40.807471 ], [ 14.43139, 40.807467 ], [ 14.431384, 40.808188 ], [ 14.430909, 40.808186 ], [ 14.430914, 40.807645 ], [ 14.431151, 40.807646 ], [ 14.431156, 40.807106 ], [ 14.430919, 40.807105 ], [ 14.43092, 40.806925 ], [ 14.430683, 40.806923 ], [ 14.430685, 40.806743 ], [ 14.430447, 40.806742 ], [ 14.43045, 40.806382 ], [ 14.430213, 40.806381 ], [ 14.430215, 40.8062 ], [ 14.429978, 40.806199 ], [ 14.429982, 40.805659 ], [ 14.429745, 40.805658 ], [ 14.429748, 40.805297 ], [ 14.429511, 40.805296 ], [ 14.429514, 40.804936 ], [ 14.429752, 40.804937 ], [ 14.429755, 40.804577 ], [ 14.429517, 40.804575 ], [ 14.429519, 40.804395 ], [ 14.429282, 40.804394 ], [ 14.429283, 40.804214 ], [ 14.429995, 40.804217 ], [ 14.429993, 40.804398 ], [ 14.43023, 40.804399 ], [ 14.430232, 40.804219 ], [ 14.430469, 40.80422 ], [ 14.43047, 40.80404 ], [ 14.430708, 40.804041 ], [ 14.430709, 40.803861 ], [ 14.43142, 40.803864 ], [ 14.431422, 40.803684 ], [ 14.431659, 40.803685 ], [ 14.431664, 40.803145 ], [ 14.431189, 40.803142 ], [ 14.431188, 40.803322 ], [ 14.430951, 40.803321 ], [ 14.430952, 40.803141 ], [ 14.430715, 40.80314 ], [ 14.430717, 40.80296 ], [ 14.430954, 40.802961 ], [ 14.430955, 40.802781 ], [ 14.431193, 40.802782 ], [ 14.431194, 40.802602 ], [ 14.431905, 40.802605 ], [ 14.431907, 40.802425 ], [ 14.43167, 40.802424 ], [ 14.431671, 40.802244 ], [ 14.431434, 40.802243 ], [ 14.431433, 40.802423 ], [ 14.431196, 40.802422 ], [ 14.431197, 40.802242 ], [ 14.43096, 40.80224 ], [ 14.430962, 40.80206 ], [ 14.431199, 40.802061 ], [ 14.4312, 40.801881 ], [ 14.432149, 40.801886 ], [ 14.432152, 40.801526 ], [ 14.432389, 40.801527 ], [ 14.43239, 40.801347 ], [ 14.432864, 40.801349 ], [ 14.432866, 40.801169 ], [ 14.43334, 40.801171 ], [ 14.433339, 40.801351 ], [ 14.433576, 40.801352 ], [ 14.433577, 40.801172 ], [ 14.433814, 40.801173 ], [ 14.433813, 40.801354 ], [ 14.43405, 40.801355 ], [ 14.434048, 40.801535 ], [ 14.434285, 40.801536 ], [ 14.434284, 40.801716 ], [ 14.435232, 40.801721 ], [ 14.435231, 40.801901 ], [ 14.435468, 40.801902 ], [ 14.435469, 40.801722 ], [ 14.435944, 40.801724 ], [ 14.435948, 40.801184 ], [ 14.436185, 40.801185 ], [ 14.436187, 40.801005 ], [ 14.43595, 40.801004 ], [ 14.435951, 40.800823 ], [ 14.435714, 40.800822 ], [ 14.435716, 40.800642 ], [ 14.435953, 40.800643 ], [ 14.435954, 40.800463 ], [ 14.436191, 40.800464 ], [ 14.43619, 40.800644 ], [ 14.436664, 40.800647 ], [ 14.436665, 40.800467 ], [ 14.436903, 40.800468 ], [ 14.436904, 40.800288 ], [ 14.437141, 40.800289 ], [ 14.437134, 40.80119 ], [ 14.436896, 40.801188 ], [ 14.436895, 40.801369 ], [ 14.436658, 40.801367 ], [ 14.436656, 40.801548 ], [ 14.436419, 40.801546 ], [ 14.436418, 40.801727 ], [ 14.436892, 40.801729 ], [ 14.436893, 40.801549 ], [ 14.43713, 40.80155 ], [ 14.437129, 40.80173 ], [ 14.437366, 40.801731 ], [ 14.437365, 40.801911 ], [ 14.437839, 40.801914 ], [ 14.437837, 40.802094 ], [ 14.438074, 40.802095 ], [ 14.438073, 40.802275 ], [ 14.438547, 40.802278 ], [ 14.438544, 40.802638 ], [ 14.438781, 40.802639 ], [ 14.438779, 40.802819 ], [ 14.439017, 40.80282 ], [ 14.439018, 40.80264 ], [ 14.439255, 40.802641 ], [ 14.439254, 40.802821 ], [ 14.440676, 40.802828 ], [ 14.440675, 40.803009 ], [ 14.441386, 40.803012 ], [ 14.441384, 40.803192 ], [ 14.441622, 40.803193 ], [ 14.44162, 40.803373 ], [ 14.442331, 40.803377 ], [ 14.442325, 40.804098 ], [ 14.442562, 40.804099 ], [ 14.442564, 40.803919 ], [ 14.443038, 40.803921 ], [ 14.443037, 40.804101 ], [ 14.443748, 40.804104 ], [ 14.443749, 40.803924 ], [ 14.444461, 40.803928 ], [ 14.444462, 40.803747 ], [ 14.444699, 40.803749 ], [ 14.444698, 40.803929 ], [ 14.445883, 40.803935 ], [ 14.445885, 40.803754 ], [ 14.446122, 40.803755 ], [ 14.44612, 40.803936 ], [ 14.446357, 40.803937 ], [ 14.446356, 40.804117 ], [ 14.446119, 40.804116 ], [ 14.446117, 40.804296 ], [ 14.445406, 40.804293 ], [ 14.445408, 40.804112 ], [ 14.444933, 40.80411 ], [ 14.44493, 40.80447 ], [ 14.445405, 40.804473 ], [ 14.445403, 40.804653 ], [ 14.444929, 40.804651 ], [ 14.444924, 40.805191 ], [ 14.445399, 40.805193 ], [ 14.445397, 40.805374 ], [ 14.445634, 40.805375 ], [ 14.445631, 40.805735 ], [ 14.445868, 40.805736 ], [ 14.445865, 40.806096 ], [ 14.445391, 40.806094 ], [ 14.44539, 40.806274 ], [ 14.444678, 40.806271 ], [ 14.444675, 40.806631 ], [ 14.444438, 40.80663 ], [ 14.444435, 40.80699 ], [ 14.444909, 40.806993 ], [ 14.444906, 40.807353 ], [ 14.445143, 40.807354 ], [ 14.445145, 40.807174 ], [ 14.445382, 40.807175 ], [ 14.445385, 40.806815 ], [ 14.445622, 40.806816 ], [ 14.445624, 40.806636 ], [ 14.445861, 40.806637 ], [ 14.445862, 40.806457 ], [ 14.446574, 40.80646 ], [ 14.446572, 40.80664 ], [ 14.446809, 40.806641 ], [ 14.446811, 40.806461 ], [ 14.447048, 40.806462 ], [ 14.447043, 40.807003 ], [ 14.44728, 40.807004 ], [ 14.447279, 40.807184 ], [ 14.447753, 40.807187 ], [ 14.447756, 40.806826 ], [ 14.447993, 40.806827 ], [ 14.447999, 40.806107 ], [ 14.447525, 40.806104 ], [ 14.447523, 40.806285 ], [ 14.446338, 40.806279 ], [ 14.446344, 40.805558 ], [ 14.44587, 40.805556 ], [ 14.445874, 40.805015 ], [ 14.446348, 40.805018 ], [ 14.446347, 40.805198 ], [ 14.447058, 40.805201 ], [ 14.44706, 40.805021 ], [ 14.447771, 40.805025 ], [ 14.447773, 40.804844 ], [ 14.44801, 40.804846 ], [ 14.448011, 40.804665 ], [ 14.448959, 40.80467 ], [ 14.448958, 40.80485 ], [ 14.449669, 40.804853 ], [ 14.449668, 40.805034 ], [ 14.450142, 40.805036 ], [ 14.450141, 40.805216 ], [ 14.450615, 40.805218 ], [ 14.450613, 40.805398 ], [ 14.450376, 40.805397 ], [ 14.450373, 40.805758 ], [ 14.451084, 40.805761 ], [ 14.451083, 40.805941 ], [ 14.451557, 40.805943 ], [ 14.451559, 40.805763 ], [ 14.451796, 40.805764 ], [ 14.451797, 40.805584 ], [ 14.452034, 40.805585 ], [ 14.452036, 40.805405 ], [ 14.452273, 40.805406 ], [ 14.452276, 40.805046 ], [ 14.452513, 40.805047 ], [ 14.452509, 40.805588 ], [ 14.452983, 40.80559 ], [ 14.452981, 40.80577 ], [ 14.453218, 40.805771 ], [ 14.453215, 40.806132 ], [ 14.453453, 40.806133 ], [ 14.453451, 40.806313 ], [ 14.453925, 40.806315 ], [ 14.453927, 40.806135 ], [ 14.454164, 40.806136 ], [ 14.454162, 40.806316 ], [ 14.454637, 40.806318 ], [ 14.454641, 40.805778 ], [ 14.45393, 40.805775 ], [ 14.453928, 40.805955 ], [ 14.453691, 40.805954 ], [ 14.453693, 40.805773 ], [ 14.453455, 40.805772 ], [ 14.453458, 40.805412 ], [ 14.453221, 40.805411 ], [ 14.453223, 40.805231 ], [ 14.452986, 40.80523 ], [ 14.452989, 40.804869 ], [ 14.453226, 40.80487 ], [ 14.453224, 40.805051 ], [ 14.453461, 40.805052 ], [ 14.453466, 40.804511 ], [ 14.454414, 40.804516 ], [ 14.454416, 40.804336 ], [ 14.454653, 40.804337 ], [ 14.454651, 40.804517 ], [ 14.455126, 40.804519 ], [ 14.455124, 40.804699 ], [ 14.455598, 40.804701 ], [ 14.455595, 40.805062 ], [ 14.455832, 40.805063 ], [ 14.455829, 40.805423 ], [ 14.455592, 40.805422 ], [ 14.455591, 40.805602 ], [ 14.455828, 40.805603 ], [ 14.455822, 40.806324 ], [ 14.455585, 40.806323 ], [ 14.455584, 40.806503 ], [ 14.455346, 40.806502 ], [ 14.455345, 40.806682 ], [ 14.455108, 40.806681 ], [ 14.455106, 40.806861 ], [ 14.453921, 40.806856 ], [ 14.453924, 40.806495 ], [ 14.453687, 40.806494 ], [ 14.453685, 40.806674 ], [ 14.453448, 40.806673 ], [ 14.453447, 40.806853 ], [ 14.45321, 40.806852 ], [ 14.453208, 40.807032 ], [ 14.453445, 40.807033 ], [ 14.453444, 40.807214 ], [ 14.452732, 40.80721 ], [ 14.452729, 40.807571 ], [ 14.453204, 40.807573 ], [ 14.453202, 40.807753 ], [ 14.453439, 40.807754 ], [ 14.453441, 40.807574 ], [ 14.453678, 40.807575 ], [ 14.453679, 40.807395 ], [ 14.454154, 40.807397 ], [ 14.454152, 40.807577 ], [ 14.454389, 40.807578 ], [ 14.454386, 40.807939 ], [ 14.454623, 40.80794 ], [ 14.454625, 40.80776 ], [ 14.454862, 40.807761 ], [ 14.45486, 40.807941 ], [ 14.455098, 40.807942 ], [ 14.455096, 40.808122 ], [ 14.456282, 40.808128 ], [ 14.456286, 40.807587 ], [ 14.456523, 40.807589 ], [ 14.456517, 40.808309 ], [ 14.456754, 40.80831 ], [ 14.456756, 40.80813 ], [ 14.457941, 40.808136 ], [ 14.457943, 40.807956 ], [ 14.45818, 40.807957 ], [ 14.458186, 40.807236 ], [ 14.458423, 40.807237 ], [ 14.458421, 40.807417 ], [ 14.458659, 40.807418 ], [ 14.45866, 40.807238 ], [ 14.458897, 40.807239 ], [ 14.458896, 40.807419 ], [ 14.459133, 40.807421 ], [ 14.459134, 40.80724 ], [ 14.459371, 40.807242 ], [ 14.459373, 40.807061 ], [ 14.458899, 40.807059 ], [ 14.458903, 40.806519 ], [ 14.458192, 40.806515 ], [ 14.458196, 40.805975 ], [ 14.457959, 40.805974 ], [ 14.457956, 40.806334 ], [ 14.457482, 40.806332 ], [ 14.457483, 40.806152 ], [ 14.457246, 40.806151 ], [ 14.457248, 40.80597 ], [ 14.456773, 40.805968 ], [ 14.456779, 40.805248 ], [ 14.457254, 40.80525 ], [ 14.457255, 40.80507 ], [ 14.457018, 40.805068 ], [ 14.457022, 40.804528 ], [ 14.457259, 40.804529 ], [ 14.457261, 40.804349 ], [ 14.457735, 40.804351 ], [ 14.457739, 40.803811 ], [ 14.457028, 40.803807 ], [ 14.45703, 40.803627 ], [ 14.456793, 40.803626 ], [ 14.456794, 40.803446 ], [ 14.457031, 40.803447 ], [ 14.457033, 40.803267 ], [ 14.456795, 40.803266 ], [ 14.456797, 40.803086 ], [ 14.45656, 40.803084 ], [ 14.456561, 40.802904 ], [ 14.456798, 40.802905 ], [ 14.456801, 40.802545 ], [ 14.457038, 40.802546 ], [ 14.457036, 40.802907 ], [ 14.457273, 40.802908 ], [ 14.457274, 40.802727 ], [ 14.457511, 40.802729 ], [ 14.457508, 40.803089 ], [ 14.457271, 40.803088 ], [ 14.457267, 40.803628 ], [ 14.457978, 40.803632 ], [ 14.457979, 40.803451 ], [ 14.459639, 40.803459 ], [ 14.459641, 40.803279 ], [ 14.459404, 40.803278 ], [ 14.459406, 40.802918 ], [ 14.458932, 40.802915 ], [ 14.458935, 40.802555 ], [ 14.459172, 40.802556 ], [ 14.459174, 40.802376 ], [ 14.459411, 40.802377 ], [ 14.459409, 40.802557 ], [ 14.459646, 40.802558 ], [ 14.459649, 40.802198 ], [ 14.459175, 40.802196 ], [ 14.459177, 40.802016 ], [ 14.458702, 40.802013 ], [ 14.458704, 40.801833 ], [ 14.458467, 40.801832 ], [ 14.458468, 40.801652 ], [ 14.458231, 40.801651 ], [ 14.458233, 40.801471 ], [ 14.457996, 40.80147 ], [ 14.457997, 40.801289 ], [ 14.458234, 40.801291 ], [ 14.458236, 40.80111 ], [ 14.45871, 40.801113 ], [ 14.458708, 40.801293 ], [ 14.458945, 40.801294 ], [ 14.458948, 40.800934 ], [ 14.459185, 40.800935 ], [ 14.459187, 40.800755 ], [ 14.459424, 40.800756 ], [ 14.459425, 40.800576 ], [ 14.459663, 40.800577 ], [ 14.45966, 40.800937 ], [ 14.459897, 40.800938 ], [ 14.459892, 40.801479 ], [ 14.460129, 40.80148 ], [ 14.460131, 40.801299 ], [ 14.460368, 40.801301 ], [ 14.460372, 40.80076 ], [ 14.460846, 40.800762 ], [ 14.460848, 40.800582 ], [ 14.460611, 40.800581 ], [ 14.460612, 40.800401 ], [ 14.461086, 40.800403 ], [ 14.461084, 40.800763 ], [ 14.461558, 40.800766 ], [ 14.461556, 40.800946 ], [ 14.461793, 40.800947 ], [ 14.461792, 40.801127 ], [ 14.462029, 40.801128 ], [ 14.462026, 40.801489 ], [ 14.462263, 40.80149 ], [ 14.462262, 40.80167 ], [ 14.462499, 40.801671 ], [ 14.462497, 40.801851 ], [ 14.462734, 40.801852 ], [ 14.462732, 40.802212 ], [ 14.462494, 40.802211 ], [ 14.462487, 40.803112 ], [ 14.463198, 40.803116 ], [ 14.4632, 40.802935 ], [ 14.463674, 40.802938 ], [ 14.463673, 40.803118 ], [ 14.464858, 40.803123 ], [ 14.46486, 40.802943 ], [ 14.465097, 40.802944 ], [ 14.465098, 40.802764 ], [ 14.464861, 40.802763 ], [ 14.464865, 40.802222 ], [ 14.464628, 40.802221 ], [ 14.46463, 40.802041 ], [ 14.464867, 40.802042 ], [ 14.46487, 40.801682 ], [ 14.465581, 40.801685 ], [ 14.465584, 40.801325 ], [ 14.466058, 40.801327 ], [ 14.466057, 40.801507 ], [ 14.466294, 40.801508 ], [ 14.466289, 40.802049 ], [ 14.467001, 40.802052 ], [ 14.466998, 40.802412 ], [ 14.466761, 40.802411 ], [ 14.466759, 40.802592 ], [ 14.466522, 40.80259 ], [ 14.466521, 40.802771 ], [ 14.466284, 40.802769 ], [ 14.466273, 40.804031 ], [ 14.467933, 40.804038 ], [ 14.467932, 40.804218 ], [ 14.467695, 40.804217 ], [ 14.467692, 40.804578 ], [ 14.467455, 40.804577 ], [ 14.467453, 40.804757 ], [ 14.468876, 40.804763 ], [ 14.468877, 40.804583 ], [ 14.469351, 40.804585 ], [ 14.469353, 40.804405 ], [ 14.469827, 40.804407 ], [ 14.469828, 40.804227 ], [ 14.470303, 40.804229 ], [ 14.470307, 40.803689 ], [ 14.471018, 40.803692 ], [ 14.471021, 40.803332 ], [ 14.471258, 40.803333 ], [ 14.471257, 40.803513 ], [ 14.471731, 40.803515 ], [ 14.471732, 40.803335 ], [ 14.47197, 40.803336 ], [ 14.471971, 40.803156 ], [ 14.472445, 40.803158 ], [ 14.472447, 40.802978 ], [ 14.473158, 40.802981 ], [ 14.473155, 40.803342 ], [ 14.472918, 40.80334 ], [ 14.472919, 40.80316 ], [ 14.472682, 40.803159 ], [ 14.472679, 40.80352 ], [ 14.473391, 40.803523 ], [ 14.473393, 40.803162 ], [ 14.473631, 40.803164 ], [ 14.473629, 40.803344 ], [ 14.473866, 40.803345 ], [ 14.473865, 40.803525 ], [ 14.474102, 40.803526 ], [ 14.474101, 40.803706 ], [ 14.473863, 40.803705 ], [ 14.473862, 40.803885 ], [ 14.473625, 40.803884 ], [ 14.473621, 40.804425 ], [ 14.473384, 40.804424 ], [ 14.473382, 40.804604 ], [ 14.473856, 40.804606 ], [ 14.473853, 40.804966 ], [ 14.473616, 40.804965 ], [ 14.473615, 40.805145 ], [ 14.473852, 40.805146 ], [ 14.473849, 40.805507 ], [ 14.474086, 40.805508 ], [ 14.474085, 40.805688 ], [ 14.474322, 40.805689 ], [ 14.474319, 40.806049 ], [ 14.474082, 40.806048 ], [ 14.474078, 40.806589 ], [ 14.474315, 40.80659 ], [ 14.474313, 40.80677 ], [ 14.474076, 40.806769 ], [ 14.474075, 40.806949 ], [ 14.473838, 40.806948 ], [ 14.473831, 40.807849 ], [ 14.473594, 40.807848 ], [ 14.473592, 40.808028 ], [ 14.473118, 40.808026 ], [ 14.473117, 40.808206 ], [ 14.472405, 40.808203 ], [ 14.472404, 40.808383 ], [ 14.47193, 40.808381 ], [ 14.471928, 40.808561 ], [ 14.472165, 40.808562 ], [ 14.472164, 40.808742 ], [ 14.472401, 40.808743 ], [ 14.472398, 40.809104 ], [ 14.472635, 40.809105 ], [ 14.472634, 40.809285 ], [ 14.472397, 40.809284 ], [ 14.472395, 40.809464 ], [ 14.472158, 40.809463 ], [ 14.472152, 40.810183 ], [ 14.471678, 40.810181 ], [ 14.471677, 40.810361 ], [ 14.471914, 40.810363 ], [ 14.471912, 40.810543 ], [ 14.471438, 40.810541 ], [ 14.471437, 40.810721 ], [ 14.470488, 40.810716 ], [ 14.47049, 40.810536 ], [ 14.470253, 40.810535 ], [ 14.470254, 40.810355 ], [ 14.469305, 40.810351 ], [ 14.469304, 40.810531 ], [ 14.46883, 40.810529 ], [ 14.468827, 40.810889 ], [ 14.46859, 40.810888 ], [ 14.468591, 40.810708 ], [ 14.468117, 40.810705 ], [ 14.468118, 40.810525 ], [ 14.467881, 40.810524 ], [ 14.467883, 40.810344 ], [ 14.46812, 40.810345 ], [ 14.468121, 40.810165 ], [ 14.467647, 40.810163 ], [ 14.467646, 40.810343 ], [ 14.466934, 40.81034 ], [ 14.466911, 40.813222 ], [ 14.466674, 40.813221 ], [ 14.466673, 40.813401 ], [ 14.466436, 40.8134 ], [ 14.466437, 40.81322 ], [ 14.4662, 40.813219 ], [ 14.466201, 40.813039 ], [ 14.465964, 40.813038 ], [ 14.465961, 40.813398 ], [ 14.466198, 40.813399 ], [ 14.466196, 40.813759 ], [ 14.46667, 40.813762 ], [ 14.466668, 40.813942 ], [ 14.467143, 40.813944 ], [ 14.467141, 40.814124 ], [ 14.467378, 40.814125 ], [ 14.467377, 40.814305 ], [ 14.467614, 40.814306 ], [ 14.467613, 40.814487 ], [ 14.46785, 40.814488 ], [ 14.467848, 40.814668 ], [ 14.468323, 40.81467 ], [ 14.468321, 40.81485 ], [ 14.468558, 40.814851 ], [ 14.468557, 40.815032 ], [ 14.46832, 40.81503 ], [ 14.468317, 40.815391 ], [ 14.46808, 40.81539 ], [ 14.468077, 40.81575 ], [ 14.46784, 40.815749 ], [ 14.467835, 40.816289 ], [ 14.467598, 40.816288 ], [ 14.467597, 40.816468 ], [ 14.46736, 40.816467 ], [ 14.467357, 40.816828 ], [ 14.46712, 40.816827 ], [ 14.467118, 40.817007 ], [ 14.466881, 40.817006 ], [ 14.46688, 40.817186 ], [ 14.466642, 40.817185 ], [ 14.466638, 40.817725 ], [ 14.466401, 40.817724 ], [ 14.466399, 40.817904 ], [ 14.466162, 40.817903 ], [ 14.466159, 40.818263 ], [ 14.465922, 40.818262 ], [ 14.465921, 40.818443 ], [ 14.465447, 40.81844 ], [ 14.465445, 40.818621 ], [ 14.465208, 40.818619 ], [ 14.465204, 40.81916 ], [ 14.465441, 40.819161 ], [ 14.465439, 40.819341 ], [ 14.464965, 40.819339 ], [ 14.464964, 40.819519 ], [ 14.464726, 40.819518 ], [ 14.464725, 40.819698 ], [ 14.463539, 40.819693 ], [ 14.463536, 40.820053 ], [ 14.462351, 40.820047 ], [ 14.462349, 40.820228 ], [ 14.462112, 40.820227 ], [ 14.46211, 40.820407 ], [ 14.461873, 40.820406 ], [ 14.461872, 40.820586 ], [ 14.461398, 40.820584 ], [ 14.461399, 40.820403 ], [ 14.460925, 40.820401 ], [ 14.46092, 40.820942 ], [ 14.460683, 40.820941 ], [ 14.460682, 40.821121 ], [ 14.460445, 40.82112 ], [ 14.46044, 40.82166 ], [ 14.460914, 40.821662 ], [ 14.460912, 40.822023 ], [ 14.460674, 40.822022 ], [ 14.460673, 40.822202 ], [ 14.46091, 40.822203 ], [ 14.460909, 40.822383 ], [ 14.460671, 40.822382 ], [ 14.46067, 40.822562 ], [ 14.460907, 40.822563 ], [ 14.460906, 40.822743 ], [ 14.461143, 40.822744 ], [ 14.461146, 40.822384 ], [ 14.461383, 40.822385 ], [ 14.461379, 40.822926 ], [ 14.461853, 40.822928 ], [ 14.46185, 40.823288 ], [ 14.461376, 40.823286 ], [ 14.461374, 40.823466 ], [ 14.460663, 40.823463 ], [ 14.460661, 40.823643 ], [ 14.460424, 40.823642 ], [ 14.460421, 40.824002 ], [ 14.460184, 40.824001 ], [ 14.460183, 40.824181 ], [ 14.459945, 40.82418 ], [ 14.459941, 40.824721 ], [ 14.460652, 40.824724 ], [ 14.460651, 40.824904 ], [ 14.460414, 40.824903 ], [ 14.460411, 40.825263 ], [ 14.460174, 40.825262 ], [ 14.460172, 40.825442 ], [ 14.459935, 40.825441 ], [ 14.459934, 40.825621 ], [ 14.458985, 40.825617 ], [ 14.458984, 40.825797 ], [ 14.457798, 40.825792 ], [ 14.457796, 40.825972 ], [ 14.457559, 40.825971 ], [ 14.45756, 40.82579 ], [ 14.457323, 40.825789 ], [ 14.457322, 40.82597 ], [ 14.457085, 40.825968 ], [ 14.45708, 40.826509 ], [ 14.456606, 40.826507 ], [ 14.456604, 40.826687 ], [ 14.456367, 40.826686 ], [ 14.456369, 40.826506 ], [ 14.456132, 40.826504 ], [ 14.45613, 40.826685 ], [ 14.455893, 40.826683 ], [ 14.455894, 40.826503 ], [ 14.454708, 40.826498 ], [ 14.454713, 40.825957 ], [ 14.454476, 40.825956 ], [ 14.454477, 40.825776 ], [ 14.454714, 40.825777 ], [ 14.454716, 40.825597 ], [ 14.453767, 40.825592 ], [ 14.453766, 40.825773 ], [ 14.453529, 40.825771 ], [ 14.453527, 40.825952 ], [ 14.452341, 40.825946 ], [ 14.45234, 40.826126 ], [ 14.452103, 40.826125 ], [ 14.452101, 40.826305 ], [ 14.45139, 40.826302 ], [ 14.451391, 40.826122 ], [ 14.451154, 40.826121 ], [ 14.451152, 40.826301 ], [ 14.450915, 40.8263 ], [ 14.450914, 40.82648 ], [ 14.450439, 40.826477 ], [ 14.450441, 40.826297 ], [ 14.450204, 40.826296 ], [ 14.450202, 40.826476 ], [ 14.449965, 40.826475 ], [ 14.449966, 40.826295 ], [ 14.449729, 40.826294 ], [ 14.449731, 40.826114 ], [ 14.449494, 40.826113 ], [ 14.449497, 40.825752 ], [ 14.448548, 40.825748 ], [ 14.448549, 40.825568 ], [ 14.448312, 40.825566 ], [ 14.448309, 40.825927 ], [ 14.447123, 40.825921 ], [ 14.447122, 40.826101 ], [ 14.446885, 40.8261 ], [ 14.446883, 40.82628 ], [ 14.446646, 40.826279 ], [ 14.446645, 40.826459 ], [ 14.445933, 40.826456 ], [ 14.445931, 40.826636 ], [ 14.445694, 40.826635 ], [ 14.445693, 40.826815 ], [ 14.445218, 40.826813 ], [ 14.445217, 40.826993 ], [ 14.44498, 40.826992 ], [ 14.444978, 40.827172 ], [ 14.444741, 40.827171 ], [ 14.44474, 40.827351 ], [ 14.444502, 40.82735 ], [ 14.444498, 40.82789 ], [ 14.444972, 40.827893 ], [ 14.444971, 40.828073 ], [ 14.444734, 40.828072 ], [ 14.444726, 40.828972 ], [ 14.444252, 40.82897 ], [ 14.444255, 40.82861 ], [ 14.444018, 40.828609 ], [ 14.444019, 40.828429 ], [ 14.443782, 40.828427 ], [ 14.443783, 40.828247 ], [ 14.443546, 40.828246 ], [ 14.443543, 40.828606 ], [ 14.443306, 40.828605 ], [ 14.443304, 40.828785 ], [ 14.443067, 40.828784 ], [ 14.443064, 40.829145 ], [ 14.442827, 40.829143 ], [ 14.442823, 40.829684 ], [ 14.442348, 40.829682 ], [ 14.442347, 40.829862 ], [ 14.441398, 40.829857 ], [ 14.441395, 40.830218 ], [ 14.441632, 40.830219 ], [ 14.441631, 40.830399 ], [ 14.441393, 40.830398 ], [ 14.44139, 40.830758 ], [ 14.441153, 40.830757 ], [ 14.441149, 40.831297 ], [ 14.440911, 40.831296 ], [ 14.440913, 40.831116 ], [ 14.440676, 40.831115 ], [ 14.440679, 40.830755 ], [ 14.440442, 40.830753 ], [ 14.440443, 40.830573 ], [ 14.440206, 40.830572 ], [ 14.440207, 40.830392 ], [ 14.43997, 40.830391 ], [ 14.439972, 40.830211 ], [ 14.439735, 40.83021 ], [ 14.439738, 40.829849 ], [ 14.439026, 40.829846 ], [ 14.439025, 40.830026 ], [ 14.438787, 40.830025 ], [ 14.438786, 40.830205 ], [ 14.438074, 40.830201 ], [ 14.438073, 40.830382 ], [ 14.435701, 40.83037 ], [ 14.435702, 40.83019 ], [ 14.435228, 40.830188 ], [ 14.43523, 40.830007 ], [ 14.435467, 40.830009 ], [ 14.435468, 40.829828 ], [ 14.435231, 40.829827 ], [ 14.435233, 40.829647 ], [ 14.434758, 40.829645 ], [ 14.43476, 40.829465 ], [ 14.434997, 40.829466 ], [ 14.435, 40.829105 ], [ 14.435237, 40.829107 ], [ 14.435239, 40.828926 ], [ 14.43595, 40.82893 ], [ 14.435953, 40.82857 ], [ 14.43619, 40.828571 ], [ 14.436192, 40.828391 ], [ 14.435243, 40.828386 ], [ 14.435245, 40.828206 ], [ 14.435008, 40.828205 ], [ 14.435011, 40.827844 ], [ 14.434536, 40.827842 ], [ 14.434539, 40.827482 ], [ 14.434302, 40.82748 ], [ 14.434304, 40.8273 ], [ 14.434067, 40.827299 ], [ 14.434068, 40.827119 ], [ 14.433831, 40.827118 ], [ 14.433832, 40.826938 ], [ 14.433595, 40.826937 ], [ 14.433598, 40.826576 ], [ 14.433836, 40.826577 ], [ 14.433839, 40.826217 ], [ 14.434076, 40.826218 ], [ 14.434082, 40.825498 ], [ 14.434319, 40.825499 ], [ 14.434324, 40.824958 ], [ 14.434561, 40.824959 ], [ 14.434565, 40.824419 ], [ 14.434803, 40.82442 ], [ 14.434807, 40.82388 ], [ 14.435044, 40.823881 ], [ 14.435046, 40.823701 ], [ 14.435283, 40.823702 ], [ 14.435286, 40.823341 ] ], [ [ 14.473142, 40.804963 ], [ 14.473616, 40.804965 ], [ 14.473618, 40.804785 ], [ 14.473144, 40.804783 ], [ 14.473142, 40.804963 ] ], [ [ 14.472444, 40.803338 ], [ 14.47197, 40.803336 ], [ 14.471967, 40.803696 ], [ 14.472204, 40.803698 ], [ 14.472202, 40.803878 ], [ 14.472439, 40.803879 ], [ 14.472444, 40.803338 ] ], [ [ 14.459607, 40.807423 ], [ 14.459133, 40.807421 ], [ 14.45913, 40.807781 ], [ 14.459604, 40.807783 ], [ 14.459607, 40.807423 ] ], [ [ 14.454385, 40.808119 ], [ 14.454386, 40.807939 ], [ 14.454149, 40.807938 ], [ 14.454148, 40.808118 ], [ 14.454385, 40.808119 ] ], [ [ 14.454145, 40.808478 ], [ 14.454148, 40.808118 ], [ 14.453911, 40.808117 ], [ 14.453908, 40.808477 ], [ 14.454145, 40.808478 ] ], [ [ 14.455589, 40.805782 ], [ 14.455591, 40.805602 ], [ 14.455354, 40.805601 ], [ 14.455352, 40.805781 ], [ 14.455589, 40.805782 ] ], [ [ 14.450372, 40.805938 ], [ 14.450373, 40.805758 ], [ 14.449899, 40.805755 ], [ 14.4499, 40.805575 ], [ 14.449663, 40.805574 ], [ 14.449666, 40.805214 ], [ 14.449429, 40.805213 ], [ 14.449431, 40.805033 ], [ 14.448957, 40.80503 ], [ 14.448955, 40.80521 ], [ 14.448718, 40.805209 ], [ 14.448716, 40.805389 ], [ 14.448479, 40.805388 ], [ 14.448475, 40.805929 ], [ 14.448949, 40.805931 ], [ 14.448948, 40.806111 ], [ 14.449659, 40.806115 ], [ 14.449657, 40.806295 ], [ 14.449895, 40.806296 ], [ 14.449896, 40.806116 ], [ 14.450133, 40.806117 ], [ 14.450135, 40.805937 ], [ 14.450372, 40.805938 ] ], [ [ 14.436416, 40.801907 ], [ 14.436418, 40.801727 ], [ 14.436181, 40.801725 ], [ 14.436179, 40.801906 ], [ 14.436416, 40.801907 ] ], [ [ 14.434281, 40.802077 ], [ 14.434284, 40.801716 ], [ 14.434047, 40.801715 ], [ 14.434044, 40.802075 ], [ 14.434281, 40.802077 ] ], [ [ 14.431667, 40.802784 ], [ 14.431664, 40.803145 ], [ 14.432138, 40.803147 ], [ 14.432136, 40.803327 ], [ 14.432373, 40.803328 ], [ 14.432376, 40.802968 ], [ 14.432614, 40.802969 ], [ 14.432615, 40.802789 ], [ 14.432852, 40.80279 ], [ 14.432855, 40.80243 ], [ 14.432618, 40.802429 ], [ 14.432617, 40.802609 ], [ 14.43238, 40.802608 ], [ 14.432378, 40.802788 ], [ 14.431667, 40.802784 ] ], [ [ 14.43351, 40.809099 ], [ 14.433508, 40.809279 ], [ 14.433983, 40.809282 ], [ 14.433984, 40.809102 ], [ 14.43351, 40.809099 ] ], [ [ 14.434119, 40.821174 ], [ 14.434116, 40.821534 ], [ 14.434353, 40.821535 ], [ 14.434356, 40.821175 ], [ 14.434119, 40.821174 ] ], [ [ 14.4353, 40.82172 ], [ 14.435537, 40.821721 ], [ 14.435539, 40.821541 ], [ 14.435301, 40.82154 ], [ 14.4353, 40.82172 ] ], [ [ 14.456142, 40.825243 ], [ 14.456143, 40.825063 ], [ 14.455906, 40.825062 ], [ 14.455905, 40.825242 ], [ 14.455668, 40.825241 ], [ 14.455666, 40.825421 ], [ 14.456615, 40.825426 ], [ 14.456616, 40.825246 ], [ 14.458514, 40.825254 ], [ 14.458515, 40.825074 ], [ 14.45638, 40.825064 ], [ 14.456379, 40.825244 ], [ 14.456142, 40.825243 ] ], [ [ 14.447848, 40.824303 ], [ 14.447847, 40.824483 ], [ 14.448084, 40.824484 ], [ 14.448085, 40.824304 ], [ 14.447848, 40.824303 ] ], [ [ 14.456152, 40.823982 ], [ 14.456151, 40.824162 ], [ 14.456388, 40.824163 ], [ 14.456389, 40.823983 ], [ 14.456152, 40.823982 ] ], [ [ 14.436011, 40.821723 ], [ 14.43601, 40.821904 ], [ 14.436247, 40.821905 ], [ 14.436248, 40.821725 ], [ 14.436011, 40.821723 ] ], [ [ 14.449062, 40.820886 ], [ 14.449065, 40.820525 ], [ 14.448591, 40.820523 ], [ 14.44859, 40.820703 ], [ 14.448827, 40.820704 ], [ 14.448825, 40.820885 ], [ 14.449062, 40.820886 ] ], [ [ 14.45429, 40.819649 ], [ 14.454289, 40.819829 ], [ 14.454052, 40.819828 ], [ 14.45405, 40.820009 ], [ 14.453813, 40.820007 ], [ 14.453809, 40.820548 ], [ 14.45452, 40.820551 ], [ 14.454522, 40.820371 ], [ 14.455944, 40.820378 ], [ 14.455943, 40.820558 ], [ 14.456892, 40.820562 ], [ 14.456893, 40.820382 ], [ 14.456419, 40.82038 ], [ 14.456422, 40.82002 ], [ 14.456185, 40.820019 ], [ 14.456186, 40.819838 ], [ 14.455949, 40.819837 ], [ 14.455947, 40.820017 ], [ 14.454762, 40.820012 ], [ 14.454763, 40.819832 ], [ 14.454526, 40.819831 ], [ 14.454527, 40.81965 ], [ 14.45429, 40.819649 ] ], [ [ 14.45713, 40.820383 ], [ 14.457129, 40.820564 ], [ 14.457366, 40.820565 ], [ 14.457367, 40.820385 ], [ 14.45713, 40.820383 ] ], [ [ 14.457369, 40.820204 ], [ 14.457372, 40.819844 ], [ 14.456897, 40.819842 ], [ 14.456896, 40.820022 ], [ 14.457133, 40.820023 ], [ 14.457132, 40.820203 ], [ 14.457369, 40.820204 ] ], [ [ 14.458319, 40.820029 ], [ 14.458317, 40.820209 ], [ 14.458555, 40.82021 ], [ 14.458556, 40.82003 ], [ 14.458319, 40.820029 ] ], [ [ 14.447659, 40.818537 ], [ 14.447657, 40.818717 ], [ 14.447895, 40.818718 ], [ 14.447896, 40.818538 ], [ 14.447659, 40.818537 ] ], [ [ 14.463075, 40.818429 ], [ 14.463074, 40.81861 ], [ 14.463311, 40.818611 ], [ 14.463312, 40.81843 ], [ 14.463075, 40.818429 ] ], [ [ 14.450982, 40.818192 ], [ 14.450981, 40.818372 ], [ 14.451218, 40.818374 ], [ 14.451219, 40.818193 ], [ 14.450982, 40.818192 ] ], [ [ 14.457154, 40.817501 ], [ 14.457152, 40.817681 ], [ 14.457389, 40.817682 ], [ 14.457391, 40.817502 ], [ 14.457154, 40.817501 ] ], [ [ 14.455273, 40.81551 ], [ 14.455271, 40.81569 ], [ 14.455034, 40.815689 ], [ 14.455033, 40.815869 ], [ 14.455744, 40.815873 ], [ 14.455741, 40.816233 ], [ 14.455978, 40.816234 ], [ 14.455984, 40.815513 ], [ 14.456221, 40.815515 ], [ 14.456223, 40.815334 ], [ 14.455749, 40.815332 ], [ 14.455747, 40.815512 ], [ 14.455273, 40.81551 ] ], [ [ 14.467125, 40.816106 ], [ 14.467124, 40.816286 ], [ 14.467361, 40.816287 ], [ 14.467362, 40.816107 ], [ 14.467125, 40.816106 ] ], [ [ 14.462397, 40.814282 ], [ 14.462396, 40.814462 ], [ 14.462633, 40.814464 ], [ 14.462634, 40.814283 ], [ 14.462397, 40.814282 ] ], [ [ 14.450786, 40.813147 ], [ 14.450785, 40.813327 ], [ 14.451022, 40.813328 ], [ 14.451024, 40.813148 ], [ 14.450786, 40.813147 ] ], [ [ 14.458137, 40.813181 ], [ 14.458136, 40.813362 ], [ 14.458847, 40.813365 ], [ 14.458849, 40.813185 ], [ 14.458137, 40.813181 ] ], [ [ 14.45222, 40.811892 ], [ 14.452218, 40.812072 ], [ 14.452455, 40.812074 ], [ 14.452457, 40.811893 ], [ 14.45222, 40.811892 ] ], [ [ 14.44819, 40.811693 ], [ 14.447953, 40.811692 ], [ 14.447951, 40.811872 ], [ 14.4489, 40.811876 ], [ 14.448903, 40.811516 ], [ 14.448191, 40.811513 ], [ 14.44819, 40.811693 ] ], [ [ 14.447954, 40.811512 ], [ 14.448191, 40.811513 ], [ 14.448197, 40.810792 ], [ 14.448672, 40.810794 ], [ 14.44867, 40.810974 ], [ 14.448907, 40.810976 ], [ 14.44891, 40.810615 ], [ 14.449385, 40.810618 ], [ 14.449386, 40.810437 ], [ 14.449623, 40.810439 ], [ 14.449625, 40.810258 ], [ 14.449388, 40.810257 ], [ 14.449391, 40.809897 ], [ 14.449153, 40.809896 ], [ 14.449152, 40.810076 ], [ 14.447966, 40.81007 ], [ 14.447965, 40.81025 ], [ 14.447728, 40.810249 ], [ 14.447726, 40.810429 ], [ 14.447489, 40.810428 ], [ 14.447491, 40.810248 ], [ 14.447253, 40.810247 ], [ 14.447249, 40.810787 ], [ 14.447012, 40.810786 ], [ 14.447007, 40.811327 ], [ 14.447956, 40.811331 ], [ 14.447954, 40.811512 ] ], [ [ 14.459818, 40.810667 ], [ 14.459816, 40.810847 ], [ 14.459342, 40.810845 ], [ 14.459341, 40.811025 ], [ 14.459578, 40.811026 ], [ 14.459575, 40.811386 ], [ 14.460049, 40.811389 ], [ 14.460055, 40.810668 ], [ 14.459818, 40.810667 ] ], [ [ 14.463849, 40.810686 ], [ 14.463847, 40.810866 ], [ 14.464322, 40.810868 ], [ 14.464323, 40.810688 ], [ 14.463849, 40.810686 ] ], [ [ 14.460299, 40.809768 ], [ 14.460301, 40.809588 ], [ 14.459827, 40.809586 ], [ 14.459824, 40.809946 ], [ 14.460298, 40.809948 ], [ 14.460296, 40.810129 ], [ 14.460534, 40.81013 ], [ 14.460536, 40.809769 ], [ 14.460299, 40.809768 ] ], [ [ 14.469794, 40.808551 ], [ 14.469791, 40.808911 ], [ 14.469317, 40.808909 ], [ 14.469311, 40.80963 ], [ 14.469074, 40.809629 ], [ 14.469071, 40.809989 ], [ 14.469308, 40.80999 ], [ 14.46931, 40.80981 ], [ 14.469784, 40.809812 ], [ 14.469785, 40.809632 ], [ 14.470023, 40.809633 ], [ 14.470024, 40.809453 ], [ 14.470261, 40.809454 ], [ 14.47026, 40.809634 ], [ 14.470734, 40.809636 ], [ 14.470735, 40.809456 ], [ 14.470972, 40.809457 ], [ 14.470975, 40.809097 ], [ 14.470738, 40.809096 ], [ 14.47074, 40.808916 ], [ 14.470503, 40.808915 ], [ 14.470505, 40.808554 ], [ 14.469794, 40.808551 ] ], [ [ 14.464569, 40.809608 ], [ 14.46457, 40.809428 ], [ 14.463622, 40.809423 ], [ 14.46362, 40.809604 ], [ 14.464095, 40.809606 ], [ 14.464093, 40.809786 ], [ 14.46433, 40.809787 ], [ 14.464332, 40.809607 ], [ 14.464569, 40.809608 ] ], [ [ 14.433989, 40.808561 ], [ 14.433986, 40.808921 ], [ 14.434223, 40.808923 ], [ 14.434224, 40.808742 ], [ 14.435173, 40.808747 ], [ 14.43517, 40.809107 ], [ 14.435644, 40.80911 ], [ 14.43565, 40.808389 ], [ 14.435413, 40.808388 ], [ 14.435414, 40.808208 ], [ 14.435651, 40.808209 ], [ 14.435655, 40.807849 ], [ 14.435417, 40.807847 ], [ 14.435419, 40.807667 ], [ 14.435182, 40.807666 ], [ 14.435186, 40.807126 ], [ 14.434949, 40.807125 ], [ 14.434952, 40.806764 ], [ 14.434715, 40.806763 ], [ 14.434709, 40.807484 ], [ 14.433998, 40.80748 ], [ 14.433996, 40.80766 ], [ 14.433759, 40.807659 ], [ 14.433758, 40.807839 ], [ 14.433521, 40.807838 ], [ 14.433518, 40.808199 ], [ 14.433755, 40.8082 ], [ 14.433752, 40.80856 ], [ 14.433989, 40.808561 ] ], [ [ 14.468843, 40.808907 ], [ 14.468841, 40.809087 ], [ 14.469078, 40.809088 ], [ 14.46908, 40.808908 ], [ 14.468843, 40.808907 ] ], [ [ 14.44964, 40.808457 ], [ 14.449638, 40.808637 ], [ 14.450112, 40.808639 ], [ 14.450114, 40.808459 ], [ 14.450588, 40.808461 ], [ 14.450585, 40.808822 ], [ 14.450822, 40.808823 ], [ 14.450825, 40.808462 ], [ 14.451299, 40.808465 ], [ 14.451301, 40.808284 ], [ 14.451064, 40.808283 ], [ 14.451065, 40.808103 ], [ 14.450591, 40.808101 ], [ 14.450594, 40.807741 ], [ 14.450357, 40.807739 ], [ 14.450361, 40.807199 ], [ 14.450124, 40.807198 ], [ 14.450123, 40.807378 ], [ 14.449411, 40.807375 ], [ 14.449407, 40.807915 ], [ 14.44917, 40.807914 ], [ 14.449167, 40.808274 ], [ 14.449404, 40.808275 ], [ 14.449405, 40.808095 ], [ 14.450117, 40.808099 ], [ 14.450115, 40.808279 ], [ 14.449878, 40.808278 ], [ 14.449877, 40.808458 ], [ 14.44964, 40.808457 ] ], [ [ 14.452726, 40.807931 ], [ 14.452728, 40.807751 ], [ 14.452491, 40.80775 ], [ 14.452489, 40.80793 ], [ 14.452252, 40.807929 ], [ 14.452248, 40.808469 ], [ 14.452959, 40.808473 ], [ 14.452964, 40.807932 ], [ 14.452726, 40.807931 ] ], [ [ 14.458887, 40.8085 ], [ 14.45889, 40.80814 ], [ 14.458416, 40.808138 ], [ 14.458414, 40.808318 ], [ 14.458651, 40.808319 ], [ 14.45865, 40.808499 ], [ 14.458887, 40.8085 ] ], [ [ 14.47051, 40.808014 ], [ 14.470508, 40.808194 ], [ 14.470745, 40.808195 ], [ 14.470747, 40.808015 ], [ 14.47051, 40.808014 ] ], [ [ 14.469564, 40.807649 ], [ 14.469563, 40.807829 ], [ 14.4698, 40.80783 ], [ 14.469801, 40.80765 ], [ 14.469564, 40.807649 ] ], [ [ 14.46008, 40.807605 ], [ 14.460081, 40.807425 ], [ 14.459844, 40.807424 ], [ 14.459843, 40.807604 ], [ 14.46008, 40.807605 ] ], [ [ 14.46009, 40.806344 ], [ 14.460081, 40.807425 ], [ 14.460318, 40.807426 ], [ 14.460323, 40.806886 ], [ 14.46056, 40.806887 ], [ 14.460563, 40.806526 ], [ 14.460326, 40.806525 ], [ 14.460327, 40.806345 ], [ 14.46009, 40.806344 ] ], [ [ 14.451076, 40.806842 ], [ 14.450838, 40.806841 ], [ 14.450837, 40.807021 ], [ 14.451074, 40.807022 ], [ 14.451076, 40.806842 ] ], [ [ 14.450601, 40.80684 ], [ 14.450838, 40.806841 ], [ 14.45084, 40.806661 ], [ 14.450603, 40.80666 ], [ 14.450601, 40.80684 ] ], [ [ 14.462221, 40.806714 ], [ 14.462222, 40.806534 ], [ 14.461748, 40.806532 ], [ 14.461747, 40.806712 ], [ 14.461984, 40.806713 ], [ 14.461982, 40.806893 ], [ 14.462457, 40.806896 ], [ 14.462458, 40.806715 ], [ 14.462221, 40.806714 ] ], [ [ 14.457486, 40.805791 ], [ 14.457485, 40.805972 ], [ 14.457722, 40.805973 ], [ 14.457723, 40.805792 ], [ 14.457486, 40.805791 ] ], [ [ 14.46176, 40.805091 ], [ 14.461761, 40.804911 ], [ 14.461524, 40.804909 ], [ 14.461523, 40.80509 ], [ 14.461286, 40.805088 ], [ 14.461278, 40.805989 ], [ 14.462227, 40.805994 ], [ 14.462228, 40.805814 ], [ 14.462702, 40.805816 ], [ 14.462704, 40.805636 ], [ 14.463178, 40.805638 ], [ 14.463177, 40.805818 ], [ 14.463651, 40.80582 ], [ 14.463649, 40.806 ], [ 14.464124, 40.806003 ], [ 14.464125, 40.805822 ], [ 14.463888, 40.805821 ], [ 14.463889, 40.805641 ], [ 14.463415, 40.805639 ], [ 14.463417, 40.805459 ], [ 14.462943, 40.805457 ], [ 14.462944, 40.805276 ], [ 14.461996, 40.805272 ], [ 14.461997, 40.805092 ], [ 14.46176, 40.805091 ] ], [ [ 14.458206, 40.804714 ], [ 14.458205, 40.804894 ], [ 14.457968, 40.804893 ], [ 14.457965, 40.805253 ], [ 14.458202, 40.805254 ], [ 14.458198, 40.805795 ], [ 14.458435, 40.805796 ], [ 14.458436, 40.805616 ], [ 14.458673, 40.805617 ], [ 14.458675, 40.805437 ], [ 14.458438, 40.805435 ], [ 14.458441, 40.805075 ], [ 14.458678, 40.805076 ], [ 14.458679, 40.804896 ], [ 14.458442, 40.804895 ], [ 14.458443, 40.804715 ], [ 14.458206, 40.804714 ] ], [ [ 14.457726, 40.805432 ], [ 14.457725, 40.805612 ], [ 14.457962, 40.805613 ], [ 14.457963, 40.805433 ], [ 14.457726, 40.805432 ] ], [ [ 14.431885, 40.804947 ], [ 14.431884, 40.805128 ], [ 14.432121, 40.805129 ], [ 14.432122, 40.804949 ], [ 14.431885, 40.804947 ] ], [ [ 14.471254, 40.803873 ], [ 14.471253, 40.804054 ], [ 14.47149, 40.804055 ], [ 14.471491, 40.803874 ], [ 14.471254, 40.803873 ] ], [ [ 14.432387, 40.801707 ], [ 14.432386, 40.801887 ], [ 14.43286, 40.801889 ], [ 14.432861, 40.801709 ], [ 14.432387, 40.801707 ] ] ], [ [ [ 14.454287, 40.82001 ], [ 14.454286, 40.82019 ], [ 14.454523, 40.820191 ], [ 14.454522, 40.820371 ], [ 14.454047, 40.820369 ], [ 14.45405, 40.820009 ], [ 14.454287, 40.82001 ] ] ], [ [ [ 14.457949, 40.807235 ], [ 14.45795, 40.807055 ], [ 14.458187, 40.807056 ], [ 14.458186, 40.807236 ], [ 14.457949, 40.807235 ] ] ], [ [ [ 14.454389, 40.807578 ], [ 14.454391, 40.807398 ], [ 14.454628, 40.807399 ], [ 14.454626, 40.80758 ], [ 14.454389, 40.807578 ] ] ], [ [ [ 14.455572, 40.807944 ], [ 14.455098, 40.807942 ], [ 14.455099, 40.807762 ], [ 14.455573, 40.807764 ], [ 14.455572, 40.807944 ] ] ], [ [ [ 14.472148, 40.810724 ], [ 14.471911, 40.810723 ], [ 14.471912, 40.810543 ], [ 14.47215, 40.810544 ], [ 14.472148, 40.810724 ] ] ], [ [ [ 14.470253, 40.810535 ], [ 14.470248, 40.811076 ], [ 14.470011, 40.811074 ], [ 14.47001, 40.811255 ], [ 14.469535, 40.811252 ], [ 14.469541, 40.810532 ], [ 14.470253, 40.810535 ] ] ], [ [ [ 14.468826, 40.811069 ], [ 14.468827, 40.810889 ], [ 14.469301, 40.810891 ], [ 14.4693, 40.811071 ], [ 14.468826, 40.811069 ] ] ], [ [ [ 14.470247, 40.811256 ], [ 14.470248, 40.811076 ], [ 14.470485, 40.811077 ], [ 14.470484, 40.811257 ], [ 14.470247, 40.811256 ] ] ], [ [ [ 14.46209, 40.822929 ], [ 14.461853, 40.822928 ], [ 14.461854, 40.822748 ], [ 14.462092, 40.822749 ], [ 14.46209, 40.822929 ] ] ], [ [ [ 14.456366, 40.826866 ], [ 14.456129, 40.826865 ], [ 14.45613, 40.826685 ], [ 14.456367, 40.826686 ], [ 14.456366, 40.826866 ] ] ] ] } }
]
}
