{
"type": "FeatureCollection",
"name": "priority_cells_land_cover",
"xy_coordinate_resolution": 1e-06,
"features": [
{ "type": "Feature", "properties": { "row": 18077, "col": 1815, "rank": 1, "pixels": 169, "burned_ha": 6.76, "severe_ha": 6.72, "severe_steep_ha": 6.68, "green_ndvi": 0.247, "severe_steep_share": 0.988, "priority": "1: treat first", "x": 453875.0, "y": 4519375.0, "lon": 14.45301, "lat": 40.8241, "trees_pct": 100.0, "nearest_built_m": 879.82952894296523 }, "geometry": { "type": "Polygon", "coordinates": [ [ [ 14.4545, 40.822983 ], [ 14.454482, 40.825235 ], [ 14.451517, 40.825221 ], [ 14.451536, 40.822969 ], [ 14.4545, 40.822983 ] ] ] } },
{ "type": "Feature", "properties": { "row": 18076, "col": 1815, "rank": 2, "pixels": 156, "burned_ha": 6.24, "severe_ha": 6.16, "severe_steep_ha": 6.12, "green_ndvi": 0.134, "severe_steep_share": 0.981, "priority": "1: treat first", "x": 453875.0, "y": 4519125.0, "lon": 14.45303, "lat": 40.82185, "trees_pct": 100.0, "nearest_built_m": 1100.2272492535349 }, "geometry": { "type": "Polygon", "coordinates": [ [ [ 14.454519, 40.820731 ], [ 14.4545, 40.822983 ], [ 14.451536, 40.822969 ], [ 14.451554, 40.820717 ], [ 14.454519, 40.820731 ] ] ] } },
{ "type": "Feature", "properties": { "row": 18077, "col": 1814, "rank": 3, "pixels": 156, "burned_ha": 6.24, "severe_ha": 6.24, "severe_steep_ha": 6.08, "green_ndvi": 0.188, "severe_steep_share": 0.974, "priority": "1: treat first", "x": 453625.0, "y": 4519375.0, "lon": 14.45004, "lat": 40.82409, "trees_pct": 100.0, "nearest_built_m": 1032.7632836231155 }, "geometry": { "type": "Polygon", "coordinates": [ [ [ 14.451536, 40.822969 ], [ 14.451517, 40.825221 ], [ 14.448552, 40.825207 ], [ 14.448571, 40.822955 ], [ 14.451536, 40.822969 ] ] ] } },
{ "type": "Feature", "properties": { "row": 18073, "col": 1817, "rank": 4, "pixels": 169, "burned_ha": 6.76, "severe_ha": 6.76, "severe_steep_ha": 6.36, "green_ndvi": 0.20900001, "severe_steep_share": 0.941, "priority": "1: treat first", "x": 454375.0, "y": 4518375.0, "lon": 14.45901, "lat": 40.81512, "trees_pct": 100.0, "nearest_built_m": 874.18533504057359 }, "geometry": { "type": "Polygon", "coordinates": [ [ [ 14.460502, 40.814003 ], [ 14.460484, 40.816255 ], [ 14.45752, 40.816241 ], [ 14.457538, 40.813989 ], [ 14.460502, 40.814003 ] ] ] } },
{ "type": "Feature", "properties": { "row": 18074, "col": 1815, "rank": 5, "pixels": 156, "burned_ha": 6.24, "severe_ha": 6.12, "severe_steep_ha": 5.68, "green_ndvi": 0.288, "severe_steep_share": 0.91, "priority": "1: treat first", "x": 453875.0, "y": 4518625.0, "lon": 14.45306, "lat": 40.81735, "trees_pct": 56.0, "nearest_built_m": 1391.6896205691842 }, "geometry": { "type": "Polygon", "coordinates": [ [ [ 14.454555, 40.816227 ], [ 14.454537, 40.818479 ], [ 14.451573, 40.818465 ], [ 14.451591, 40.816213 ], [ 14.454555, 40.816227 ] ] ] } },
{ "type": "Feature", "properties": { "row": 18076, "col": 1814, "rank": 6, "pixels": 144, "burned_ha": 5.72, "severe_ha": 5.64, "severe_steep_ha": 5.04, "green_ndvi": 0.11, "severe_steep_share": 0.875, "priority": "1: treat first", "x": 453625.0, "y": 4519125.0, "lon": 14.45006, "lat": 40.82184, "trees_pct": 100.0, "nearest_built_m": 1226.4175471673584 }, "geometry": { "type": "Polygon", "coordinates": [ [ [ 14.451554, 40.820717 ], [ 14.451536, 40.822969 ], [ 14.448571, 40.822955 ], [ 14.44859, 40.820703 ], [ 14.451554, 40.820717 ] ] ] } },
{ "type": "Feature", "properties": { "row": 18076, "col": 1816, "rank": 7, "pixels": 144, "burned_ha": 5.76, "severe_ha": 5.68, "severe_steep_ha": 4.8, "green_ndvi": 0.278, "severe_steep_share": 0.833, "priority": "1: treat first", "x": 454125.0, "y": 4519125.0, "lon": 14.45599, "lat": 40.82186, "trees_pct": 100.0, "nearest_built_m": 1016.366075781753 }, "geometry": { "type": "Polygon", "coordinates": [ [ [ 14.457483, 40.820745 ], [ 14.457465, 40.822997 ], [ 14.4545, 40.822983 ], [ 14.454519, 40.820731 ], [ 14.457483, 40.820745 ] ] ] } },
{ "type": "Feature", "properties": { "row": 18071, "col": 1815, "rank": 8, "pixels": 169, "burned_ha": 6.76, "severe_ha": 6.68, "severe_steep_ha": 5.44, "green_ndvi": 0.156, "severe_steep_share": 0.805, "priority": "1: treat first", "x": 453875.0, "y": 4517875.0, "lon": 14.45312, "lat": 40.81059, "trees_pct": 13.0, "nearest_built_m": 1052.0931517693668 }, "geometry": { "type": "Polygon", "coordinates": [ [ [ 14.454611, 40.809471 ], [ 14.454592, 40.811723 ], [ 14.451628, 40.811709 ], [ 14.451647, 40.809457 ], [ 14.454611, 40.809471 ] ] ] } },
{ "type": "Feature", "properties": { "row": 18070, "col": 1811, "rank": 9, "pixels": 156, "burned_ha": 6.24, "severe_ha": 6.2, "severe_steep_ha": 4.96, "green_ndvi": 0.206, "severe_steep_share": 0.795, "priority": "1: treat first", "x": 452875.0, "y": 4517625.0, "lon": 14.44128, "lat": 40.80828, "trees_pct": 21.0, "nearest_built_m": 1060.4244433244644 }, "geometry": { "type": "Polygon", "coordinates": [ [ [ 14.442774, 40.807163 ], [ 14.442755, 40.809415 ], [ 14.439791, 40.8094 ], [ 14.43981, 40.807148 ], [ 14.442774, 40.807163 ] ] ] } },
{ "type": "Feature", "properties": { "row": 18072, "col": 1815, "rank": 10, "pixels": 156, "burned_ha": 6.2, "severe_ha": 5.52, "severe_steep_ha": 4.76, "green_ndvi": 0.196, "severe_steep_share": 0.763, "priority": "1: treat first", "x": 453875.0, "y": 4518125.0, "lon": 14.4531, "lat": 40.81284, "trees_pct": 45.0, "nearest_built_m": 1216.3058825805292 }, "geometry": { "type": "Polygon", "coordinates": [ [ [ 14.454592, 40.811723 ], [ 14.454574, 40.813975 ], [ 14.45161, 40.813961 ], [ 14.451628, 40.811709 ], [ 14.454592, 40.811723 ] ] ] } },
{ "type": "Feature", "properties": { "row": 18074, "col": 1814, "rank": 11, "pixels": 144, "burned_ha": 5.72, "severe_ha": 5.04, "severe_steep_ha": 4.28, "green_ndvi": 0.23100001, "severe_steep_share": 0.743, "priority": "1: treat first", "x": 453625.0, "y": 4518625.0, "lon": 14.4501, "lat": 40.81733, "trees_pct": 87.0, "nearest_built_m": 1639.9085340347492 }, "geometry": { "type": "Polygon", "coordinates": [ [ [ 14.451591, 40.816213 ], [ 14.451573, 40.818465 ], [ 14.448608, 40.818451 ], [ 14.448627, 40.816199 ], [ 14.451591, 40.816213 ] ] ] } },
{ "type": "Feature", "properties": { "row": 18072, "col": 1816, "rank": 12, "pixels": 144, "burned_ha": 5.76, "severe_ha": 5.4, "severe_steep_ha": 4.24, "green_ndvi": 0.27500001, "severe_steep_share": 0.736, "priority": "1: treat first", "x": 454125.0, "y": 4518125.0, "lon": 14.45607, "lat": 40.81286, "trees_pct": 84.0, "nearest_built_m": 994.58534073250848 }, "geometry": { "type": "Polygon", "coordinates": [ [ [ 14.457556, 40.811737 ], [ 14.457538, 40.813989 ], [ 14.454574, 40.813975 ], [ 14.454592, 40.811723 ], [ 14.457556, 40.811737 ] ] ] } },
{ "type": "Feature", "properties": { "row": 18071, "col": 1816, "rank": 13, "pixels": 156, "burned_ha": 6.24, "severe_ha": 6.24, "severe_steep_ha": 4.4, "green_ndvi": 0.28, "severe_steep_share": 0.705, "priority": "1: treat first", "x": 454125.0, "y": 4517875.0, "lon": 14.45608, "lat": 40.8106, "trees_pct": 100.0, "nearest_built_m": 862.78618440491971 }, "geometry": { "type": "Polygon", "coordinates": [ [ [ 14.457575, 40.809485 ], [ 14.457556, 40.811737 ], [ 14.454592, 40.811723 ], [ 14.454611, 40.809471 ], [ 14.457575, 40.809485 ] ] ] } },
{ "type": "Feature", "properties": { "row": 18073, "col": 1815, "rank": 14, "pixels": 169, "burned_ha": 6.76, "severe_ha": 5.4, "severe_steep_ha": 4.76, "green_ndvi": 0.27200001, "severe_steep_share": 0.704, "priority": "1: treat first", "x": 453875.0, "y": 4518375.0, "lon": 14.45308, "lat": 40.81509, "trees_pct": 8.0, "nearest_built_m": 1313.0879635424276 }, "geometry": { "type": "Polygon", "coordinates": [ [ [ 14.454574, 40.813975 ], [ 14.454555, 40.816227 ], [ 14.451591, 40.816213 ], [ 14.45161, 40.813961 ], [ 14.454574, 40.813975 ] ] ] } },
{ "type": "Feature", "properties": { "row": 18073, "col": 1814, "rank": 15, "pixels": 156, "burned_ha": 6.24, "severe_ha": 6.04, "severe_steep_ha": 4.16, "green_ndvi": 0.149, "severe_steep_share": 0.667, "priority": "1: treat first", "x": 453625.0, "y": 4518375.0, "lon": 14.45012, "lat": 40.81508, "trees_pct": 84.0, "nearest_built_m": 1546.5122049308243 }, "geometry": { "type": "Polygon", "coordinates": [ [ [ 14.45161, 40.813961 ], [ 14.451591, 40.816213 ], [ 14.448627, 40.816199 ], [ 14.448646, 40.813947 ], [ 14.45161, 40.813961 ] ] ] } },
{ "type": "Feature", "properties": { "row": 18075, "col": 1817, "rank": 16, "pixels": 169, "burned_ha": 6.72, "severe_ha": 5.28, "severe_steep_ha": 4.48, "green_ndvi": 0.36500001, "severe_steep_share": 0.663, "priority": "1: treat first", "x": 454375.0, "y": 4518875.0, "lon": 14.45897, "lat": 40.81963, "trees_pct": 100.0, "nearest_built_m": 979.43861471763512 }, "geometry": { "type": "Polygon", "coordinates": [ [ [ 14.460466, 40.818507 ], [ 14.460447, 40.820759 ], [ 14.457483, 40.820745 ], [ 14.457501, 40.818493 ], [ 14.460466, 40.818507 ] ] ] } },
{ "type": "Feature", "properties": { "row": 18074, "col": 1816, "rank": 17, "pixels": 144, "burned_ha": 5.72, "severe_ha": 3.88, "severe_steep_ha": 3.68, "green_ndvi": 0.38100001, "severe_steep_share": 0.639, "priority": "1: treat first", "x": 454125.0, "y": 4518625.0, "lon": 14.45603, "lat": 40.81736, "trees_pct": 82.0, "nearest_built_m": 1144.2464769445437 }, "geometry": { "type": "Polygon", "coordinates": [ [ [ 14.45752, 40.816241 ], [ 14.457501, 40.818493 ], [ 14.454537, 40.818479 ], [ 14.454555, 40.816227 ], [ 14.45752, 40.816241 ] ] ] } },
{ "type": "Feature", "properties": { "row": 18074, "col": 1817, "rank": 18, "pixels": 156, "burned_ha": 6.24, "severe_ha": 4.56, "severe_steep_ha": 3.8, "green_ndvi": 0.412, "severe_steep_share": 0.609, "priority": "1: treat first", "x": 454375.0, "y": 4518625.0, "lon": 14.45899, "lat": 40.81737, "trees_pct": 100.0, "nearest_built_m": 898.22046291542483 }, "geometry": { "type": "Polygon", "coordinates": [ [ [ 14.460484, 40.816255 ], [ 14.460466, 40.818507 ], [ 14.457501, 40.818493 ], [ 14.45752, 40.816241 ], [ 14.460484, 40.816255 ] ] ] } },
{ "type": "Feature", "properties": { "row": 18075, "col": 1815, "rank": 19, "pixels": 169, "burned_ha": 6.4, "severe_ha": 5.24, "severe_steep_ha": 4.04, "green_ndvi": 0.276, "severe_steep_share": 0.598, "priority": "1: treat first", "x": 453875.0, "y": 4518875.0, "lon": 14.45305, "lat": 40.8196, "trees_pct": 100.0, "nearest_built_m": 1329.661611087573 }, "geometry": { "type": "Polygon", "coordinates": [ [ [ 14.454537, 40.818479 ], [ 14.454519, 40.820731 ], [ 14.451554, 40.820717 ], [ 14.451573, 40.818465 ], [ 14.454537, 40.818479 ] ] ] } },
{ "type": "Feature", "properties": { "row": 18077, "col": 1816, "rank": 20, "pixels": 156, "burned_ha": 6.0, "severe_ha": 4.36, "severe_steep_ha": 3.52, "green_ndvi": 0.43200001, "severe_steep_share": 0.564, "priority": "1: treat first", "x": 454125.0, "y": 4519375.0, "lon": 14.45597, "lat": 40.82412, "trees_pct": 100.0, "nearest_built_m": 774.91935064237498 }, "geometry": { "type": "Polygon", "coordinates": [ [ [ 14.457465, 40.822997 ], [ 14.457446, 40.825249 ], [ 14.454482, 40.825235 ], [ 14.4545, 40.822983 ], [ 14.457465, 40.822997 ] ] ] } },
{ "type": "Feature", "properties": { "row": 18075, "col": 1816, "rank": 21, "pixels": 156, "burned_ha": 5.2, "severe_ha": 3.44, "severe_steep_ha": 3.44, "green_ndvi": 0.274, "severe_steep_share": 0.551, "priority": "1: treat first", "x": 454125.0, "y": 4518875.0, "lon": 14.45601, "lat": 40.81961, "trees_pct": 96.0, "nearest_built_m": 1209.0492132250035 }, "geometry": { "type": "Polygon", "coordinates": [ [ [ 14.457501, 40.818493 ], [ 14.457483, 40.820745 ], [ 14.454519, 40.820731 ], [ 14.454537, 40.818479 ], [ 14.457501, 40.818493 ] ] ] } },
{ "type": "Feature", "properties": { "row": 18073, "col": 1816, "rank": 22, "pixels": 156, "burned_ha": 5.8, "severe_ha": 3.6, "severe_steep_ha": 3.4, "green_ndvi": 0.296, "severe_steep_share": 0.545, "priority": "1: treat first", "x": 454125.0, "y": 4518375.0, "lon": 14.45605, "lat": 40.81511, "trees_pct": 60.0, "nearest_built_m": 1087.0602559196063 }, "geometry": { "type": "Polygon", "coordinates": [ [ [ 14.457538, 40.813989 ], [ 14.45752, 40.816241 ], [ 14.454555, 40.816227 ], [ 14.454574, 40.813975 ], [ 14.457538, 40.813989 ] ] ] } },
{ "type": "Feature", "properties": { "row": 18076, "col": 1817, "rank": 23, "pixels": 156, "burned_ha": 6.24, "severe_ha": 4.28, "severe_steep_ha": 3.2, "green_ndvi": 0.438, "severe_steep_share": 0.513, "priority": "1: treat first", "x": 454375.0, "y": 4519125.0, "lon": 14.45896, "lat": 40.82188, "trees_pct": 100.0, "nearest_built_m": 970.61835960381461 }, "geometry": { "type": "Polygon", "coordinates": [ [ [ 14.460447, 40.820759 ], [ 14.460429, 40.823011 ], [ 14.457465, 40.822997 ], [ 14.457483, 40.820745 ], [ 14.460447, 40.820759 ] ] ] } },
{ "type": "Feature", "properties": { "row": 18070, "col": 1812, "rank": 24, "pixels": 144, "burned_ha": 5.72, "severe_ha": 5.24, "severe_steep_ha": 2.88, "green_ndvi": 0.144, "severe_steep_share": 0.5, "priority": "1: treat first", "x": 453125.0, "y": 4517625.0, "lon": 14.44425, "lat": 40.8083, "trees_pct": 0.0, "nearest_built_m": 1096.3576058932597 }, "geometry": { "type": "Polygon", "coordinates": [ [ [ 14.445738, 40.807177 ], [ 14.445719, 40.809429 ], [ 14.442755, 40.809415 ], [ 14.442774, 40.807163 ], [ 14.445738, 40.807177 ] ] ] } },
{ "type": "Feature", "properties": { "row": 18069, "col": 1811, "rank": 25, "pixels": 169, "burned_ha": 6.76, "severe_ha": 6.72, "severe_steep_ha": 3.32, "green_ndvi": 0.222, "severe_steep_share": 0.491, "priority": "2: treat next", "x": 452875.0, "y": 4517375.0, "lon": 14.4413, "lat": 40.80603, "trees_pct": 77.0, "nearest_built_m": 810.55536516637767 }, "geometry": { "type": "Polygon", "coordinates": [ [ [ 14.442793, 40.804911 ], [ 14.442774, 40.807163 ], [ 14.43981, 40.807148 ], [ 14.439829, 40.804896 ], [ 14.442793, 40.804911 ] ] ] } },
{ "type": "Feature", "properties": { "row": 18074, "col": 1818, "rank": 26, "pixels": 144, "burned_ha": 5.76, "severe_ha": 5.12, "severe_steep_ha": 2.8, "green_ndvi": 0.294, "severe_steep_share": 0.486, "priority": "2: treat next", "x": 454625.0, "y": 4518625.0, "lon": 14.46196, "lat": 40.81739, "trees_pct": 75.0, "nearest_built_m": 655.20989003524664 }, "geometry": { "type": "Polygon", "coordinates": [ [ [ 14.463448, 40.816269 ], [ 14.46343, 40.818521 ], [ 14.460466, 40.818507 ], [ 14.460484, 40.816255 ], [ 14.463448, 40.816269 ] ] ] } },
{ "type": "Feature", "properties": { "row": 18071, "col": 1817, "rank": 27, "pixels": 169, "burned_ha": 6.2, "severe_ha": 5.04, "severe_steep_ha": 3.0, "green_ndvi": 0.46, "severe_steep_share": 0.444, "priority": "2: treat next", "x": 454375.0, "y": 4517875.0, "lon": 14.45905, "lat": 40.81062, "trees_pct": 100.0, "nearest_built_m": 710.07041904306925 }, "geometry": { "type": "Polygon", "coordinates": [ [ [ 14.460539, 40.809499 ], [ 14.46052, 40.811751 ], [ 14.457556, 40.811737 ], [ 14.457575, 40.809485 ], [ 14.460539, 40.809499 ] ] ] } },
{ "type": "Feature", "properties": { "row": 18075, "col": 1810, "rank": 28, "pixels": 156, "burned_ha": 6.24, "severe_ha": 6.04, "severe_steep_ha": 2.76, "green_ndvi": 0.206, "severe_steep_share": 0.442, "priority": "2: treat next", "x": 452625.0, "y": 4518875.0, "lon": 14.43822, "lat": 40.81953, "trees_pct": 4.0, "nearest_built_m": 1368.5759021698432 }, "geometry": { "type": "Polygon", "coordinates": [ [ [ 14.439715, 40.818408 ], [ 14.439696, 40.82066 ], [ 14.436732, 40.820646 ], [ 14.436751, 40.818394 ], [ 14.439715, 40.818408 ] ] ] } },
{ "type": "Feature", "properties": { "row": 18072, "col": 1814, "rank": 29, "pixels": 144, "burned_ha": 5.68, "severe_ha": 5.0, "severe_steep_ha": 2.44, "green_ndvi": 0.219, "severe_steep_share": 0.424, "priority": "2: treat next", "x": 453625.0, "y": 4518125.0, "lon": 14.45014, "lat": 40.81283, "trees_pct": 33.0, "nearest_built_m": 1402.4621207005912 }, "geometry": { "type": "Polygon", "coordinates": [ [ [ 14.451628, 40.811709 ], [ 14.45161, 40.813961 ], [ 14.448646, 40.813947 ], [ 14.448664, 40.811695 ], [ 14.451628, 40.811709 ] ] ] } },
{ "type": "Feature", "properties": { "row": 18075, "col": 1818, "rank": 30, "pixels": 156, "burned_ha": 5.12, "severe_ha": 3.28, "severe_steep_ha": 2.32, "green_ndvi": 0.421, "severe_steep_share": 0.372, "priority": "2: treat next", "x": 454625.0, "y": 4518875.0, "lon": 14.46194, "lat": 40.81964, "trees_pct": 100.0, "nearest_built_m": 760.06578662639458 }, "geometry": { "type": "Polygon", "coordinates": [ [ [ 14.46343, 40.818521 ], [ 14.463412, 40.820773 ], [ 14.460447, 40.820759 ], [ 14.460466, 40.818507 ], [ 14.46343, 40.818521 ] ] ] } },
{ "type": "Feature", "properties": { "row": 18072, "col": 1817, "rank": 31, "pixels": 156, "burned_ha": 6.12, "severe_ha": 5.0, "severe_steep_ha": 2.16, "green_ndvi": 0.38100001, "severe_steep_share": 0.346, "priority": "2: treat next", "x": 454375.0, "y": 4518125.0, "lon": 14.45903, "lat": 40.81287, "trees_pct": 100.0, "nearest_built_m": 756.10845782863726 }, "geometry": { "type": "Polygon", "coordinates": [ [ [ 14.46052, 40.811751 ], [ 14.460502, 40.814003 ], [ 14.457538, 40.813989 ], [ 14.457556, 40.811737 ], [ 14.46052, 40.811751 ] ] ] } },
{ "type": "Feature", "properties": { "row": 18073, "col": 1818, "rank": 32, "pixels": 156, "burned_ha": 6.2, "severe_ha": 5.52, "severe_steep_ha": 2.04, "green_ndvi": 0.111, "severe_steep_share": 0.327, "priority": "2: treat next", "x": 454625.0, "y": 4518375.0, "lon": 14.46198, "lat": 40.81514, "trees_pct": 9.0, "nearest_built_m": 630.0 }, "geometry": { "type": "Polygon", "coordinates": [ [ [ 14.463466, 40.814017 ], [ 14.463448, 40.816269 ], [ 14.460484, 40.816255 ], [ 14.460502, 40.814003 ], [ 14.463466, 40.814017 ] ] ] } },
{ "type": "Feature", "properties": { "row": 18070, "col": 1810, "rank": 33, "pixels": 144, "burned_ha": 5.76, "severe_ha": 5.6, "severe_steep_ha": 1.8, "green_ndvi": 0.299, "severe_steep_share": 0.312, "priority": "2: treat next", "x": 452625.0, "y": 4517625.0, "lon": 14.43832, "lat": 40.80827, "trees_pct": 90.0, "nearest_built_m": 1060.0 }, "geometry": { "type": "Polygon", "coordinates": [ [ [ 14.43981, 40.807148 ], [ 14.439791, 40.8094 ], [ 14.436827, 40.809386 ], [ 14.436846, 40.807134 ], [ 14.43981, 40.807148 ] ] ] } },
{ "type": "Feature", "properties": { "row": 18069, "col": 1812, "rank": 34, "pixels": 156, "burned_ha": 5.16, "severe_ha": 3.96, "severe_steep_ha": 1.92, "green_ndvi": 0.306, "severe_steep_share": 0.308, "priority": "2: treat next", "x": 453125.0, "y": 4517375.0, "lon": 14.44427, "lat": 40.80604, "trees_pct": 53.0, "nearest_built_m": 853.28775919967359 }, "geometry": { "type": "Polygon", "coordinates": [ [ [ 14.445756, 40.804925 ], [ 14.445738, 40.807177 ], [ 14.442774, 40.807163 ], [ 14.442793, 40.804911 ], [ 14.445756, 40.804925 ] ] ] } },
{ "type": "Feature", "properties": { "row": 18073, "col": 1813, "rank": 35, "pixels": 169, "burned_ha": 6.76, "severe_ha": 6.76, "severe_steep_ha": 2.04, "green_ndvi": 0.094, "severe_steep_share": 0.302, "priority": "2: treat next", "x": 453375.0, "y": 4518375.0, "lon": 14.44715, "lat": 40.81507, "trees_pct": 25.0, "nearest_built_m": 1754.1094606665799 }, "geometry": { "type": "Polygon", "coordinates": [ [ [ 14.448646, 40.813947 ], [ 14.448627, 40.816199 ], [ 14.445663, 40.816185 ], [ 14.445681, 40.813933 ], [ 14.448646, 40.813947 ] ] ] } },
{ "type": "Feature", "properties": { "row": 18076, "col": 1809, "rank": 36, "pixels": 156, "burned_ha": 4.24, "severe_ha": 3.0, "severe_steep_ha": 1.88, "green_ndvi": 0.273, "severe_steep_share": 0.301, "priority": "2: treat next", "x": 452375.0, "y": 4519125.0, "lon": 14.43524, "lat": 40.82176, "trees_pct": 0.0, "nearest_built_m": 1052.6157893552613 }, "geometry": { "type": "Polygon", "coordinates": [ [ [ 14.436732, 40.820646 ], [ 14.436713, 40.822898 ], [ 14.433748, 40.822883 ], [ 14.433767, 40.820631 ], [ 14.436732, 40.820646 ] ] ] } },
{ "type": "Feature", "properties": { "row": 18070, "col": 1816, "rank": 37, "pixels": 144, "burned_ha": 3.64, "severe_ha": 2.76, "severe_steep_ha": 1.64, "green_ndvi": 0.375, "severe_steep_share": 0.285, "priority": "2: treat next", "x": 454125.0, "y": 4517625.0, "lon": 14.4561, "lat": 40.80835, "trees_pct": 99.0, "nearest_built_m": 704.55659815234139 }, "geometry": { "type": "Polygon", "coordinates": [ [ [ 14.457593, 40.807233 ], [ 14.457575, 40.809485 ], [ 14.454611, 40.809471 ], [ 14.454629, 40.807219 ], [ 14.457593, 40.807233 ] ] ] } },
{ "type": "Feature", "properties": { "row": 18078, "col": 1814, "rank": 38, "pixels": 144, "burned_ha": 2.44, "severe_ha": 1.6, "severe_steep_ha": 1.6, "green_ndvi": 0.392, "severe_steep_share": 0.278, "priority": "2: treat next", "x": 453625.0, "y": 4519625.0, "lon": 14.45003, "lat": 40.82634, "trees_pct": 97.0, "nearest_built_m": 868.38931361457924 }, "geometry": { "type": "Polygon", "coordinates": [ [ [ 14.451517, 40.825221 ], [ 14.451498, 40.827473 ], [ 14.448534, 40.827459 ], [ 14.448552, 40.825207 ], [ 14.451517, 40.825221 ] ] ] } },
{ "type": "Feature", "properties": { "row": 18075, "col": 1809, "rank": 39, "pixels": 169, "burned_ha": 3.72, "severe_ha": 2.88, "severe_steep_ha": 1.84, "green_ndvi": 0.169, "severe_steep_share": 0.272, "priority": "2: treat next", "x": 452375.0, "y": 4518875.0, "lon": 14.43526, "lat": 40.81951, "trees_pct": 2.0, "nearest_built_m": 1296.3410045200299 }, "geometry": { "type": "Polygon", "coordinates": [ [ [ 14.436751, 40.818394 ], [ 14.436732, 40.820646 ], [ 14.433767, 40.820631 ], [ 14.433787, 40.818379 ], [ 14.436751, 40.818394 ] ] ] } },
{ "type": "Feature", "properties": { "row": 18071, "col": 1811, "rank": 40, "pixels": 169, "burned_ha": 6.76, "severe_ha": 6.64, "severe_steep_ha": 1.72, "green_ndvi": 0.112, "severe_steep_share": 0.254, "priority": "2: treat next", "x": 452875.0, "y": 4517875.0, "lon": 14.44126, "lat": 40.81053, "trees_pct": 0.0, "nearest_built_m": 1310.3434664239753 }, "geometry": { "type": "Polygon", "coordinates": [ [ [ 14.442755, 40.809415 ], [ 14.442736, 40.811667 ], [ 14.439772, 40.811652 ], [ 14.439791, 40.8094 ], [ 14.442755, 40.809415 ] ] ] } },
{ "type": "Feature", "properties": { "row": 18074, "col": 1819, "rank": 41, "pixels": 156, "burned_ha": 6.08, "severe_ha": 3.48, "severe_steep_ha": 1.52, "green_ndvi": 0.464, "severe_steep_share": 0.244, "priority": "3: monitor", "x": 454875.0, "y": 4518625.0, "lon": 14.46492, "lat": 40.8174, "trees_pct": 92.0, "nearest_built_m": 420.4759208325728 }, "geometry": { "type": "Polygon", "coordinates": [ [ [ 14.466412, 40.816283 ], [ 14.466394, 40.818535 ], [ 14.46343, 40.818521 ], [ 14.463448, 40.816269 ], [ 14.466412, 40.816283 ] ] ] } },
{ "type": "Feature", "properties": { "row": 18070, "col": 1813, "rank": 42, "pixels": 156, "burned_ha": 6.24, "severe_ha": 5.72, "severe_steep_ha": 1.36, "green_ndvi": 0.13600001, "severe_steep_share": 0.218, "priority": "3: monitor", "x": 453375.0, "y": 4517625.0, "lon": 14.44721, "lat": 40.80831, "trees_pct": 0.0, "nearest_built_m": 1157.410903698423 }, "geometry": { "type": "Polygon", "coordinates": [ [ [ 14.448702, 40.807191 ], [ 14.448683, 40.809443 ], [ 14.445719, 40.809429 ], [ 14.445738, 40.807177 ], [ 14.448702, 40.807191 ] ] ] } },
{ "type": "Feature", "properties": { "row": 18076, "col": 1811, "rank": 43, "pixels": 156, "burned_ha": 6.24, "severe_ha": 6.16, "severe_steep_ha": 1.36, "green_ndvi": 0.20900001, "severe_steep_share": 0.218, "priority": "3: monitor", "x": 452875.0, "y": 4519125.0, "lon": 14.44117, "lat": 40.82179, "trees_pct": 0.0, "nearest_built_m": 1272.0062892926276 }, "geometry": { "type": "Polygon", "coordinates": [ [ [ 14.442661, 40.820675 ], [ 14.442642, 40.822927 ], [ 14.439677, 40.822912 ], [ 14.439696, 40.82066 ], [ 14.442661, 40.820675 ] ] ] } },
{ "type": "Feature", "properties": { "row": 18078, "col": 1815, "rank": 44, "pixels": 156, "burned_ha": 2.08, "severe_ha": 1.36, "severe_steep_ha": 1.32, "green_ndvi": 0.54100001, "severe_steep_share": 0.212, "priority": "3: monitor", "x": 453875.0, "y": 4519625.0, "lon": 14.45299, "lat": 40.82635, "trees_pct": 100.0, "nearest_built_m": 679.41151005852123 }, "geometry": { "type": "Polygon", "coordinates": [ [ [ 14.454482, 40.825235 ], [ 14.454463, 40.827487 ], [ 14.451498, 40.827473 ], [ 14.451517, 40.825221 ], [ 14.454482, 40.825235 ] ] ] } },
{ "type": "Feature", "properties": { "row": 18077, "col": 1817, "rank": 45, "pixels": 169, "burned_ha": 6.28, "severe_ha": 3.12, "severe_steep_ha": 1.36, "green_ndvi": 0.58099997, "severe_steep_share": 0.201, "priority": "3: monitor", "x": 454375.0, "y": 4519375.0, "lon": 14.45894, "lat": 40.82413, "trees_pct": 100.0, "nearest_built_m": 740.0 }, "geometry": { "type": "Polygon", "coordinates": [ [ [ 14.460429, 40.823011 ], [ 14.460411, 40.825263 ], [ 14.457446, 40.825249 ], [ 14.457465, 40.822997 ], [ 14.460429, 40.823011 ] ] ] } },
{ "type": "Feature", "properties": { "row": 18074, "col": 1809, "rank": 46, "pixels": 156, "burned_ha": 4.84, "severe_ha": 4.28, "severe_steep_ha": 1.16, "green_ndvi": 0.25400001, "severe_steep_share": 0.186, "priority": "3: monitor", "x": 452375.0, "y": 4518625.0, "lon": 14.43528, "lat": 40.81726, "trees_pct": 0.0, "nearest_built_m": 1542.0765220960989 }, "geometry": { "type": "Polygon", "coordinates": [ [ [ 14.43677, 40.816142 ], [ 14.436751, 40.818394 ], [ 14.433787, 40.818379 ], [ 14.433806, 40.816127 ], [ 14.43677, 40.816142 ] ] ] } },
{ "type": "Feature", "properties": { "row": 18076, "col": 1808, "rank": 47, "pixels": 144, "burned_ha": 2.64, "severe_ha": 1.12, "severe_steep_ha": 1.04, "green_ndvi": 0.192, "severe_steep_share": 0.181, "priority": "3: monitor", "x": 452125.0, "y": 4519125.0, "lon": 14.43228, "lat": 40.82175, "trees_pct": 0.0, "nearest_built_m": 1020.0490184299969 }, "geometry": { "type": "Polygon", "coordinates": [ [ [ 14.433767, 40.820631 ], [ 14.433748, 40.822883 ], [ 14.430784, 40.822869 ], [ 14.430803, 40.820617 ], [ 14.433767, 40.820631 ] ] ] } },
{ "type": "Feature", "properties": { "row": 18076, "col": 1810, "rank": 48, "pixels": 144, "burned_ha": 5.76, "severe_ha": 5.76, "severe_steep_ha": 0.96, "green_ndvi": 0.222, "severe_steep_share": 0.167, "priority": "3: monitor", "x": 452625.0, "y": 4519125.0, "lon": 14.4382, "lat": 40.82178, "trees_pct": 4.0, "nearest_built_m": 1140.3946685248927 }, "geometry": { "type": "Polygon", "coordinates": [ [ [ 14.439696, 40.82066 ], [ 14.439677, 40.822912 ], [ 14.436713, 40.822898 ], [ 14.436732, 40.820646 ], [ 14.439696, 40.82066 ] ] ] } },
{ "type": "Feature", "properties": { "row": 18074, "col": 1813, "rank": 49, "pixels": 156, "burned_ha": 6.24, "severe_ha": 6.24, "severe_steep_ha": 1.0, "green_ndvi": 0.178, "severe_steep_share": 0.16, "priority": "3: monitor", "x": 453375.0, "y": 4518625.0, "lon": 14.44714, "lat": 40.81732, "trees_pct": 19.0, "nearest_built_m": 1780.8986495586996 }, "geometry": { "type": "Polygon", "coordinates": [ [ [ 14.448627, 40.816199 ], [ 14.448608, 40.818451 ], [ 14.445644, 40.818437 ], [ 14.445663, 40.816185 ], [ 14.448627, 40.816199 ] ] ] } },
{ "type": "Feature", "properties": { "row": 18071, "col": 1813, "rank": 50, "pixels": 169, "burned_ha": 5.24, "severe_ha": 2.96, "severe_steep_ha": 1.08, "green_ndvi": 0.166, "severe_steep_share": 0.16, "priority": "3: monitor", "x": 453375.0, "y": 4517875.0, "lon": 14.44719, "lat": 40.81056, "trees_pct": 0.0, "nearest_built_m": 1397.1757226634022 }, "geometry": { "type": "Polygon", "coordinates": [ [ [ 14.448683, 40.809443 ], [ 14.448664, 40.811695 ], [ 14.4457, 40.811681 ], [ 14.445719, 40.809429 ], [ 14.448683, 40.809443 ] ] ] } },
{ "type": "Feature", "properties": { "row": 18072, "col": 1813, "rank": 51, "pixels": 156, "burned_ha": 6.12, "severe_ha": 5.6, "severe_steep_ha": 0.92, "green_ndvi": 0.142, "severe_steep_share": 0.147, "priority": "3: monitor", "x": 453375.0, "y": 4518125.0, "lon": 14.44717, "lat": 40.81281, "trees_pct": 15.0, "nearest_built_m": 1600.7810593582121 }, "geometry": { "type": "Polygon", "coordinates": [ [ [ 14.448664, 40.811695 ], [ 14.448646, 40.813947 ], [ 14.445681, 40.813933 ], [ 14.4457, 40.811681 ], [ 14.448664, 40.811695 ] ] ] } },
{ "type": "Feature", "properties": { "row": 18077, "col": 1810, "rank": 52, "pixels": 156, "burned_ha": 6.24, "severe_ha": 6.2, "severe_steep_ha": 0.92, "green_ndvi": 0.283, "severe_steep_share": 0.147, "priority": "3: monitor", "x": 452625.0, "y": 4519375.0, "lon": 14.43819, "lat": 40.82403, "trees_pct": 0.0, "nearest_built_m": 923.57999112150537 }, "geometry": { "type": "Polygon", "coordinates": [ [ [ 14.439677, 40.822912 ], [ 14.439658, 40.825164 ], [ 14.436694, 40.82515 ], [ 14.436713, 40.822898 ], [ 14.439677, 40.822912 ] ] ] } },
{ "type": "Feature", "properties": { "row": 18071, "col": 1814, "rank": 53, "pixels": 156, "burned_ha": 5.68, "severe_ha": 4.36, "severe_steep_ha": 0.8, "green_ndvi": 0.148, "severe_steep_share": 0.128, "priority": "3: monitor", "x": 453625.0, "y": 4517875.0, "lon": 14.45016, "lat": 40.81058, "trees_pct": 0.0, "nearest_built_m": 1250.0 }, "geometry": { "type": "Polygon", "coordinates": [ [ [ 14.451647, 40.809457 ], [ 14.451628, 40.811709 ], [ 14.448664, 40.811695 ], [ 14.448683, 40.809443 ], [ 14.451647, 40.809457 ] ] ] } },
{ "type": "Feature", "properties": { "row": 18075, "col": 1811, "rank": 54, "pixels": 169, "burned_ha": 6.76, "severe_ha": 6.64, "severe_steep_ha": 0.84, "green_ndvi": 0.15700001, "severe_steep_share": 0.124, "priority": "3: monitor", "x": 452875.0, "y": 4518875.0, "lon": 14.44119, "lat": 40.81954, "trees_pct": 0.0, "nearest_built_m": 1480.0337833982032 }, "geometry": { "type": "Polygon", "coordinates": [ [ [ 14.44268, 40.818423 ], [ 14.442661, 40.820675 ], [ 14.439696, 40.82066 ], [ 14.439715, 40.818408 ], [ 14.44268, 40.818423 ] ] ] } },
{ "type": "Feature", "properties": { "row": 18077, "col": 1811, "rank": 55, "pixels": 169, "burned_ha": 6.76, "severe_ha": 6.52, "severe_steep_ha": 0.84, "green_ndvi": 0.239, "severe_steep_share": 0.124, "priority": "3: monitor", "x": 452875.0, "y": 4519375.0, "lon": 14.44115, "lat": 40.82405, "trees_pct": 0.0, "nearest_built_m": 1081.8964830333814 }, "geometry": { "type": "Polygon", "coordinates": [ [ [ 14.442642, 40.822927 ], [ 14.442623, 40.825179 ], [ 14.439658, 40.825164 ], [ 14.439677, 40.822912 ], [ 14.442642, 40.822927 ] ] ] } },
{ "type": "Feature", "properties": { "row": 18071, "col": 1812, "rank": 56, "pixels": 156, "burned_ha": 6.24, "severe_ha": 6.24, "severe_steep_ha": 0.76, "green_ndvi": 0.116, "severe_steep_share": 0.122, "priority": "3: monitor", "x": 453125.0, "y": 4517875.0, "lon": 14.44423, "lat": 40.81055, "trees_pct": 0.0, "nearest_built_m": 1339.5894893585869 }, "geometry": { "type": "Polygon", "coordinates": [ [ [ 14.445719, 40.809429 ], [ 14.4457, 40.811681 ], [ 14.442736, 40.811667 ], [ 14.442755, 40.809415 ], [ 14.445719, 40.809429 ] ] ] } },
{ "type": "Feature", "properties": { "row": 18075, "col": 1812, "rank": 57, "pixels": 156, "burned_ha": 6.24, "severe_ha": 6.2, "severe_steep_ha": 0.68, "green_ndvi": 0.198, "severe_steep_share": 0.109, "priority": "3: monitor", "x": 453125.0, "y": 4518875.0, "lon": 14.44415, "lat": 40.81956, "trees_pct": 0.0, "nearest_built_m": 1622.65215003093 }, "geometry": { "type": "Polygon", "coordinates": [ [ [ 14.445644, 40.818437 ], [ 14.445625, 40.820689 ], [ 14.442661, 40.820675 ], [ 14.44268, 40.818423 ], [ 14.445644, 40.818437 ] ] ] } },
{ "type": "Feature", "properties": { "row": 18078, "col": 1816, "rank": 58, "pixels": 144, "burned_ha": 3.04, "severe_ha": 0.6, "severe_steep_ha": 0.6, "green_ndvi": 0.64300001, "severe_steep_share": 0.104, "priority": "3: monitor", "x": 454125.0, "y": 4519625.0, "lon": 14.45595, "lat": 40.82637, "trees_pct": 100.0, "nearest_built_m": 541.29474410897433 }, "geometry": { "type": "Polygon", "coordinates": [ [ [ 14.457446, 40.825249 ], [ 14.457428, 40.827501 ], [ 14.454463, 40.827487 ], [ 14.454482, 40.825235 ], [ 14.457446, 40.825249 ] ] ] } },
{ "type": "Feature", "properties": { "row": 18076, "col": 1813, "rank": 59, "pixels": 156, "burned_ha": 6.24, "severe_ha": 6.16, "severe_steep_ha": 0.64, "green_ndvi": 0.189, "severe_steep_share": 0.103, "priority": "3: monitor", "x": 453375.0, "y": 4519125.0, "lon": 14.4471, "lat": 40.82182, "trees_pct": 25.0, "nearest_built_m": 1386.2178760930765 }, "geometry": { "type": "Polygon", "coordinates": [ [ [ 14.44859, 40.820703 ], [ 14.448571, 40.822955 ], [ 14.445606, 40.822941 ], [ 14.445625, 40.820689 ], [ 14.44859, 40.820703 ] ] ] } },
{ "type": "Feature", "properties": { "row": 18080, "col": 1811, "rank": 60, "pixels": 156, "burned_ha": 1.88, "severe_ha": 0.76, "severe_steep_ha": 0.64, "green_ndvi": 0.27500001, "severe_steep_share": 0.103, "priority": "3: monitor", "x": 452875.0, "y": 4520125.0, "lon": 14.44109, "lat": 40.8308, "trees_pct": 0.0, "nearest_built_m": 760.26311234992841 }, "geometry": { "type": "Polygon", "coordinates": [ [ [ 14.442585, 40.829683 ], [ 14.442567, 40.831935 ], [ 14.439602, 40.83192 ], [ 14.439621, 40.829668 ], [ 14.442585, 40.829683 ] ] ] } },
{ "type": "Feature", "properties": { "row": 18077, "col": 1813, "rank": 61, "pixels": 169, "burned_ha": 6.72, "severe_ha": 6.32, "severe_steep_ha": 0.68, "green_ndvi": 0.144, "severe_steep_share": 0.101, "priority": "3: monitor", "x": 453375.0, "y": 4519375.0, "lon": 14.44708, "lat": 40.82407, "trees_pct": 11.0, "nearest_built_m": 1218.2364302548172 }, "geometry": { "type": "Polygon", "coordinates": [ [ [ 14.448571, 40.822955 ], [ 14.448552, 40.825207 ], [ 14.445588, 40.825193 ], [ 14.445606, 40.822941 ], [ 14.448571, 40.822955 ] ] ] } },
{ "type": "Feature", "properties": { "row": 18072, "col": 1809, "rank": 62, "pixels": 156, "burned_ha": 5.0, "severe_ha": 3.32, "severe_steep_ha": 0.6, "green_ndvi": 0.332, "severe_steep_share": 0.096, "priority": "3: monitor", "x": 452375.0, "y": 4518125.0, "lon": 14.43532, "lat": 40.81276, "trees_pct": 39.0, "nearest_built_m": 1575.4364474646381 }, "geometry": { "type": "Polygon", "coordinates": [ [ [ 14.436808, 40.811638 ], [ 14.436789, 40.81389 ], [ 14.433825, 40.813875 ], [ 14.433844, 40.811623 ], [ 14.436808, 40.811638 ] ] ] } },
{ "type": "Feature", "properties": { "row": 18070, "col": 1817, "rank": 63, "pixels": 156, "burned_ha": 5.24, "severe_ha": 3.0, "severe_steep_ha": 0.56, "green_ndvi": 0.42300001, "severe_steep_share": 0.09, "priority": "3: monitor", "x": 454375.0, "y": 4517625.0, "lon": 14.45907, "lat": 40.80837, "trees_pct": 90.0, "nearest_built_m": 509.31326312987375 }, "geometry": { "type": "Polygon", "coordinates": [ [ [ 14.460557, 40.807247 ], [ 14.460539, 40.809499 ], [ 14.457575, 40.809485 ], [ 14.457593, 40.807233 ], [ 14.460557, 40.807247 ] ] ] } },
{ "type": "Feature", "properties": { "row": 18071, "col": 1809, "rank": 64, "pixels": 169, "burned_ha": 5.28, "severe_ha": 4.6, "severe_steep_ha": 0.6, "green_ndvi": 0.175, "severe_steep_share": 0.089, "priority": "3: monitor", "x": 452375.0, "y": 4517875.0, "lon": 14.43534, "lat": 40.8105, "trees_pct": 6.0, "nearest_built_m": 1328.3448347473634 }, "geometry": { "type": "Polygon", "coordinates": [ [ [ 14.436827, 40.809386 ], [ 14.436808, 40.811638 ], [ 14.433844, 40.811623 ], [ 14.433863, 40.809371 ], [ 14.436827, 40.809386 ] ] ] } },
{ "type": "Feature", "properties": { "row": 18079, "col": 1812, "rank": 65, "pixels": 156, "burned_ha": 2.88, "severe_ha": 1.48, "severe_steep_ha": 0.52, "green_ndvi": 0.353, "severe_steep_share": 0.083, "priority": "3: monitor", "x": 453125.0, "y": 4519875.0, "lon": 14.44408, "lat": 40.82856, "trees_pct": 0.0, "nearest_built_m": 1045.4664030948102 }, "geometry": { "type": "Polygon", "coordinates": [ [ [ 14.445569, 40.827445 ], [ 14.44555, 40.829697 ], [ 14.442585, 40.829683 ], [ 14.442604, 40.827431 ], [ 14.445569, 40.827445 ] ] ] } },
{ "type": "Feature", "properties": { "row": 18070, "col": 1815, "rank": 66, "pixels": 156, "burned_ha": 5.08, "severe_ha": 1.64, "severe_steep_ha": 0.48, "green_ndvi": 0.255, "severe_steep_share": 0.077, "priority": "3: monitor", "x": 453875.0, "y": 4517625.0, "lon": 14.45314, "lat": 40.80834, "trees_pct": 14.0, "nearest_built_m": 901.38781886599736 }, "geometry": { "type": "Polygon", "coordinates": [ [ [ 14.454629, 40.807219 ], [ 14.454611, 40.809471 ], [ 14.451647, 40.809457 ], [ 14.451665, 40.807205 ], [ 14.454629, 40.807219 ] ] ] } },
{ "type": "Feature", "properties": { "row": 18075, "col": 1814, "rank": 67, "pixels": 156, "burned_ha": 6.16, "severe_ha": 4.08, "severe_steep_ha": 0.48, "green_ndvi": 0.377, "severe_steep_share": 0.077, "priority": "3: monitor", "x": 453625.0, "y": 4518875.0, "lon": 14.45008, "lat": 40.81958, "trees_pct": 100.0, "nearest_built_m": 1437.5673897247393 }, "geometry": { "type": "Polygon", "coordinates": [ [ [ 14.451573, 40.818465 ], [ 14.451554, 40.820717 ], [ 14.44859, 40.820703 ], [ 14.448608, 40.818451 ], [ 14.451573, 40.818465 ] ] ] } },
{ "type": "Feature", "properties": { "row": 18073, "col": 1819, "rank": 68, "pixels": 169, "burned_ha": 6.76, "severe_ha": 5.64, "severe_steep_ha": 0.48, "green_ndvi": 0.24, "severe_steep_share": 0.071, "priority": "3: monitor", "x": 454875.0, "y": 4518375.0, "lon": 14.46494, "lat": 40.81515, "trees_pct": 22.0, "nearest_built_m": 380.0 }, "geometry": { "type": "Polygon", "coordinates": [ [ [ 14.46643, 40.814031 ], [ 14.466412, 40.816283 ], [ 14.463448, 40.816269 ], [ 14.463466, 40.814017 ], [ 14.46643, 40.814031 ] ] ] } },
{ "type": "Feature", "properties": { "row": 18070, "col": 1809, "rank": 69, "pixels": 156, "burned_ha": 3.84, "severe_ha": 2.48, "severe_steep_ha": 0.44, "green_ndvi": 0.26300001, "severe_steep_share": 0.071, "priority": "3: monitor", "x": 452375.0, "y": 4517625.0, "lon": 14.43535, "lat": 40.80825, "trees_pct": 49.0, "nearest_built_m": 1082.5894882179487 }, "geometry": { "type": "Polygon", "coordinates": [ [ [ 14.436846, 40.807134 ], [ 14.436827, 40.809386 ], [ 14.433863, 40.809371 ], [ 14.433882, 40.807119 ], [ 14.436846, 40.807134 ] ] ] } },
{ "type": "Feature", "properties": { "row": 18075, "col": 1808, "rank": 70, "pixels": 156, "burned_ha": 1.2, "severe_ha": 0.44, "severe_steep_ha": 0.44, "green_ndvi": 0.21600001, "severe_steep_share": 0.071, "priority": "3: monitor", "x": 452125.0, "y": 4518875.0, "lon": 14.43229, "lat": 40.8195, "trees_pct": 0.0, "nearest_built_m": 1270.0393694685217 }, "geometry": { "type": "Polygon", "coordinates": [ [ [ 14.433787, 40.818379 ], [ 14.433767, 40.820631 ], [ 14.430803, 40.820617 ], [ 14.430822, 40.818365 ], [ 14.433787, 40.818379 ] ] ] } },
{ "type": "Feature", "properties": { "row": 18074, "col": 1810, "rank": 71, "pixels": 144, "burned_ha": 5.76, "severe_ha": 5.76, "severe_steep_ha": 0.4, "green_ndvi": 0.20200001, "severe_steep_share": 0.069, "priority": "3: monitor", "x": 452625.0, "y": 4518625.0, "lon": 14.43824, "lat": 40.81728, "trees_pct": 0.0, "nearest_built_m": 1603.2778923193569 }, "geometry": { "type": "Polygon", "coordinates": [ [ [ 14.439734, 40.816156 ], [ 14.439715, 40.818408 ], [ 14.436751, 40.818394 ], [ 14.43677, 40.816142 ], [ 14.439734, 40.816156 ] ] ] } },
{ "type": "Feature", "properties": { "row": 18075, "col": 1819, "rank": 72, "pixels": 169, "burned_ha": 2.28, "severe_ha": 0.56, "severe_steep_ha": 0.44, "green_ndvi": 0.54, "severe_steep_share": 0.065, "priority": "3: monitor", "x": 454875.0, "y": 4518875.0, "lon": 14.4649, "lat": 40.81965, "trees_pct": 100.0, "nearest_built_m": 565.68542494923804 }, "geometry": { "type": "Polygon", "coordinates": [ [ [ 14.466394, 40.818535 ], [ 14.466376, 40.820787 ], [ 14.463412, 40.820773 ], [ 14.46343, 40.818521 ], [ 14.466394, 40.818535 ] ] ] } },
{ "type": "Feature", "properties": { "row": 18077, "col": 1809, "rank": 73, "pixels": 169, "burned_ha": 3.8, "severe_ha": 3.44, "severe_steep_ha": 0.44, "green_ndvi": 0.318, "severe_steep_share": 0.065, "priority": "3: monitor", "x": 452375.0, "y": 4519375.0, "lon": 14.43522, "lat": 40.82402, "trees_pct": 0.0, "nearest_built_m": 812.71151093115452 }, "geometry": { "type": "Polygon", "coordinates": [ [ [ 14.436713, 40.822898 ], [ 14.436694, 40.82515 ], [ 14.433729, 40.825135 ], [ 14.433748, 40.822883 ], [ 14.436713, 40.822898 ] ] ] } },
{ "type": "Feature", "properties": { "row": 18072, "col": 1818, "rank": 74, "pixels": 144, "burned_ha": 5.76, "severe_ha": 5.08, "severe_steep_ha": 0.36, "green_ndvi": 0.299, "severe_steep_share": 0.062, "priority": "3: monitor", "x": 454625.0, "y": 4518125.0, "lon": 14.46199, "lat": 40.81288, "trees_pct": 86.0, "nearest_built_m": 528.39379254491621 }, "geometry": { "type": "Polygon", "coordinates": [ [ [ 14.463484, 40.811765 ], [ 14.463466, 40.814017 ], [ 14.460502, 40.814003 ], [ 14.46052, 40.811751 ], [ 14.463484, 40.811765 ] ] ] } },
{ "type": "Feature", "properties": { "row": 18073, "col": 1809, "rank": 75, "pixels": 169, "burned_ha": 6.76, "severe_ha": 6.6, "severe_steep_ha": 0.4, "green_ndvi": 0.35100001, "severe_steep_share": 0.059, "priority": "3: monitor", "x": 452375.0, "y": 4518375.0, "lon": 14.4353, "lat": 40.81501, "trees_pct": 72.0, "nearest_built_m": 1788.9941307897016 }, "geometry": { "type": "Polygon", "coordinates": [ [ [ 14.436789, 40.81389 ], [ 14.43677, 40.816142 ], [ 14.433806, 40.816127 ], [ 14.433825, 40.813875 ], [ 14.436789, 40.81389 ] ] ] } },
{ "type": "Feature", "properties": { "row": 18070, "col": 1819, "rank": 76, "pixels": 156, "burned_ha": 6.24, "severe_ha": 5.2, "severe_steep_ha": 0.36, "green_ndvi": 0.348, "severe_steep_share": 0.058, "priority": "3: monitor", "x": 454875.0, "y": 4517625.0, "lon": 14.46499, "lat": 40.80839, "trees_pct": 60.0, "nearest_built_m": 210.0 }, "geometry": { "type": "Polygon", "coordinates": [ [ [ 14.466485, 40.807275 ], [ 14.466467, 40.809527 ], [ 14.463503, 40.809513 ], [ 14.463521, 40.807261 ], [ 14.466485, 40.807275 ] ] ] } },
{ "type": "Feature", "properties": { "row": 18073, "col": 1812, "rank": 77, "pixels": 156, "burned_ha": 6.24, "severe_ha": 6.24, "severe_steep_ha": 0.36, "green_ndvi": 0.131, "severe_steep_share": 0.058, "priority": "3: monitor", "x": 453125.0, "y": 4518375.0, "lon": 14.44419, "lat": 40.81505, "trees_pct": 0.0, "nearest_built_m": 1831.5294155431957 }, "geometry": { "type": "Polygon", "coordinates": [ [ [ 14.445681, 40.813933 ], [ 14.445663, 40.816185 ], [ 14.442698, 40.816171 ], [ 14.442717, 40.813919 ], [ 14.445681, 40.813933 ] ] ] } },
{ "type": "Feature", "properties": { "row": 18078, "col": 1813, "rank": 78, "pixels": 156, "burned_ha": 2.84, "severe_ha": 2.28, "severe_steep_ha": 0.36, "green_ndvi": 0.237, "severe_steep_share": 0.058, "priority": "3: monitor", "x": 453375.0, "y": 4519625.0, "lon": 14.44706, "lat": 40.82633, "trees_pct": 0.0, "nearest_built_m": 1074.8023074035523 }, "geometry": { "type": "Polygon", "coordinates": [ [ [ 14.448552, 40.825207 ], [ 14.448534, 40.827459 ], [ 14.445569, 40.827445 ], [ 14.445588, 40.825193 ], [ 14.448552, 40.825207 ] ] ] } },
{ "type": "Feature", "properties": { "row": 18070, "col": 1820, "rank": 79, "pixels": 144, "burned_ha": 5.72, "severe_ha": 4.96, "severe_steep_ha": 0.32, "green_ndvi": 0.36500001, "severe_steep_share": 0.056, "priority": "3: monitor", "x": 455125.0, "y": 4517625.0, "lon": 14.46796, "lat": 40.80841, "trees_pct": 78.0, "nearest_built_m": 0.0 }, "geometry": { "type": "Polygon", "coordinates": [ [ [ 14.469448, 40.807288 ], [ 14.469431, 40.80954 ], [ 14.466467, 40.809527 ], [ 14.466485, 40.807275 ], [ 14.469448, 40.807288 ] ] ] } },
{ "type": "Feature", "properties": { "row": 18070, "col": 1818, "rank": 80, "pixels": 144, "burned_ha": 5.76, "severe_ha": 3.64, "severe_steep_ha": 0.28, "green_ndvi": 0.27700001, "severe_steep_share": 0.049, "priority": "3: monitor", "x": 454625.0, "y": 4517625.0, "lon": 14.46203, "lat": 40.80838, "trees_pct": 51.0, "nearest_built_m": 382.75318418009277 }, "geometry": { "type": "Polygon", "coordinates": [ [ [ 14.463521, 40.807261 ], [ 14.463503, 40.809513 ], [ 14.460539, 40.809499 ], [ 14.460557, 40.807247 ], [ 14.463521, 40.807261 ] ] ] } },
{ "type": "Feature", "properties": { "row": 18077, "col": 1818, "rank": 81, "pixels": 156, "burned_ha": 0.72, "severe_ha": 0.36, "severe_steep_ha": 0.28, "green_ndvi": 0.57200003, "severe_steep_share": 0.045, "priority": "3: monitor", "x": 454625.0, "y": 4519375.0, "lon": 14.4619, "lat": 40.82414, "trees_pct": 100.0, "nearest_built_m": 641.95015382816132 }, "geometry": { "type": "Polygon", "coordinates": [ [ [ 14.463394, 40.823025 ], [ 14.463376, 40.825277 ], [ 14.460411, 40.825263 ], [ 14.460429, 40.823011 ], [ 14.463394, 40.823025 ] ] ] } },
{ "type": "Feature", "properties": { "row": 18078, "col": 1809, "rank": 82, "pixels": 156, "burned_ha": 5.48, "severe_ha": 5.08, "severe_steep_ha": 0.28, "green_ndvi": 0.336, "severe_steep_share": 0.045, "priority": "3: monitor", "x": 452375.0, "y": 4519625.0, "lon": 14.4352, "lat": 40.82627, "trees_pct": 0.0, "nearest_built_m": 581.37767414994539 }, "geometry": { "type": "Polygon", "coordinates": [ [ [ 14.436694, 40.82515 ], [ 14.436675, 40.827402 ], [ 14.43371, 40.827387 ], [ 14.433729, 40.825135 ], [ 14.436694, 40.82515 ] ] ] } },
{ "type": "Feature", "properties": { "row": 18069, "col": 1808, "rank": 83, "pixels": 156, "burned_ha": 6.2, "severe_ha": 5.56, "severe_steep_ha": 0.24, "green_ndvi": 0.242, "severe_steep_share": 0.038, "priority": "3: monitor", "x": 452125.0, "y": 4517375.0, "lon": 14.43241, "lat": 40.80599, "trees_pct": 68.0, "nearest_built_m": 936.48278147545238 }, "geometry": { "type": "Polygon", "coordinates": [ [ [ 14.433901, 40.804867 ], [ 14.433882, 40.807119 ], [ 14.430919, 40.807105 ], [ 14.430938, 40.804853 ], [ 14.433901, 40.804867 ] ] ] } },
{ "type": "Feature", "properties": { "row": 18074, "col": 1811, "rank": 84, "pixels": 156, "burned_ha": 6.24, "severe_ha": 6.24, "severe_steep_ha": 0.24, "green_ndvi": 0.23, "severe_steep_share": 0.038, "priority": "3: monitor", "x": 452875.0, "y": 4518625.0, "lon": 14.44121, "lat": 40.81729, "trees_pct": 0.0, "nearest_built_m": 1699.4116628998402 }, "geometry": { "type": "Polygon", "coordinates": [ [ [ 14.442698, 40.816171 ], [ 14.44268, 40.818423 ], [ 14.439715, 40.818408 ], [ 14.439734, 40.816156 ], [ 14.442698, 40.816171 ] ] ] } },
{ "type": "Feature", "properties": { "row": 18079, "col": 1809, "rank": 85, "pixels": 169, "burned_ha": 3.36, "severe_ha": 1.36, "severe_steep_ha": 0.2, "green_ndvi": 0.50700003, "severe_steep_share": 0.03, "priority": "3: monitor", "x": 452375.0, "y": 4519875.0, "lon": 14.43518, "lat": 40.82852, "trees_pct": 43.0, "nearest_built_m": 374.8332962798263 }, "geometry": { "type": "Polygon", "coordinates": [ [ [ 14.436675, 40.827402 ], [ 14.436656, 40.829654 ], [ 14.433691, 40.82964 ], [ 14.43371, 40.827387 ], [ 14.436675, 40.827402 ] ] ] } },
{ "type": "Feature", "properties": { "row": 18067, "col": 1810, "rank": 86, "pixels": 156, "burned_ha": 1.4, "severe_ha": 0.36, "severe_steep_ha": 0.16, "green_ndvi": 0.44, "severe_steep_share": 0.026, "priority": "3: monitor", "x": 452625.0, "y": 4516875.0, "lon": 14.43838, "lat": 40.80151, "trees_pct": 1.0, "nearest_built_m": 310.0 }, "geometry": { "type": "Polygon", "coordinates": [ [ [ 14.439867, 40.800392 ], [ 14.439848, 40.802644 ], [ 14.436884, 40.80263 ], [ 14.436903, 40.800378 ], [ 14.439867, 40.800392 ] ] ] } },
{ "type": "Feature", "properties": { "row": 18072, "col": 1812, "rank": 87, "pixels": 144, "burned_ha": 5.76, "severe_ha": 5.64, "severe_steep_ha": 0.12, "green_ndvi": 0.106, "severe_steep_share": 0.021, "priority": "3: monitor", "x": 453125.0, "y": 4518125.0, "lon": 14.44421, "lat": 40.8128, "trees_pct": 0.0, "nearest_built_m": 1584.9290204927161 }, "geometry": { "type": "Polygon", "coordinates": [ [ [ 14.4457, 40.811681 ], [ 14.445681, 40.813933 ], [ 14.442717, 40.813919 ], [ 14.442736, 40.811667 ], [ 14.4457, 40.811681 ] ] ] } },
{ "type": "Feature", "properties": { "row": 18076, "col": 1812, "rank": 88, "pixels": 144, "burned_ha": 5.76, "severe_ha": 5.76, "severe_steep_ha": 0.12, "green_ndvi": 0.15800001, "severe_steep_share": 0.021, "priority": "3: monitor", "x": 453125.0, "y": 4519125.0, "lon": 14.44413, "lat": 40.82181, "trees_pct": 0.0, "nearest_built_m": 1435.4441821262158 }, "geometry": { "type": "Polygon", "coordinates": [ [ [ 14.445625, 40.820689 ], [ 14.445606, 40.822941 ], [ 14.442642, 40.822927 ], [ 14.442661, 40.820675 ], [ 14.445625, 40.820689 ] ] ] } },
{ "type": "Feature", "properties": { "row": 18078, "col": 1812, "rank": 89, "pixels": 144, "burned_ha": 5.52, "severe_ha": 4.88, "severe_steep_ha": 0.12, "green_ndvi": 0.26100001, "severe_steep_share": 0.021, "priority": "3: monitor", "x": 453125.0, "y": 4519625.0, "lon": 14.4441, "lat": 40.82631, "trees_pct": 0.0, "nearest_built_m": 1136.001760562016 }, "geometry": { "type": "Polygon", "coordinates": [ [ [ 14.445588, 40.825193 ], [ 14.445569, 40.827445 ], [ 14.442604, 40.827431 ], [ 14.442623, 40.825179 ], [ 14.445588, 40.825193 ] ] ] } },
{ "type": "Feature", "properties": { "row": 18073, "col": 1808, "rank": 90, "pixels": 156, "burned_ha": 2.24, "severe_ha": 0.6, "severe_steep_ha": 0.12, "green_ndvi": 0.515, "severe_steep_share": 0.019, "priority": "3: monitor", "x": 452125.0, "y": 4518375.0, "lon": 14.43233, "lat": 40.81499, "trees_pct": 82.0, "nearest_built_m": 1770.0282483621552 }, "geometry": { "type": "Polygon", "coordinates": [ [ [ 14.433825, 40.813875 ], [ 14.433806, 40.816127 ], [ 14.430842, 40.816113 ], [ 14.430861, 40.813861 ], [ 14.433825, 40.813875 ] ] ] } },
{ "type": "Feature", "properties": { "row": 18069, "col": 1809, "rank": 91, "pixels": 169, "burned_ha": 6.68, "severe_ha": 5.72, "severe_steep_ha": 0.12, "green_ndvi": 0.228, "severe_steep_share": 0.018, "priority": "3: monitor", "x": 452375.0, "y": 4517375.0, "lon": 14.43537, "lat": 40.806, "trees_pct": 63.0, "nearest_built_m": 839.34498270973177 }, "geometry": { "type": "Polygon", "coordinates": [ [ [ 14.436865, 40.804882 ], [ 14.436846, 40.807134 ], [ 14.433882, 40.807119 ], [ 14.433901, 40.804867 ], [ 14.436865, 40.804882 ] ] ] } },
{ "type": "Feature", "properties": { "row": 18075, "col": 1813, "rank": 92, "pixels": 169, "burned_ha": 6.72, "severe_ha": 6.4, "severe_steep_ha": 0.12, "green_ndvi": 0.258, "severe_steep_share": 0.018, "priority": "3: monitor", "x": 453375.0, "y": 4518875.0, "lon": 14.44712, "lat": 40.81957, "trees_pct": 39.0, "nearest_built_m": 1576.1027885261799 }, "geometry": { "type": "Polygon", "coordinates": [ [ [ 14.448608, 40.818451 ], [ 14.44859, 40.820703 ], [ 14.445625, 40.820689 ], [ 14.445644, 40.818437 ], [ 14.448608, 40.818451 ] ] ] } },
{ "type": "Feature", "properties": { "row": 18068, "col": 1810, "rank": 93, "pixels": 144, "burned_ha": 5.64, "severe_ha": 5.36, "severe_steep_ha": 0.08, "green_ndvi": 0.17, "severe_steep_share": 0.014, "priority": "3: monitor", "x": 452625.0, "y": 4517125.0, "lon": 14.43836, "lat": 40.80376, "trees_pct": 21.0, "nearest_built_m": 560.0 }, "geometry": { "type": "Polygon", "coordinates": [ [ [ 14.439848, 40.802644 ], [ 14.439829, 40.804896 ], [ 14.436865, 40.804882 ], [ 14.436884, 40.80263 ], [ 14.439848, 40.802644 ] ] ] } },
{ "type": "Feature", "properties": { "row": 18071, "col": 1808, "rank": 94, "pixels": 156, "burned_ha": 1.8, "severe_ha": 0.28, "severe_steep_ha": 0.08, "green_ndvi": 0.251, "severe_steep_share": 0.013, "priority": "3: monitor", "x": 452125.0, "y": 4517875.0, "lon": 14.43237, "lat": 40.81049, "trees_pct": 0.0, "nearest_built_m": 1391.7614738165446 }, "geometry": { "type": "Polygon", "coordinates": [ [ [ 14.433863, 40.809371 ], [ 14.433844, 40.811623 ], [ 14.43088, 40.811609 ], [ 14.430899, 40.809357 ], [ 14.433863, 40.809371 ] ] ] } },
{ "type": "Feature", "properties": { "row": 18071, "col": 1820, "rank": 95, "pixels": 156, "burned_ha": 3.36, "severe_ha": 1.64, "severe_steep_ha": 0.08, "green_ndvi": 0.479, "severe_steep_share": 0.013, "priority": "3: monitor", "x": 455125.0, "y": 4517875.0, "lon": 14.46794, "lat": 40.81066, "trees_pct": 90.0, "nearest_built_m": 0.0 }, "geometry": { "type": "Polygon", "coordinates": [ [ [ 14.469431, 40.80954 ], [ 14.469413, 40.811792 ], [ 14.466449, 40.811779 ], [ 14.466467, 40.809527 ], [ 14.469431, 40.80954 ] ] ] } },
{ "type": "Feature", "properties": { "row": 18079, "col": 1811, "rank": 96, "pixels": 169, "burned_ha": 6.76, "severe_ha": 6.48, "severe_steep_ha": 0.08, "green_ndvi": 0.281, "severe_steep_share": 0.012, "priority": "3: monitor", "x": 452875.0, "y": 4519875.0, "lon": 14.44111, "lat": 40.82855, "trees_pct": 0.0, "nearest_built_m": 806.53580205716844 }, "geometry": { "type": "Polygon", "coordinates": [ [ [ 14.442604, 40.827431 ], [ 14.442585, 40.829683 ], [ 14.439621, 40.829668 ], [ 14.439639, 40.827416 ], [ 14.442604, 40.827431 ] ] ] } },
{ "type": "Feature", "properties": { "row": 18076, "col": 1818, "rank": 97, "pixels": 144, "burned_ha": 0.8, "severe_ha": 0.12, "severe_steep_ha": 0.04, "green_ndvi": 0.589, "severe_steep_share": 0.007, "priority": "3: monitor", "x": 454625.0, "y": 4519125.0, "lon": 14.46192, "lat": 40.82189, "trees_pct": 100.0, "nearest_built_m": 758.02374632988904 }, "geometry": { "type": "Polygon", "coordinates": [ [ [ 14.463412, 40.820773 ], [ 14.463394, 40.823025 ], [ 14.460429, 40.823011 ], [ 14.460447, 40.820759 ], [ 14.463412, 40.820773 ] ] ] } },
{ "type": "Feature", "properties": { "row": 18069, "col": 1810, "rank": 98, "pixels": 156, "burned_ha": 6.24, "severe_ha": 6.0, "severe_steep_ha": 0.04, "green_ndvi": 0.149, "severe_steep_share": 0.006, "priority": "3: monitor", "x": 452625.0, "y": 4517375.0, "lon": 14.43834, "lat": 40.80602, "trees_pct": 12.0, "nearest_built_m": 810.0 }, "geometry": { "type": "Polygon", "coordinates": [ [ [ 14.439829, 40.804896 ], [ 14.43981, 40.807148 ], [ 14.436846, 40.807134 ], [ 14.436865, 40.804882 ], [ 14.439829, 40.804896 ] ] ] } },
{ "type": "Feature", "properties": { "row": 18069, "col": 1820, "rank": 99, "pixels": 156, "burned_ha": 6.24, "severe_ha": 4.76, "severe_steep_ha": 0.04, "green_ndvi": 0.20900001, "severe_steep_share": 0.006, "priority": "3: monitor", "x": 455125.0, "y": 4517375.0, "lon": 14.46798, "lat": 40.80616, "trees_pct": 21.0, "nearest_built_m": 145.60219778561037 }, "geometry": { "type": "Polygon", "coordinates": [ [ [ 14.469466, 40.805036 ], [ 14.469448, 40.807288 ], [ 14.466485, 40.807275 ], [ 14.466503, 40.805023 ], [ 14.469466, 40.805036 ] ] ] } },
{ "type": "Feature", "properties": { "row": 18073, "col": 1820, "rank": 100, "pixels": 156, "burned_ha": 3.28, "severe_ha": 1.88, "severe_steep_ha": 0.04, "green_ndvi": 0.387, "severe_steep_share": 0.006, "priority": "3: monitor", "x": 455125.0, "y": 4518375.0, "lon": 14.4679, "lat": 40.81516, "trees_pct": 71.0, "nearest_built_m": 130.0 }, "geometry": { "type": "Polygon", "coordinates": [ [ [ 14.469395, 40.814044 ], [ 14.469377, 40.816296 ], [ 14.466412, 40.816283 ], [ 14.46643, 40.814031 ], [ 14.469395, 40.814044 ] ] ] } },
{ "type": "Feature", "properties": { "row": 18077, "col": 1812, "rank": 101, "pixels": 156, "burned_ha": 6.24, "severe_ha": 6.16, "severe_steep_ha": 0.04, "green_ndvi": 0.20900001, "severe_steep_share": 0.006, "priority": "3: monitor", "x": 453125.0, "y": 4519375.0, "lon": 14.44411, "lat": 40.82406, "trees_pct": 0.0, "nearest_built_m": 1270.0393694685217 }, "geometry": { "type": "Polygon", "coordinates": [ [ [ 14.445606, 40.822941 ], [ 14.445588, 40.825193 ], [ 14.442623, 40.825179 ], [ 14.442642, 40.822927 ], [ 14.445606, 40.822941 ] ] ] } },
{ "type": "Feature", "properties": { "row": 18069, "col": 1819, "rank": 102, "pixels": 169, "burned_ha": 6.6, "severe_ha": 3.04, "severe_steep_ha": 0.04, "green_ndvi": 0.168, "severe_steep_share": 0.006, "priority": "3: monitor", "x": 454875.0, "y": 4517375.0, "lon": 14.46501, "lat": 40.80614, "trees_pct": 17.0, "nearest_built_m": 110.0 }, "geometry": { "type": "Polygon", "coordinates": [ [ [ 14.466503, 40.805023 ], [ 14.466485, 40.807275 ], [ 14.463521, 40.807261 ], [ 14.463539, 40.805009 ], [ 14.466503, 40.805023 ] ] ] } },
{ "type": "Feature", "properties": { "row": 18066, "col": 1809, "rank": 103, "pixels": 156, "burned_ha": 0.04, "severe_ha": 0.0, "severe_steep_ha": 0.0, "green_ndvi": 0.59, "severe_steep_share": 0.0, "priority": "3: monitor", "x": 452375.0, "y": 4516625.0, "lon": 14.43543, "lat": 40.79924, "trees_pct": 0.0, "nearest_built_m": 219.3171219946131 }, "geometry": { "type": "Polygon", "coordinates": [ [ [ 14.436922, 40.798126 ], [ 14.436903, 40.800378 ], [ 14.43394, 40.800363 ], [ 14.433959, 40.798111 ], [ 14.436922, 40.798126 ] ] ] } },
{ "type": "Feature", "properties": { "row": 18066, "col": 1810, "rank": 104, "pixels": 144, "burned_ha": 0.32, "severe_ha": 0.0, "severe_steep_ha": 0.0, "green_ndvi": 0.501, "severe_steep_share": 0.0, "priority": "3: monitor", "x": 452625.0, "y": 4516625.0, "lon": 14.43839, "lat": 40.79926, "trees_pct": 0.0, "nearest_built_m": 60.0 }, "geometry": { "type": "Polygon", "coordinates": [ [ [ 14.439886, 40.79814 ], [ 14.439867, 40.800392 ], [ 14.436903, 40.800378 ], [ 14.436922, 40.798126 ], [ 14.439886, 40.79814 ] ] ] } },
{ "type": "Feature", "properties": { "row": 18067, "col": 1808, "rank": 105, "pixels": 156, "burned_ha": 2.44, "severe_ha": 0.32, "severe_steep_ha": 0.0, "green_ndvi": 0.486, "severe_steep_share": 0.0, "priority": "3: monitor", "x": 452125.0, "y": 4516875.0, "lon": 14.43245, "lat": 40.80148, "trees_pct": 0.0, "nearest_built_m": 563.02753041036988 }, "geometry": { "type": "Polygon", "coordinates": [ [ [ 14.43394, 40.800363 ], [ 14.433921, 40.802615 ], [ 14.430957, 40.802601 ], [ 14.430976, 40.800349 ], [ 14.43394, 40.800363 ] ] ] } },
{ "type": "Feature", "properties": { "row": 18067, "col": 1809, "rank": 106, "pixels": 169, "burned_ha": 3.48, "severe_ha": 0.84, "severe_steep_ha": 0.0, "green_ndvi": 0.468, "severe_steep_share": 0.0, "priority": "3: monitor", "x": 452375.0, "y": 4516875.0, "lon": 14.43541, "lat": 40.8015, "trees_pct": 0.0, "nearest_built_m": 380.1315561749642 }, "geometry": { "type": "Polygon", "coordinates": [ [ [ 14.436903, 40.800378 ], [ 14.436884, 40.80263 ], [ 14.433921, 40.802615 ], [ 14.43394, 40.800363 ], [ 14.436903, 40.800378 ] ] ] } },
{ "type": "Feature", "properties": { "row": 18067, "col": 1816, "rank": 107, "pixels": 156, "burned_ha": 0.04, "severe_ha": 0.0, "severe_steep_ha": 0.0, "green_ndvi": 0.63800001, "severe_steep_share": 0.0, "priority": "3: monitor", "x": 454125.0, "y": 4516875.0, "lon": 14.45616, "lat": 40.8016, "trees_pct": 0.0, "nearest_built_m": 460.0 }, "geometry": { "type": "Polygon", "coordinates": [ [ [ 14.457648, 40.800477 ], [ 14.45763, 40.802729 ], [ 14.454666, 40.802715 ], [ 14.454685, 40.800463 ], [ 14.457648, 40.800477 ] ] ] } },
{ "type": "Feature", "properties": { "row": 18067, "col": 1817, "rank": 108, "pixels": 169, "burned_ha": 3.0, "severe_ha": 0.52, "severe_steep_ha": 0.0, "green_ndvi": 0.574, "severe_steep_share": 0.0, "priority": "3: monitor", "x": 454375.0, "y": 4516875.0, "lon": 14.45912, "lat": 40.80161, "trees_pct": 96.0, "nearest_built_m": 210.0 }, "geometry": { "type": "Polygon", "coordinates": [ [ [ 14.460612, 40.800491 ], [ 14.460593, 40.802743 ], [ 14.45763, 40.802729 ], [ 14.457648, 40.800477 ], [ 14.460612, 40.800491 ] ] ] } },
{ "type": "Feature", "properties": { "row": 18067, "col": 1818, "rank": 109, "pixels": 156, "burned_ha": 3.24, "severe_ha": 0.92, "severe_steep_ha": 0.0, "green_ndvi": 0.542, "severe_steep_share": 0.0, "priority": "3: monitor", "x": 454625.0, "y": 4516875.0, "lon": 14.46208, "lat": 40.80162, "trees_pct": 100.0, "nearest_built_m": 0.0 }, "geometry": { "type": "Polygon", "coordinates": [ [ [ 14.463575, 40.800505 ], [ 14.463557, 40.802757 ], [ 14.460593, 40.802743 ], [ 14.460612, 40.800491 ], [ 14.463575, 40.800505 ] ] ] } },
{ "type": "Feature", "properties": { "row": 18067, "col": 1819, "rank": 110, "pixels": 169, "burned_ha": 1.84, "severe_ha": 1.16, "severe_steep_ha": 0.0, "green_ndvi": 0.394, "severe_steep_share": 0.0, "priority": "3: monitor", "x": 454875.0, "y": 4516875.0, "lon": 14.46505, "lat": 40.80164, "trees_pct": 37.0, "nearest_built_m": 0.0 }, "geometry": { "type": "Polygon", "coordinates": [ [ [ 14.466539, 40.800519 ], [ 14.466521, 40.802771 ], [ 14.463557, 40.802757 ], [ 14.463575, 40.800505 ], [ 14.466539, 40.800519 ] ] ] } },
{ "type": "Feature", "properties": { "row": 18067, "col": 1820, "rank": 111, "pixels": 156, "burned_ha": 0.2, "severe_ha": 0.04, "severe_steep_ha": 0.0, "green_ndvi": 0.51800001, "severe_steep_share": 0.0, "priority": "3: monitor", "x": 455125.0, "y": 4516875.0, "lon": 14.46801, "lat": 40.80165, "trees_pct": 0.0, "nearest_built_m": 0.0 }, "geometry": { "type": "Polygon", "coordinates": [ [ [ 14.469502, 40.800532 ], [ 14.469484, 40.802784 ], [ 14.466521, 40.802771 ], [ 14.466539, 40.800519 ], [ 14.469502, 40.800532 ] ] ] } },
{ "type": "Feature", "properties": { "row": 18068, "col": 1807, "rank": 112, "pixels": 156, "burned_ha": 0.84, "severe_ha": 0.32, "severe_steep_ha": 0.0, "green_ndvi": 0.449, "severe_steep_share": 0.0, "priority": "3: monitor", "x": 451875.0, "y": 4517125.0, "lon": 14.42947, "lat": 40.80372, "trees_pct": 54.0, "nearest_built_m": 912.14034007931036 }, "geometry": { "type": "Polygon", "coordinates": [ [ [ 14.430957, 40.802601 ], [ 14.430938, 40.804853 ], [ 14.427974, 40.804838 ], [ 14.427993, 40.802586 ], [ 14.430957, 40.802601 ] ] ] } },
{ "type": "Feature", "properties": { "row": 18068, "col": 1808, "rank": 113, "pixels": 144, "burned_ha": 4.92, "severe_ha": 3.04, "severe_steep_ha": 0.0, "green_ndvi": 0.273, "severe_steep_share": 0.0, "priority": "3: monitor", "x": 452125.0, "y": 4517125.0, "lon": 14.43243, "lat": 40.80373, "trees_pct": 26.0, "nearest_built_m": 731.09506905736964 }, "geometry": { "type": "Polygon", "coordinates": [ [ [ 14.433921, 40.802615 ], [ 14.433901, 40.804867 ], [ 14.430938, 40.804853 ], [ 14.430957, 40.802601 ], [ 14.433921, 40.802615 ] ] ] } },
{ "type": "Feature", "properties": { "row": 18068, "col": 1809, "rank": 114, "pixels": 156, "burned_ha": 6.24, "severe_ha": 6.2, "severe_steep_ha": 0.0, "green_ndvi": 0.2, "severe_steep_share": 0.0, "priority": "3: monitor", "x": 452375.0, "y": 4517125.0, "lon": 14.43539, "lat": 40.80375, "trees_pct": 48.0, "nearest_built_m": 601.664358259653 }, "geometry": { "type": "Polygon", "coordinates": [ [ [ 14.436884, 40.80263 ], [ 14.436865, 40.804882 ], [ 14.433901, 40.804867 ], [ 14.433921, 40.802615 ], [ 14.436884, 40.80263 ] ] ] } },
{ "type": "Feature", "properties": { "row": 18068, "col": 1811, "rank": 115, "pixels": 156, "burned_ha": 4.64, "severe_ha": 3.32, "severe_steep_ha": 0.0, "green_ndvi": 0.295, "severe_steep_share": 0.0, "priority": "3: monitor", "x": 452875.0, "y": 4517125.0, "lon": 14.44132, "lat": 40.80378, "trees_pct": 22.0, "nearest_built_m": 560.80299571239811 }, "geometry": { "type": "Polygon", "coordinates": [ [ [ 14.442812, 40.802659 ], [ 14.442793, 40.804911 ], [ 14.439829, 40.804896 ], [ 14.439848, 40.802644 ], [ 14.442812, 40.802659 ] ] ] } },
{ "type": "Feature", "properties": { "row": 18068, "col": 1812, "rank": 116, "pixels": 144, "burned_ha": 1.96, "severe_ha": 1.0, "severe_steep_ha": 0.0, "green_ndvi": 0.394, "severe_steep_share": 0.0, "priority": "3: monitor", "x": 453125.0, "y": 4517125.0, "lon": 14.44428, "lat": 40.80379, "trees_pct": 74.0, "nearest_built_m": 608.76925020897693 }, "geometry": { "type": "Polygon", "coordinates": [ [ [ 14.445775, 40.802673 ], [ 14.445756, 40.804925 ], [ 14.442793, 40.804911 ], [ 14.442812, 40.802659 ], [ 14.445775, 40.802673 ] ] ] } },
{ "type": "Feature", "properties": { "row": 18068, "col": 1813, "rank": 117, "pixels": 156, "burned_ha": 0.72, "severe_ha": 0.0, "severe_steep_ha": 0.0, "green_ndvi": 0.368, "severe_steep_share": 0.0, "priority": "3: monitor", "x": 453375.0, "y": 4517125.0, "lon": 14.44725, "lat": 40.80381, "trees_pct": 0.0, "nearest_built_m": 698.56996786291916 }, "geometry": { "type": "Polygon", "coordinates": [ [ [ 14.448739, 40.802687 ], [ 14.44872, 40.804939 ], [ 14.445756, 40.804925 ], [ 14.445775, 40.802673 ], [ 14.448739, 40.802687 ] ] ] } },
{ "type": "Feature", "properties": { "row": 18068, "col": 1814, "rank": 118, "pixels": 144, "burned_ha": 0.04, "severe_ha": 0.0, "severe_steep_ha": 0.0, "green_ndvi": 0.466, "severe_steep_share": 0.0, "priority": "3: monitor", "x": 453625.0, "y": 4517125.0, "lon": 14.45021, "lat": 40.80382, "trees_pct": 0.0, "nearest_built_m": 794.04030124421274 }, "geometry": { "type": "Polygon", "coordinates": [ [ [ 14.451702, 40.802701 ], [ 14.451684, 40.804953 ], [ 14.44872, 40.804939 ], [ 14.448739, 40.802687 ], [ 14.451702, 40.802701 ] ] ] } },
{ "type": "Feature", "properties": { "row": 18068, "col": 1815, "rank": 119, "pixels": 156, "burned_ha": 0.44, "severe_ha": 0.12, "severe_steep_ha": 0.0, "green_ndvi": 0.266, "severe_steep_share": 0.0, "priority": "3: monitor", "x": 453875.0, "y": 4517125.0, "lon": 14.45318, "lat": 40.80383, "trees_pct": 4.0, "nearest_built_m": 729.93150363578638 }, "geometry": { "type": "Polygon", "coordinates": [ [ [ 14.454666, 40.802715 ], [ 14.454648, 40.804967 ], [ 14.451684, 40.804953 ], [ 14.451702, 40.802701 ], [ 14.454666, 40.802715 ] ] ] } },
{ "type": "Feature", "properties": { "row": 18068, "col": 1816, "rank": 120, "pixels": 144, "burned_ha": 0.96, "severe_ha": 0.2, "severe_steep_ha": 0.0, "green_ndvi": 0.46200001, "severe_steep_share": 0.0, "priority": "3: monitor", "x": 454125.0, "y": 4517125.0, "lon": 14.45614, "lat": 40.80385, "trees_pct": 42.0, "nearest_built_m": 485.07731342539614 }, "geometry": { "type": "Polygon", "coordinates": [ [ [ 14.45763, 40.802729 ], [ 14.457611, 40.804981 ], [ 14.454648, 40.804967 ], [ 14.454666, 40.802715 ], [ 14.45763, 40.802729 ] ] ] } },
{ "type": "Feature", "properties": { "row": 18068, "col": 1817, "rank": 121, "pixels": 156, "burned_ha": 4.76, "severe_ha": 2.84, "severe_steep_ha": 0.0, "green_ndvi": 0.304, "severe_steep_share": 0.0, "priority": "3: monitor", "x": 454375.0, "y": 4517125.0, "lon": 14.4591, "lat": 40.80386, "trees_pct": 37.0, "nearest_built_m": 243.31050121192877 }, "geometry": { "type": "Polygon", "coordinates": [ [ [ 14.460593, 40.802743 ], [ 14.460575, 40.804995 ], [ 14.457611, 40.804981 ], [ 14.45763, 40.802729 ], [ 14.460593, 40.802743 ] ] ] } },
{ "type": "Feature", "properties": { "row": 18068, "col": 1818, "rank": 122, "pixels": 144, "burned_ha": 5.48, "severe_ha": 3.6, "severe_steep_ha": 0.0, "green_ndvi": 0.204, "severe_steep_share": 0.0, "priority": "3: monitor", "x": 454625.0, "y": 4517125.0, "lon": 14.46207, "lat": 40.80388, "trees_pct": 42.0, "nearest_built_m": 0.0 }, "geometry": { "type": "Polygon", "coordinates": [ [ [ 14.463557, 40.802757 ], [ 14.463539, 40.805009 ], [ 14.460575, 40.804995 ], [ 14.460593, 40.802743 ], [ 14.463557, 40.802757 ] ] ] } },
{ "type": "Feature", "properties": { "row": 18068, "col": 1819, "rank": 123, "pixels": 156, "burned_ha": 5.48, "severe_ha": 3.84, "severe_steep_ha": 0.0, "green_ndvi": 0.266, "severe_steep_share": 0.0, "priority": "3: monitor", "x": 454875.0, "y": 4517125.0, "lon": 14.46503, "lat": 40.80389, "trees_pct": 43.0, "nearest_built_m": 0.0 }, "geometry": { "type": "Polygon", "coordinates": [ [ [ 14.466521, 40.802771 ], [ 14.466503, 40.805023 ], [ 14.463539, 40.805009 ], [ 14.463557, 40.802757 ], [ 14.466521, 40.802771 ] ] ] } },
{ "type": "Feature", "properties": { "row": 18068, "col": 1820, "rank": 124, "pixels": 144, "burned_ha": 1.36, "severe_ha": 0.44, "severe_steep_ha": 0.0, "green_ndvi": 0.524, "severe_steep_share": 0.0, "priority": "3: monitor", "x": 455125.0, "y": 4517125.0, "lon": 14.46799, "lat": 40.8039, "trees_pct": 74.0, "nearest_built_m": 10.0 }, "geometry": { "type": "Polygon", "coordinates": [ [ [ 14.469484, 40.802784 ], [ 14.469466, 40.805036 ], [ 14.466503, 40.805023 ], [ 14.466521, 40.802771 ], [ 14.469484, 40.802784 ] ] ] } },
{ "type": "Feature", "properties": { "row": 18068, "col": 1821, "rank": 125, "pixels": 156, "burned_ha": 3.32, "severe_ha": 1.72, "severe_steep_ha": 0.0, "green_ndvi": 0.46, "severe_steep_share": 0.0, "priority": "3: monitor", "x": 455375.0, "y": 4517125.0, "lon": 14.47096, "lat": 40.80392, "trees_pct": 1.0, "nearest_built_m": 0.0 }, "geometry": { "type": "Polygon", "coordinates": [ [ [ 14.472448, 40.802798 ], [ 14.47243, 40.80505 ], [ 14.469466, 40.805036 ], [ 14.469484, 40.802784 ], [ 14.472448, 40.802798 ] ] ] } },
{ "type": "Feature", "properties": { "row": 18068, "col": 1822, "rank": 126, "pixels": 144, "burned_ha": 2.04, "severe_ha": 0.64, "severe_steep_ha": 0.0, "green_ndvi": 0.37900001, "severe_steep_share": 0.0, "priority": "3: monitor", "x": 455625.0, "y": 4517125.0, "lon": 14.47392, "lat": 40.80393, "trees_pct": 19.0, "nearest_built_m": 0.0 }, "geometry": { "type": "Polygon", "coordinates": [ [ [ 14.475412, 40.802811 ], [ 14.475394, 40.805063 ], [ 14.47243, 40.80505 ], [ 14.472448, 40.802798 ], [ 14.475412, 40.802811 ] ] ] } },
{ "type": "Feature", "properties": { "row": 18069, "col": 1807, "rank": 127, "pixels": 169, "burned_ha": 1.88, "severe_ha": 1.2, "severe_steep_ha": 0.0, "green_ndvi": 0.376, "severe_steep_share": 0.0, "priority": "3: monitor", "x": 451875.0, "y": 4517375.0, "lon": 14.42945, "lat": 40.80597, "trees_pct": 98.0, "nearest_built_m": 1083.7435120913067 }, "geometry": { "type": "Polygon", "coordinates": [ [ [ 14.430938, 40.804853 ], [ 14.430919, 40.807105 ], [ 14.427955, 40.80709 ], [ 14.427974, 40.804838 ], [ 14.430938, 40.804853 ] ] ] } },
{ "type": "Feature", "properties": { "row": 18069, "col": 1813, "rank": 128, "pixels": 169, "burned_ha": 4.56, "severe_ha": 1.64, "severe_steep_ha": 0.0, "green_ndvi": 0.34200001, "severe_steep_share": 0.0, "priority": "3: monitor", "x": 453375.0, "y": 4517375.0, "lon": 14.44723, "lat": 40.80606, "trees_pct": 58.0, "nearest_built_m": 923.09262807152777 }, "geometry": { "type": "Polygon", "coordinates": [ [ [ 14.44872, 40.804939 ], [ 14.448702, 40.807191 ], [ 14.445738, 40.807177 ], [ 14.445756, 40.804925 ], [ 14.44872, 40.804939 ] ] ] } },
{ "type": "Feature", "properties": { "row": 18069, "col": 1814, "rank": 129, "pixels": 156, "burned_ha": 3.84, "severe_ha": 0.88, "severe_steep_ha": 0.0, "green_ndvi": 0.265, "severe_steep_share": 0.0, "priority": "3: monitor", "x": 453625.0, "y": 4517375.0, "lon": 14.45019, "lat": 40.80607, "trees_pct": 12.0, "nearest_built_m": 1016.366075781753 }, "geometry": { "type": "Polygon", "coordinates": [ [ [ 14.451684, 40.804953 ], [ 14.451665, 40.807205 ], [ 14.448702, 40.807191 ], [ 14.44872, 40.804939 ], [ 14.451684, 40.804953 ] ] ] } },
{ "type": "Feature", "properties": { "row": 18069, "col": 1815, "rank": 130, "pixels": 169, "burned_ha": 4.52, "severe_ha": 1.16, "severe_steep_ha": 0.0, "green_ndvi": 0.294, "severe_steep_share": 0.0, "priority": "3: monitor", "x": 453875.0, "y": 4517375.0, "lon": 14.45316, "lat": 40.80609, "trees_pct": 36.0, "nearest_built_m": 790.56941504209487 }, "geometry": { "type": "Polygon", "coordinates": [ [ [ 14.454648, 40.804967 ], [ 14.454629, 40.807219 ], [ 14.451665, 40.807205 ], [ 14.451684, 40.804953 ], [ 14.454648, 40.804967 ] ] ] } },
{ "type": "Feature", "properties": { "row": 18069, "col": 1816, "rank": 131, "pixels": 156, "burned_ha": 2.48, "severe_ha": 0.8, "severe_steep_ha": 0.0, "green_ndvi": 0.35, "severe_steep_share": 0.0, "priority": "3: monitor", "x": 454125.0, "y": 4517375.0, "lon": 14.45612, "lat": 40.8061, "trees_pct": 94.0, "nearest_built_m": 559.01699437494744 }, "geometry": { "type": "Polygon", "coordinates": [ [ [ 14.457611, 40.804981 ], [ 14.457593, 40.807233 ], [ 14.454629, 40.807219 ], [ 14.454648, 40.804967 ], [ 14.457611, 40.804981 ] ] ] } },
{ "type": "Feature", "properties": { "row": 18069, "col": 1817, "rank": 132, "pixels": 169, "burned_ha": 4.84, "severe_ha": 0.52, "severe_steep_ha": 0.0, "green_ndvi": 0.267, "severe_steep_share": 0.0, "priority": "3: monitor", "x": 454375.0, "y": 4517375.0, "lon": 14.45908, "lat": 40.80611, "trees_pct": 58.0, "nearest_built_m": 353.55339059327378 }, "geometry": { "type": "Polygon", "coordinates": [ [ [ 14.460575, 40.804995 ], [ 14.460557, 40.807247 ], [ 14.457593, 40.807233 ], [ 14.457611, 40.804981 ], [ 14.460575, 40.804995 ] ] ] } },
{ "type": "Feature", "properties": { "row": 18069, "col": 1818, "rank": 133, "pixels": 156, "burned_ha": 4.84, "severe_ha": 0.2, "severe_steep_ha": 0.0, "green_ndvi": 0.193, "severe_steep_share": 0.0, "priority": "3: monitor", "x": 454625.0, "y": 4517375.0, "lon": 14.46205, "lat": 40.80613, "trees_pct": 0.0, "nearest_built_m": 156.20499351813308 }, "geometry": { "type": "Polygon", "coordinates": [ [ [ 14.463539, 40.805009 ], [ 14.463521, 40.807261 ], [ 14.460557, 40.807247 ], [ 14.460575, 40.804995 ], [ 14.463539, 40.805009 ] ] ] } },
{ "type": "Feature", "properties": { "row": 18069, "col": 1821, "rank": 134, "pixels": 169, "burned_ha": 6.76, "severe_ha": 6.4, "severe_steep_ha": 0.0, "green_ndvi": 0.223, "severe_steep_share": 0.0, "priority": "3: monitor", "x": 455375.0, "y": 4517375.0, "lon": 14.47094, "lat": 40.80617, "trees_pct": 8.0, "nearest_built_m": 60.0 }, "geometry": { "type": "Polygon", "coordinates": [ [ [ 14.47243, 40.80505 ], [ 14.472412, 40.807302 ], [ 14.469448, 40.807288 ], [ 14.469466, 40.805036 ], [ 14.47243, 40.80505 ] ] ] } },
{ "type": "Feature", "properties": { "row": 18069, "col": 1822, "rank": 135, "pixels": 156, "burned_ha": 3.52, "severe_ha": 2.28, "severe_steep_ha": 0.0, "green_ndvi": 0.247, "severe_steep_share": 0.0, "priority": "3: monitor", "x": 455625.0, "y": 4517375.0, "lon": 14.4739, "lat": 40.80618, "trees_pct": 1.0, "nearest_built_m": 0.0 }, "geometry": { "type": "Polygon", "coordinates": [ [ [ 14.475394, 40.805063 ], [ 14.475376, 40.807315 ], [ 14.472412, 40.807302 ], [ 14.47243, 40.80505 ], [ 14.475394, 40.805063 ] ] ] } },
{ "type": "Feature", "properties": { "row": 18070, "col": 1808, "rank": 136, "pixels": 144, "burned_ha": 3.32, "severe_ha": 1.32, "severe_steep_ha": 0.0, "green_ndvi": 0.28, "severe_steep_share": 0.0, "priority": "3: monitor", "x": 452125.0, "y": 4517625.0, "lon": 14.43239, "lat": 40.80824, "trees_pct": 14.0, "nearest_built_m": 1159.5257651298655 }, "geometry": { "type": "Polygon", "coordinates": [ [ [ 14.433882, 40.807119 ], [ 14.433863, 40.809371 ], [ 14.430899, 40.809357 ], [ 14.430919, 40.807105 ], [ 14.433882, 40.807119 ] ] ] } },
{ "type": "Feature", "properties": { "row": 18070, "col": 1814, "rank": 137, "pixels": 144, "burned_ha": 4.36, "severe_ha": 1.2, "severe_steep_ha": 0.0, "green_ndvi": 0.262, "severe_steep_share": 0.0, "priority": "3: monitor", "x": 453625.0, "y": 4517625.0, "lon": 14.45017, "lat": 40.80832, "trees_pct": 0.0, "nearest_built_m": 1118.0339887498949 }, "geometry": { "type": "Polygon", "coordinates": [ [ [ 14.451665, 40.807205 ], [ 14.451647, 40.809457 ], [ 14.448683, 40.809443 ], [ 14.448702, 40.807191 ], [ 14.451665, 40.807205 ] ] ] } },
{ "type": "Feature", "properties": { "row": 18070, "col": 1821, "rank": 138, "pixels": 156, "burned_ha": 5.0, "severe_ha": 2.16, "severe_steep_ha": 0.0, "green_ndvi": 0.52, "severe_steep_share": 0.0, "priority": "3: monitor", "x": 455375.0, "y": 4517625.0, "lon": 14.47092, "lat": 40.80842, "trees_pct": 77.0, "nearest_built_m": 0.0 }, "geometry": { "type": "Polygon", "coordinates": [ [ [ 14.472412, 40.807302 ], [ 14.472394, 40.809554 ], [ 14.469431, 40.80954 ], [ 14.469448, 40.807288 ], [ 14.472412, 40.807302 ] ] ] } },
{ "type": "Feature", "properties": { "row": 18070, "col": 1822, "rank": 139, "pixels": 144, "burned_ha": 1.08, "severe_ha": 0.72, "severe_steep_ha": 0.0, "green_ndvi": 0.41, "severe_steep_share": 0.0, "priority": "3: monitor", "x": 455625.0, "y": 4517625.0, "lon": 14.47389, "lat": 40.80843, "trees_pct": 20.0, "nearest_built_m": 0.0 }, "geometry": { "type": "Polygon", "coordinates": [ [ [ 14.475376, 40.807315 ], [ 14.475358, 40.809567 ], [ 14.472394, 40.809554 ], [ 14.472412, 40.807302 ], [ 14.475376, 40.807315 ] ] ] } },
{ "type": "Feature", "properties": { "row": 18071, "col": 1810, "rank": 140, "pixels": 156, "burned_ha": 6.24, "severe_ha": 6.24, "severe_steep_ha": 0.0, "green_ndvi": 0.13600001, "severe_steep_share": 0.0, "priority": "3: monitor", "x": 452625.0, "y": 4517875.0, "lon": 14.4383, "lat": 40.81052, "trees_pct": 34.0, "nearest_built_m": 1310.0 }, "geometry": { "type": "Polygon", "coordinates": [ [ [ 14.439791, 40.8094 ], [ 14.439772, 40.811652 ], [ 14.436808, 40.811638 ], [ 14.436827, 40.809386 ], [ 14.439791, 40.8094 ] ] ] } },
{ "type": "Feature", "properties": { "row": 18071, "col": 1818, "rank": 141, "pixels": 156, "burned_ha": 6.24, "severe_ha": 5.6, "severe_steep_ha": 0.0, "green_ndvi": 0.37900001, "severe_steep_share": 0.0, "priority": "3: monitor", "x": 454625.0, "y": 4517875.0, "lon": 14.46201, "lat": 40.81063, "trees_pct": 100.0, "nearest_built_m": 460.10868281309365 }, "geometry": { "type": "Polygon", "coordinates": [ [ [ 14.463503, 40.809513 ], [ 14.463484, 40.811765 ], [ 14.46052, 40.811751 ], [ 14.460539, 40.809499 ], [ 14.463503, 40.809513 ] ] ] } },
{ "type": "Feature", "properties": { "row": 18071, "col": 1819, "rank": 142, "pixels": 169, "burned_ha": 6.48, "severe_ha": 4.88, "severe_steep_ha": 0.0, "green_ndvi": 0.45100001, "severe_steep_share": 0.0, "priority": "3: monitor", "x": 454875.0, "y": 4517875.0, "lon": 14.46498, "lat": 40.81065, "trees_pct": 45.0, "nearest_built_m": 210.2379604162864 }, "geometry": { "type": "Polygon", "coordinates": [ [ [ 14.466467, 40.809527 ], [ 14.466449, 40.811779 ], [ 14.463484, 40.811765 ], [ 14.463503, 40.809513 ], [ 14.466467, 40.809527 ] ] ] } },
{ "type": "Feature", "properties": { "row": 18071, "col": 1821, "rank": 143, "pixels": 169, "burned_ha": 3.0, "severe_ha": 0.56, "severe_steep_ha": 0.0, "green_ndvi": 0.59, "severe_steep_share": 0.0, "priority": "3: monitor", "x": 455375.0, "y": 4517875.0, "lon": 14.4709, "lat": 40.81067, "trees_pct": 78.0, "nearest_built_m": 0.0 }, "geometry": { "type": "Polygon", "coordinates": [ [ [ 14.472394, 40.809554 ], [ 14.472377, 40.811806 ], [ 14.469413, 40.811792 ], [ 14.469431, 40.80954 ], [ 14.472394, 40.809554 ] ] ] } },
{ "type": "Feature", "properties": { "row": 18072, "col": 1808, "rank": 144, "pixels": 144, "burned_ha": 2.64, "severe_ha": 0.2, "severe_steep_ha": 0.0, "green_ndvi": 0.65200001, "severe_steep_share": 0.0, "priority": "3: monitor", "x": 452125.0, "y": 4518125.0, "lon": 14.43235, "lat": 40.81274, "trees_pct": 79.0, "nearest_built_m": 1629.2636373527766 }, "geometry": { "type": "Polygon", "coordinates": [ [ [ 14.433844, 40.811623 ], [ 14.433825, 40.813875 ], [ 14.430861, 40.813861 ], [ 14.43088, 40.811609 ], [ 14.433844, 40.811623 ] ] ] } },
{ "type": "Feature", "properties": { "row": 18072, "col": 1810, "rank": 145, "pixels": 144, "burned_ha": 5.76, "severe_ha": 5.24, "severe_steep_ha": 0.0, "green_ndvi": 0.3, "severe_steep_share": 0.0, "priority": "3: monitor", "x": 452625.0, "y": 4518125.0, "lon": 14.43828, "lat": 40.81277, "trees_pct": 32.0, "nearest_built_m": 1560.0 }, "geometry": { "type": "Polygon", "coordinates": [ [ [ 14.439772, 40.811652 ], [ 14.439753, 40.813904 ], [ 14.436789, 40.81389 ], [ 14.436808, 40.811638 ], [ 14.439772, 40.811652 ] ] ] } },
{ "type": "Feature", "properties": { "row": 18072, "col": 1811, "rank": 146, "pixels": 156, "burned_ha": 6.24, "severe_ha": 6.08, "severe_steep_ha": 0.0, "green_ndvi": 0.171, "severe_steep_share": 0.0, "priority": "3: monitor", "x": 452875.0, "y": 4518125.0, "lon": 14.44124, "lat": 40.81279, "trees_pct": 0.0, "nearest_built_m": 1560.288434873501 }, "geometry": { "type": "Polygon", "coordinates": [ [ [ 14.442736, 40.811667 ], [ 14.442717, 40.813919 ], [ 14.439753, 40.813904 ], [ 14.439772, 40.811652 ], [ 14.442736, 40.811667 ] ] ] } },
{ "type": "Feature", "properties": { "row": 18072, "col": 1819, "rank": 147, "pixels": 156, "burned_ha": 6.04, "severe_ha": 3.84, "severe_steep_ha": 0.0, "green_ndvi": 0.38100001, "severe_steep_share": 0.0, "priority": "3: monitor", "x": 454875.0, "y": 4518125.0, "lon": 14.46496, "lat": 40.8129, "trees_pct": 58.0, "nearest_built_m": 333.01651610693426 }, "geometry": { "type": "Polygon", "coordinates": [ [ [ 14.466449, 40.811779 ], [ 14.46643, 40.814031 ], [ 14.463466, 40.814017 ], [ 14.463484, 40.811765 ], [ 14.466449, 40.811779 ] ] ] } },
{ "type": "Feature", "properties": { "row": 18072, "col": 1820, "rank": 148, "pixels": 144, "burned_ha": 0.72, "severe_ha": 0.24, "severe_steep_ha": 0.0, "green_ndvi": 0.51300001, "severe_steep_share": 0.0, "priority": "3: monitor", "x": 455125.0, "y": 4518125.0, "lon": 14.46792, "lat": 40.81291, "trees_pct": 74.0, "nearest_built_m": 136.01470508735443 }, "geometry": { "type": "Polygon", "coordinates": [ [ [ 14.469413, 40.811792 ], [ 14.469395, 40.814044 ], [ 14.46643, 40.814031 ], [ 14.466449, 40.811779 ], [ 14.469413, 40.811792 ] ] ] } },
{ "type": "Feature", "properties": { "row": 18073, "col": 1810, "rank": 149, "pixels": 156, "burned_ha": 6.24, "severe_ha": 6.04, "severe_steep_ha": 0.0, "green_ndvi": 0.29, "severe_steep_share": 0.0, "priority": "3: monitor", "x": 452625.0, "y": 4518375.0, "lon": 14.43826, "lat": 40.81502, "trees_pct": 31.0, "nearest_built_m": 1810.0 }, "geometry": { "type": "Polygon", "coordinates": [ [ [ 14.439753, 40.813904 ], [ 14.439734, 40.816156 ], [ 14.43677, 40.816142 ], [ 14.436789, 40.81389 ], [ 14.439753, 40.813904 ] ] ] } },
{ "type": "Feature", "properties": { "row": 18073, "col": 1811, "rank": 150, "pixels": 169, "burned_ha": 6.76, "severe_ha": 6.76, "severe_steep_ha": 0.0, "green_ndvi": 0.221, "severe_steep_share": 0.0, "priority": "3: monitor", "x": 452875.0, "y": 4518375.0, "lon": 14.44123, "lat": 40.81504, "trees_pct": 0.0, "nearest_built_m": 1810.2486017119306 }, "geometry": { "type": "Polygon", "coordinates": [ [ [ 14.442717, 40.813919 ], [ 14.442698, 40.816171 ], [ 14.439734, 40.816156 ], [ 14.439753, 40.813904 ], [ 14.442717, 40.813919 ] ] ] } },
{ "type": "Feature", "properties": { "row": 18074, "col": 1812, "rank": 151, "pixels": 144, "burned_ha": 5.76, "severe_ha": 5.76, "severe_steep_ha": 0.0, "green_ndvi": 0.23100001, "severe_steep_share": 0.0, "priority": "3: monitor", "x": 453125.0, "y": 4518625.0, "lon": 14.44417, "lat": 40.8173, "trees_pct": 0.0, "nearest_built_m": 1824.9657531033288 }, "geometry": { "type": "Polygon", "coordinates": [ [ [ 14.445663, 40.816185 ], [ 14.445644, 40.818437 ], [ 14.44268, 40.818423 ], [ 14.442698, 40.816171 ], [ 14.445663, 40.816185 ] ] ] } },
{ "type": "Feature", "properties": { "row": 18074, "col": 1820, "rank": 152, "pixels": 144, "burned_ha": 0.84, "severe_ha": 0.0, "severe_steep_ha": 0.0, "green_ndvi": 0.56699997, "severe_steep_share": 0.0, "priority": "3: monitor", "x": 455125.0, "y": 4518625.0, "lon": 14.46789, "lat": 40.81742, "trees_pct": 73.0, "nearest_built_m": 212.13203435596427 }, "geometry": { "type": "Polygon", "coordinates": [ [ [ 14.469377, 40.816296 ], [ 14.469359, 40.818549 ], [ 14.466394, 40.818535 ], [ 14.466412, 40.816283 ], [ 14.469377, 40.816296 ] ] ] } },
{ "type": "Feature", "properties": { "row": 18076, "col": 1807, "rank": 153, "pixels": 156, "burned_ha": 0.12, "severe_ha": 0.0, "severe_steep_ha": 0.0, "green_ndvi": 0.301, "severe_steep_share": 0.0, "priority": "3: monitor", "x": 451875.0, "y": 4519125.0, "lon": 14.42931, "lat": 40.82174, "trees_pct": 0.0, "nearest_built_m": 1020.0 }, "geometry": { "type": "Polygon", "coordinates": [ [ [ 14.430803, 40.820617 ], [ 14.430784, 40.822869 ], [ 14.427819, 40.822854 ], [ 14.427839, 40.820602 ], [ 14.430803, 40.820617 ] ] ] } },
{ "type": "Feature", "properties": { "row": 18078, "col": 1810, "rank": 154, "pixels": 144, "burned_ha": 5.76, "severe_ha": 5.76, "severe_steep_ha": 0.0, "green_ndvi": 0.273, "severe_steep_share": 0.0, "priority": "3: monitor", "x": 452625.0, "y": 4519625.0, "lon": 14.43817, "lat": 40.82628, "trees_pct": 0.0, "nearest_built_m": 728.35430938520574 }, "geometry": { "type": "Polygon", "coordinates": [ [ [ 14.439658, 40.825164 ], [ 14.439639, 40.827416 ], [ 14.436675, 40.827402 ], [ 14.436694, 40.82515 ], [ 14.439658, 40.825164 ] ] ] } },
{ "type": "Feature", "properties": { "row": 18078, "col": 1811, "rank": 155, "pixels": 156, "burned_ha": 6.24, "severe_ha": 6.12, "severe_steep_ha": 0.0, "green_ndvi": 0.212, "severe_steep_share": 0.0, "priority": "3: monitor", "x": 452875.0, "y": 4519625.0, "lon": 14.44113, "lat": 40.8263, "trees_pct": 0.0, "nearest_built_m": 920.86915465770699 }, "geometry": { "type": "Polygon", "coordinates": [ [ [ 14.442623, 40.825179 ], [ 14.442604, 40.827431 ], [ 14.439639, 40.827416 ], [ 14.439658, 40.825164 ], [ 14.442623, 40.825179 ] ] ] } },
{ "type": "Feature", "properties": { "row": 18078, "col": 1817, "rank": 156, "pixels": 156, "burned_ha": 1.24, "severe_ha": 0.08, "severe_steep_ha": 0.0, "green_ndvi": 0.68900001, "severe_steep_share": 0.0, "priority": "3: monitor", "x": 454375.0, "y": 4519625.0, "lon": 14.45892, "lat": 40.82638, "trees_pct": 100.0, "nearest_built_m": 490.0 }, "geometry": { "type": "Polygon", "coordinates": [ [ [ 14.460411, 40.825263 ], [ 14.460393, 40.827515 ], [ 14.457428, 40.827501 ], [ 14.457446, 40.825249 ], [ 14.460411, 40.825263 ] ] ] } },
{ "type": "Feature", "properties": { "row": 18079, "col": 1810, "rank": 157, "pixels": 156, "burned_ha": 6.24, "severe_ha": 5.8, "severe_steep_ha": 0.0, "green_ndvi": 0.32, "severe_steep_share": 0.0, "priority": "3: monitor", "x": 452625.0, "y": 4519875.0, "lon": 14.43815, "lat": 40.82854, "trees_pct": 27.0, "nearest_built_m": 577.06152185014037 }, "geometry": { "type": "Polygon", "coordinates": [ [ [ 14.439639, 40.827416 ], [ 14.439621, 40.829668 ], [ 14.436656, 40.829654 ], [ 14.436675, 40.827402 ], [ 14.439639, 40.827416 ] ] ] } },
{ "type": "Feature", "properties": { "row": 18080, "col": 1809, "rank": 158, "pixels": 156, "burned_ha": 0.84, "severe_ha": 0.12, "severe_steep_ha": 0.0, "green_ndvi": 0.76300001, "severe_steep_share": 0.0, "priority": "3: monitor", "x": 452375.0, "y": 4520125.0, "lon": 14.43516, "lat": 40.83077, "trees_pct": 100.0, "nearest_built_m": 260.76809620810599 }, "geometry": { "type": "Polygon", "coordinates": [ [ [ 14.436656, 40.829654 ], [ 14.436637, 40.831906 ], [ 14.433672, 40.831892 ], [ 14.433691, 40.82964 ], [ 14.436656, 40.829654 ] ] ] } },
{ "type": "Feature", "properties": { "row": 18080, "col": 1810, "rank": 159, "pixels": 144, "burned_ha": 1.48, "severe_ha": 0.76, "severe_steep_ha": 0.0, "green_ndvi": 0.69300002, "severe_steep_share": 0.0, "priority": "3: monitor", "x": 452625.0, "y": 4520125.0, "lon": 14.43813, "lat": 40.83079, "trees_pct": 100.0, "nearest_built_m": 510.39200620699381 }, "geometry": { "type": "Polygon", "coordinates": [ [ [ 14.439621, 40.829668 ], [ 14.439602, 40.83192 ], [ 14.436637, 40.831906 ], [ 14.436656, 40.829654 ], [ 14.439621, 40.829668 ] ] ] } }
]
}
