{"type": "FeatureCollection", "name": "modis.ba.poly", "features": [{"type": "Feature", "properties": {"id": "9856", "FIREDATE": "2016-07-20 00:00:00", "FINALDATE": "2016-07-22 00:00:00", "LASTUPDATE": "2022-01-26 11:57:54.973474", "COUNTRY": "IT", "PROVINCE": "Napoli", "COMMUNE": "Terzigno", "AREA_HA": "243", "BROADLEA": "0", "CONIFER": "0", "MIXED": "4.564315352695202", "SCLEROPH": "0", "TRANSIT": "0", "OTHERNATLC": "85.47717842320105", "AGRIAREAS": "9.958506224062258", "ARTIFSURF": "0", "OTHERLC": "0", "PERCNA2K": "47.73884848633898", "CLASS": "FireSeason"}, "geometry": {"type": "Polygon", "coordinates": [[[14.4589857, 40.8063694], [14.4598972, 40.8066998], [14.4607571, 40.8071294], [14.4615763, 40.8076321], [14.4623616, 40.8081878], [14.4631163, 40.808781], [14.4638398, 40.8094001], [14.4645273, 40.810036], [14.4651696, 40.8106818], [14.4657517, 40.8113319], [14.4662522, 40.8119815], [14.4666415, 40.8126261], [14.4668798, 40.8132614], [14.466915, 40.8138824], [14.466698, 40.8144981], [14.4662709, 40.815098], [14.4656894, 40.815686], [14.4649965, 40.8162648], [14.4642242, 40.8168362], [14.4633969, 40.8174007], [14.4625322, 40.8179576], [14.4616432, 40.8185048], [14.4607396, 40.8190382], [14.4598285, 40.8195519], [14.4589153, 40.8200368], [14.4580044, 40.8204803], [14.4570998, 40.8208649], [14.4562052, 40.8211672], [14.4553252, 40.8213558], [14.4544649, 40.82139], [14.45364, 40.8212403], [14.4528337, 40.8209402], [14.4520404, 40.8205299], [14.4512557, 40.8200402], [14.4504764, 40.8194948], [14.4489251, 40.8183056], [14.4458974, 40.8158671], [14.4452123, 40.8152907], [14.4445795, 40.8147056], [14.4440281, 40.814102], [14.4435935, 40.8134689], [14.4433048, 40.8127972], [14.4431473, 40.8120992], [14.4431003, 40.8113897], [14.443152, 40.8106833], [14.4432987, 40.809995], [14.4435448, 40.8093417], [14.4439031, 40.8087429], [14.444395, 40.8082219], [14.4451027, 40.8077631], [14.4459544, 40.8073985], [14.4469101, 40.8071037], [14.4479397, 40.8068604], [14.4490202, 40.8066555], [14.4501343, 40.8064806], [14.4512689, 40.8063308], [14.4524134, 40.8062049], [14.4535591, 40.8061052], [14.4546976, 40.8060376], [14.4558204, 40.8060122], [14.4569178, 40.806044], [14.457978, 40.8061537], [14.4589857, 40.8063694]]]}}, {"type": "Feature", "properties": {"id": "12887", "FIREDATE": "2017-07-11 00:00:00", "FINALDATE": "2017-07-16 00:00:00", "LASTUPDATE": "2022-01-26 11:57:54.973474", "COUNTRY": "IT", "PROVINCE": "Napoli", "COMMUNE": "Ercolano", "AREA_HA": "1136", "BROADLEA": "42.27714033538903", "CONIFER": "0", "MIXED": "9.532215357457234", "SCLEROPH": "0", "TRANSIT": "0", "OTHERNATLC": "48.19064430714491", "AGRIAREAS": "0", "ARTIFSURF": "0", "OTHERLC": "0", "PERCNA2K": "99.99999999999999", "CLASS": "FireSeason"}, "geometry": {"type": "Polygon", "coordinates": [[[14.4071211, 40.8313115], [14.406971, 40.8311859], [14.4068264, 40.8310591], [14.4066876, 40.8309314], [14.4065547, 40.830803], [14.4064279, 40.8306741], [14.4063073, 40.8305448], [14.4061932, 40.8304151], [14.4060855, 40.8302853], [14.405886, 40.8300353], [14.4057469, 40.829853], [14.4056847, 40.8297673], [14.4056279, 40.8296856], [14.4055758, 40.8296071], [14.405528, 40.8295311], [14.4054827, 40.8294545], [14.4054417, 40.82938], [14.4054047, 40.8293072], [14.4053718, 40.8292359], [14.4053427, 40.8291661], [14.4053175, 40.8290975], [14.4052961, 40.8290302], [14.4052786, 40.828964], [14.4052608, 40.8288767], [14.4052481, 40.8287865], [14.4052407, 40.8286932], [14.4052384, 40.8285969], [14.4052413, 40.8284976], [14.4052494, 40.828395], [14.4052627, 40.8282891], [14.4052812, 40.8281797], [14.4053047, 40.828068], [14.4053333, 40.8279525], [14.4053671, 40.8278329], [14.4054064, 40.8277085], [14.4054509, 40.8275797], [14.4055015, 40.8274442], [14.4055586, 40.8273004], [14.4056246, 40.8271427], [14.4056597, 40.8270633], [14.4056971, 40.8269836], [14.405737, 40.8269038], [14.4057792, 40.8268237], [14.4058237, 40.8267435], [14.4058706, 40.8266632], [14.4059197, 40.8265828], [14.4059712, 40.8265024], [14.4060249, 40.826422], [14.4060808, 40.8263416], [14.4061389, 40.8262613], [14.4061992, 40.8261812], [14.4063261, 40.8260215], [14.4064611, 40.825863], [14.4066044, 40.8257058], [14.406755, 40.8255505], [14.4069126, 40.8253979], [14.4070766, 40.8252483], [14.4072466, 40.8251022], [14.4074218, 40.8249602], [14.4076015, 40.8248229], [14.4077852, 40.8246907], [14.4079039, 40.8246091], [14.408023, 40.8245299], [14.4081424, 40.8244531], [14.4082619, 40.8243788], [14.4083814, 40.8243072], [14.4085007, 40.8242382], [14.4086197, 40.8241719], [14.4087385, 40.8241085], [14.4088567, 40.8240479], [14.4089744, 40.8239902], [14.4090915, 40.8239354], [14.4092081, 40.8238836], [14.4093239, 40.8238346], [14.409439, 40.8237887], [14.4095534, 40.8237457], [14.409667, 40.8237058], [14.409799, 40.823663], [14.4099357, 40.8236229], [14.4100773, 40.8235854], [14.4102238, 40.8235504], [14.4103756, 40.823518], [14.4105328, 40.8234879], [14.4106959, 40.8234603], [14.4108653, 40.8234349], [14.4110374, 40.8234122], [14.4112168, 40.8233916], [14.4114045, 40.8233728], [14.411602, 40.8233558], [14.4118079, 40.8233406], [14.4120295, 40.8233265], [14.4125603, 40.8232995], [14.4126534, 40.8232967], [14.4127511, 40.8232963], [14.4128546, 40.8232984], [14.4129656, 40.8233031], [14.4131779, 40.823317], [14.4137178, 40.8233607], [14.4138717, 40.8233696], [14.414009, 40.8233741], [14.4141609, 40.823374], [14.4143012, 40.8233676], [14.4144325, 40.823355], [14.4144952, 40.8233463], [14.4145561, 40.8233359], [14.4146233, 40.8233222], [14.4146911, 40.823306], [14.4147594, 40.8232871], [14.4148286, 40.8232656], [14.4148988, 40.8232414], [14.4149702, 40.8232144], [14.4150433, 40.8231845], [14.4151184, 40.8231515], [14.4152499, 40.8230889], [14.4153943, 40.8230143], [14.4155351, 40.8229375], [14.415897, 40.8227351], [14.4160031, 40.822678], [14.4160993, 40.8226283], [14.4162079, 40.8225753], [14.4163107, 40.8225286], [14.4164098, 40.8224875], [14.4165061, 40.8224516], [14.4166294, 40.8224097], [14.4167566, 40.8223697], [14.4168879, 40.8223314], [14.4170238, 40.8222948], [14.4171643, 40.8222597], [14.4173103, 40.822226], [14.4174624, 40.8221935], [14.4176217, 40.822162], [14.4179003, 40.8221122], [14.4182132, 40.8220621], [14.4185187, 40.8220174], [14.4192841, 40.8219099], [14.4194991, 40.8218779], [14.4196919, 40.8218475], [14.4199019, 40.8218118], [14.4200974, 40.8217757], [14.420282, 40.8217385], [14.4204573, 40.8216998], [14.4206416, 40.821656], [14.4208288, 40.8216092], [14.4210193, 40.8215593], [14.4212137, 40.8215061], [14.4214122, 40.8214495], [14.4216159, 40.8213893], [14.4218259, 40.8213252], [14.4220436, 40.8212566], [14.4224128, 40.8211363], [14.4228225, 40.8209979], [14.4232133, 40.8208628], [14.4241502, 40.8205352], [14.4246289, 40.8203712], [14.4250914, 40.8202182], [14.4255122, 40.8200858], [14.4257227, 40.8200225], [14.4259273, 40.8199632], [14.4261268, 40.8199075], [14.4263222, 40.8198553], [14.426514, 40.8198063], [14.4267026, 40.8197606], [14.4268885, 40.8197179], [14.4270719, 40.8196782], [14.4275045, 40.8195895], [14.4279192, 40.8195083], [14.4283194, 40.8194341], [14.4287071, 40.8193664], [14.4290847, 40.8193049], [14.4294526, 40.8192494], [14.4298118, 40.8191999], [14.4301631, 40.8191562], [14.4304546, 40.8191239], [14.4307514, 40.8190947], [14.4310537, 40.8190686], [14.431362, 40.8190456], [14.4316764, 40.8190257], [14.4319977, 40.8190088], [14.4323263, 40.8189949], [14.432663, 40.8189839], [14.4330049, 40.818976], [14.4333565, 40.8189709], [14.433719, 40.8189686], [14.4340944, 40.8189692], [14.4344829, 40.8189725], [14.4348899, 40.8189787], [14.4353199, 40.8189878], [14.4357825, 40.8189999], [14.4365619, 40.8190237], [14.4371556, 40.8190463], [14.4376916, 40.8190726], [14.4379416, 40.8190874], [14.4381822, 40.8191034], [14.4384224, 40.8191214], [14.4386551, 40.8191408], [14.4388812, 40.8191619], [14.4391014, 40.8191846], [14.4393163, 40.819209], [14.4395261, 40.8192351], [14.4397313, 40.819263], [14.4399321, 40.8192928], [14.4402399, 40.8193423], [14.4405472, 40.8193957], [14.4408539, 40.8194529], [14.4411596, 40.819514], [14.441464, 40.8195788], [14.4417668, 40.8196472], [14.4420678, 40.8197193], [14.4423666, 40.8197949], [14.442663, 40.819874], [14.4429566, 40.8199565], [14.4432473, 40.8200423], [14.4435348, 40.8201313], [14.4438189, 40.8202236], [14.4440992, 40.8203189], [14.4443757, 40.8204172], [14.4446481, 40.8205185], [14.4449311, 40.820624], [14.4456314, 40.8208794], [14.4459876, 40.8210144], [14.4461864, 40.8210937], [14.4463692, 40.82117], [14.4465394, 40.8212448], [14.4466987, 40.8213189], [14.4468652, 40.8214015], [14.4470207, 40.8214845], [14.4471661, 40.8215682], [14.4473019, 40.821653], [14.4474286, 40.8217392], [14.4475464, 40.8218271], [14.4476556, 40.8219167], [14.4477563, 40.8220082], [14.4478354, 40.8220872], [14.4479126, 40.8221706], [14.4479878, 40.8222584], [14.4480613, 40.8223508], [14.448133, 40.8224479], [14.4482031, 40.82255], [14.448272, 40.8226572], [14.4483397, 40.82277], [14.4484042, 40.8228845], [14.4484682, 40.8230052], [14.4485322, 40.8231329], [14.4485969, 40.823269], [14.4486608, 40.8234101], [14.4487281, 40.8235649], [14.4488959, 40.8239698], [14.4489757, 40.8241687], [14.4490461, 40.8243515], [14.4491093, 40.8245241], [14.4491661, 40.8246885], [14.4492174, 40.8248474], [14.4492631, 40.8250008], [14.4493035, 40.8251494], [14.4493387, 40.8252938], [14.4493691, 40.825436], [14.4493943, 40.8255746], [14.4494144, 40.8257098], [14.4494294, 40.8258419], [14.4494394, 40.825971], [14.4494443, 40.8260973], [14.4494441, 40.8262208], [14.4494389, 40.8263417], [14.4494303, 40.8264316], [14.4494163, 40.8265239], [14.4493966, 40.826619], [14.4493712, 40.8267176], [14.4493401, 40.8268197], [14.4493027, 40.8269273], [14.4492585, 40.827042], [14.4492059, 40.8271682], [14.4502679, 40.8278945], [14.4502902, 40.8295045], [14.4533656, 40.829672], [14.4565387, 40.8280911], [14.460125, 40.8279293], [14.4633367, 40.8291022], [14.4638687, 40.8321935], [14.4612058, 40.8343506], [14.4590358, 40.8368449], [14.4561827, 40.8385313], [14.4528024, 40.8394025], [14.449068, 40.8396906], [14.4454894, 40.8399714], [14.4421089, 40.8408423], [14.4395752, 40.8412119], [14.4370969, 40.8429846], [14.4342598, 40.8449091], [14.4315701, 40.8467072], [14.4278603, 40.8473527], [14.4245128, 40.8487008], [14.4209336, 40.8489807], [14.417346, 40.8491412], [14.4134464, 40.8493154], [14.4095469, 40.8494894], [14.4064744, 40.8480689], [14.4032629, 40.8468941], [14.40138, 40.8445817], [14.4030762, 40.8419901], [14.4064322, 40.8407622], [14.4065518, 40.8380012], [14.4065155, 40.8352471], [14.4076963, 40.8344581], [14.4071211, 40.8313115]]]}}, {"type": "Feature", "properties": {"id": "13242", "FIREDATE": "2017-07-11 00:00:00", "FINALDATE": "2017-07-16 00:00:00", "LASTUPDATE": "2022-01-26 11:57:54.973474", "COUNTRY": "IT", "PROVINCE": "Napoli", "COMMUNE": "Trecase", "AREA_HA": "1919", "BROADLEA": "6.47519582245397", "CONIFER": "10.809399477806224", "MIXED": "11.592689295038559", "SCLEROPH": "0", "TRANSIT": "7.258485639686304", "OTHERNATLC": "51.33159268929236", "AGRIAREAS": "9.451697127936844", "ARTIFSURF": "3.080939947780518", "OTHERLC": "0", "PERCNA2K": "99.34396495323979", "CLASS": "FireSeason"}, "geometry": {"type": "Polygon", "coordinates": [[[14.3936561, 40.799372], [14.394772, 40.7974778], [14.395947, 40.797119], [14.3980849, 40.7983122], [14.3993743, 40.7999292], [14.4007288, 40.8002099], [14.402627, 40.7988766], [14.401692, 40.7962344], [14.3994123, 40.7940355], [14.3968882, 40.7927681], [14.3967485, 40.7921902], [14.3985222, 40.7902409], [14.4019596, 40.7893209], [14.4047001, 40.7873775], [14.4070588, 40.7869452], [14.4071068, 40.7868725], [14.4085651, 40.7851429], [14.4116047, 40.7848559], [14.4132284, 40.7869017], [14.4170116, 40.7887753], [14.4179265, 40.7896216], [14.4197477, 40.7897878], [14.4226181, 40.7870869], [14.4223768, 40.785055], [14.4224414, 40.7831606], [14.4236304, 40.7818212], [14.4270951, 40.7819685], [14.4284536, 40.7830425], [14.4299264, 40.7843383], [14.4310776, 40.7852702], [14.4326966, 40.7872403], [14.4337548, 40.788252], [14.4341296, 40.78937], [14.4347436, 40.7910826], [14.4357088, 40.7921741], [14.4360667, 40.7925291], [14.4400485, 40.7925439], [14.4426767, 40.7943428], [14.4472257, 40.7950008], [14.4517197, 40.7947159], [14.4521633, 40.7945356], [14.4541658, 40.7935374], [14.4568226, 40.7934176], [14.4608678, 40.7933863], [14.4628335, 40.7946593], [14.4650122, 40.7961496], [14.4654069, 40.7963441], [14.468762, 40.7970961], [14.4729213, 40.7993042], [14.4744327, 40.8029742], [14.4737363, 40.8054981], [14.4708724, 40.807449], [14.4665052, 40.809372], [14.4645979, 40.8107044], [14.4631324, 40.8129753], [14.4616398, 40.814864], [14.459537, 40.8169719], [14.4586745, 40.8189279], [14.4582268, 40.8214404], [14.4554256, 40.8225253], [14.4545021, 40.8236213], [14.4535921, 40.8249085], [14.4517481, 40.825375], [14.4494098, 40.8256764], [14.4493961, 40.8255859], [14.4493801, 40.8254939], [14.4493619, 40.8254004], [14.4493413, 40.8253052], [14.4493184, 40.8252083], [14.4492931, 40.8251096], [14.4492353, 40.8249059], [14.4491682, 40.8246946], [14.4490904, 40.8244715], [14.4490009, 40.8242333], [14.4488959, 40.8239698], [14.4487281, 40.8235649], [14.4486608, 40.8234101], [14.4485969, 40.823269], [14.4485322, 40.8231329], [14.4484682, 40.8230052], [14.4484042, 40.8228845], [14.4483397, 40.82277], [14.448272, 40.8226572], [14.4482031, 40.82255], [14.448133, 40.8224479], [14.4480613, 40.8223508], [14.4479878, 40.8222584], [14.4479126, 40.8221706], [14.4478354, 40.8220872], [14.4477563, 40.8220082], [14.4476556, 40.8219167], [14.4475464, 40.8218271], [14.4474286, 40.8217392], [14.4473019, 40.821653], [14.4471661, 40.8215682], [14.4470207, 40.8214845], [14.4468652, 40.8214015], [14.4466987, 40.8213189], [14.4465394, 40.8212448], [14.4463692, 40.82117], [14.4461864, 40.8210937], [14.4459876, 40.8210144], [14.4456314, 40.8208794], [14.4449311, 40.820624], [14.4446481, 40.8205185], [14.4443757, 40.8204172], [14.4440992, 40.8203189], [14.4438189, 40.8202236], [14.4435348, 40.8201313], [14.4432473, 40.8200423], [14.4429566, 40.8199565], [14.442663, 40.819874], [14.4423666, 40.8197949], [14.4420678, 40.8197193], [14.4417668, 40.8196472], [14.441464, 40.8195788], [14.4411596, 40.819514], [14.4408539, 40.8194529], [14.4405472, 40.8193957], [14.4402399, 40.8193423], [14.4399321, 40.8192928], [14.4397313, 40.819263], [14.4395261, 40.8192351], [14.4393163, 40.819209], [14.4391014, 40.8191846], [14.4388812, 40.8191619], [14.4386551, 40.8191408], [14.4384224, 40.8191214], [14.4381822, 40.8191034], [14.4379416, 40.8190874], [14.4376916, 40.8190726], [14.4371556, 40.8190463], [14.4365619, 40.8190237], [14.4357825, 40.8189999], [14.4350405, 40.8189816], [14.4343706, 40.8189713], [14.4340531, 40.818969], [14.4337456, 40.8189686], [14.4334468, 40.81897], [14.4331556, 40.8189734], [14.4343334, 40.8161893], [14.4343841, 40.8151327], [14.4332317, 40.8129797], [14.4311019, 40.8111582], [14.4308252, 40.8109216], [14.4307177, 40.8108817], [14.4306089, 40.8108387], [14.4304986, 40.8107925], [14.4303864, 40.8107431], [14.4302721, 40.8106903], [14.4301552, 40.8106338], [14.430035, 40.8105734], [14.4299106, 40.8105086], [14.4297022, 40.8103955], [14.4294714, 40.8102649], [14.4292536, 40.8101383], [14.4287472, 40.80984], [14.4285014, 40.8096981], [14.4282806, 40.8095748], [14.4280775, 40.8094663], [14.4249112, 40.8099081], [14.4208862, 40.8102397], [14.4170177, 40.8113963], [14.4155989, 40.8120413], [14.4153411, 40.812833], [14.4151198, 40.8139021], [14.4152572, 40.815863], [14.4154508, 40.8172161], [14.4162563, 40.8188445], [14.4169263, 40.8199494], [14.419217, 40.8202252], [14.4218599, 40.8213146], [14.4214865, 40.8214278], [14.4211312, 40.8215289], [14.4207891, 40.8216193], [14.420622, 40.8216607], [14.4204573, 40.8216998], [14.420282, 40.8217385], [14.4200974, 40.8217757], [14.4199019, 40.8218118], [14.4196919, 40.8218475], [14.4194991, 40.8218779], [14.4192841, 40.8219099], [14.4185187, 40.8220174], [14.4182132, 40.8220621], [14.4179003, 40.8221122], [14.4176217, 40.8221621], [14.4174624, 40.8221935], [14.4173103, 40.822226], [14.4171643, 40.8222597], [14.4170238, 40.8222948], [14.4168879, 40.8223314], [14.4167566, 40.8223697], [14.4166294, 40.8224097], [14.4165061, 40.8224516], [14.4164098, 40.8224875], [14.4163107, 40.8225286], [14.4162079, 40.8225753], [14.4160993, 40.8226283], [14.4160031, 40.822678], [14.415897, 40.8227351], [14.4155351, 40.8229375], [14.4153943, 40.8230143], [14.4152499, 40.8230889], [14.4151184, 40.8231515], [14.4150433, 40.8231845], [14.4149702, 40.8232144], [14.4148988, 40.8232414], [14.4148286, 40.8232656], [14.4147594, 40.8232871], [14.4146911, 40.823306], [14.4146233, 40.8233222], [14.4145561, 40.8233359], [14.4144952, 40.8233463], [14.4144325, 40.823355], [14.4143012, 40.8233676], [14.4141609, 40.823374], [14.414009, 40.8233741], [14.4138717, 40.8233696], [14.4137179, 40.8233607], [14.4131779, 40.823317], [14.4129656, 40.8233031], [14.4128546, 40.8232984], [14.4127512, 40.8232963], [14.4126534, 40.8232967], [14.4125604, 40.8232995], [14.4125603, 40.8232995], [14.4120714, 40.8233316], [14.4118538, 40.8233485], [14.4116478, 40.8233663], [14.4114498, 40.8233855], [14.4112599, 40.823406], [14.4110772, 40.823428], [14.410901, 40.8234515], [14.4107284, 40.823477], [14.4105616, 40.8235042], [14.4104001, 40.8235331], [14.4102439, 40.8235639], [14.4100926, 40.8235965], [14.409946, 40.823631], [14.4098042, 40.8236674], [14.409667, 40.8237058], [14.4095097, 40.8237539], [14.4093587, 40.8238048], [14.4092138, 40.8238586], [14.4090749, 40.8239152], [14.4089148, 40.8239871], [14.4087547, 40.8240658], [14.4085947, 40.8241514], [14.4084348, 40.8242438], [14.4082752, 40.8243429], [14.408116, 40.8244486], [14.4079574, 40.8245609], [14.4077995, 40.8246796], [14.4052021, 40.8236272], [14.4043668, 40.8224184], [14.4026517, 40.8211529], [14.4010168, 40.821034], [14.3997791, 40.8210892], [14.3995, 40.820814], [14.3975872, 40.819829], [14.3975674, 40.8197478], [14.3975445, 40.8196627], [14.397518, 40.8195728], [14.3974876, 40.8194764], [14.3974264, 40.8192955], [14.3972711, 40.818857], [14.3972314, 40.818738], [14.3971982, 40.8186317], [14.3970827, 40.8182462], [14.3970054, 40.8179941], [14.3969319, 40.8177635], [14.3968622, 40.8175545], [14.3967903, 40.8173505], [14.3967186, 40.817159], [14.3966461, 40.8169774], [14.3965722, 40.8168043], [14.3964932, 40.8166315], [14.3964119, 40.816466], [14.3963279, 40.8163072], [14.396241, 40.8161546], [14.3961509, 40.8160077], [14.3960576, 40.8158664], [14.3959608, 40.8157304], [14.3958604, 40.8155995], [14.3957418, 40.8154518], [14.3956358, 40.8153228], [14.3955358, 40.8152043], [14.3954398, 40.8150942], [14.3953455, 40.8149896], [14.3952532, 40.8148911], [14.3951622, 40.814798], [14.3950723, 40.81471], [14.3949815, 40.8146252], [14.3948912, 40.8145452], [14.3948013, 40.8144697], [14.3947115, 40.8143986], [14.3946218, 40.8143318], [14.394532, 40.8142692], [14.3944421, 40.8142109], [14.394352, 40.8141566], [14.3942682, 40.8141102], [14.394181, 40.8140659], [14.3940901, 40.8140235], [14.3939957, 40.8139832], [14.3938976, 40.8139448], [14.3937957, 40.8139083], [14.3936899, 40.8138738], [14.3935801, 40.8138411], [14.3942849, 40.8124858], [14.3944081, 40.8114211], [14.3948934, 40.8098865], [14.3950034, 40.8095795], [14.3946367, 40.808051], [14.3950669, 40.8052521], [14.3942568, 40.8026043], [14.3936561, 40.799372]]]}}, {"type": "Feature", "properties": {"id": "13358", "FIREDATE": "2017-06-12 00:00:00", "FINALDATE": "2017-06-12 00:00:00", "LASTUPDATE": "2022-01-26 11:57:54.973474", "COUNTRY": "IT", "PROVINCE": "Napoli", "COMMUNE": "Ercolano", "AREA_HA": "31", "BROADLEA": "6.451612903204995", "CONIFER": "0", "MIXED": "0", "SCLEROPH": "0", "TRANSIT": "0", "OTHERNATLC": "0", "AGRIAREAS": "6.451612903204995", "ARTIFSURF": "87.09677419326744", "OTHERLC": "0", "PERCNA2K": "100", "CLASS": "FireSeason"}, "geometry": {"type": "Polygon", "coordinates": [[[14.3838784, 40.8312016], [14.3843001, 40.8313994], [14.3846751, 40.8316585], [14.3850094, 40.8319607], [14.3853046, 40.832292], [14.3855579, 40.8326406], [14.3857615, 40.8329967], [14.3859025, 40.8333512], [14.3859611, 40.833695], [14.3859102, 40.8340182], [14.3857367, 40.8343021], [14.3854625, 40.8345608], [14.3851144, 40.8347969], [14.3847128, 40.8350106], [14.3842732, 40.8352002], [14.3838075, 40.8353615], [14.3833245, 40.8354874], [14.382831, 40.8355678], [14.3823322, 40.8355886], [14.3818073, 40.8355345], [14.3812823, 40.8354171], [14.3807579, 40.8352538], [14.3802347, 40.8350579], [14.3797133, 40.834839], [14.3791948, 40.8346047], [14.378174, 40.83411], [14.3767451, 40.8333531], [14.3763279, 40.8331074], [14.3759637, 40.8328695], [14.3756745, 40.8326432], [14.37549, 40.8324332], [14.3754492, 40.8322454], [14.3755811, 40.8320869], [14.3758533, 40.8319501], [14.3762282, 40.8318291], [14.376677, 40.8317194], [14.3771783, 40.831618], [14.3788559, 40.8313454], [14.3806249, 40.8311189], [14.3817886, 40.8310213], [14.3823519, 40.8310039], [14.3828943, 40.8310192], [14.383407, 40.8310795], [14.3838784, 40.8312016]]]}}, {"type": "Feature", "properties": {"id": "11323", "FIREDATE": "2017-07-09 00:00:00", "FINALDATE": "2017-07-12 00:00:00", "LASTUPDATE": "2022-01-26 11:57:54.973474", "COUNTRY": "IT", "PROVINCE": "Napoli", "COMMUNE": "Ercolano", "AREA_HA": "304", "BROADLEA": "24.509803921560618", "CONIFER": "0", "MIXED": "25.490196078423043", "SCLEROPH": "0", "TRANSIT": "0", "OTHERNATLC": "45.098039215671534", "AGRIAREAS": "3.9215686274496986", "ARTIFSURF": "0.9803921568624246", "OTHERLC": "0", "PERCNA2K": "99.99335407382094", "CLASS": "FireSeason"}, "geometry": {"type": "Polygon", "coordinates": [[[14.3851054, 40.8294458], [14.3853176, 40.8286673], [14.3865991, 40.8278062], [14.3869831, 40.8273656], [14.3872349, 40.826152], [14.3875874, 40.8240276], [14.3870496, 40.8224637], [14.3869731, 40.8224049], [14.3868967, 40.8223426], [14.3868204, 40.8222767], [14.386744, 40.8222072], [14.3866673, 40.8221338], [14.3865901, 40.8220563], [14.3865122, 40.8219745], [14.386433, 40.8218879], [14.3863595, 40.8218046], [14.3862841, 40.8217162], [14.3861238, 40.82152], [14.3859728, 40.8213273], [14.3856227, 40.8208719], [14.385369, 40.8205451], [14.385184, 40.8203024], [14.3850196, 40.8200806], [14.384873, 40.8198758], [14.3847356, 40.8196756], [14.3846108, 40.8194844], [14.3844974, 40.8193001], [14.3843945, 40.8191217], [14.3842985, 40.818942], [14.3842544, 40.8188538], [14.3842129, 40.8187667], [14.3841739, 40.8186806], [14.3841374, 40.8185954], [14.3841033, 40.818511], [14.3840717, 40.8184275], [14.3840426, 40.8183447], [14.3840159, 40.8182627], [14.3839916, 40.8181814], [14.3839697, 40.8181007], [14.3839502, 40.8180207], [14.3839331, 40.8179413], [14.3839184, 40.8178626], [14.3839061, 40.8177844], [14.3838922, 40.8176722], [14.383882, 40.8175574], [14.3838754, 40.8174399], [14.3838726, 40.8173196], [14.3838735, 40.8171964], [14.3838781, 40.8170704], [14.3838864, 40.8169414], [14.3838984, 40.8168092], [14.383914, 40.8166744], [14.3839334, 40.8165362], [14.3839565, 40.8163943], [14.3839834, 40.8162486], [14.3840141, 40.8160988], [14.3840488, 40.8159441], [14.3840876, 40.8157841], [14.3841307, 40.8156174], [14.3841527, 40.8155304], [14.3841754, 40.8154322], [14.3842677, 40.8149906], [14.384314, 40.8147912], [14.3843423, 40.814685], [14.3843716, 40.8145877], [14.3844022, 40.8144975], [14.3844346, 40.8144135], [14.3844751, 40.8143221], [14.3845185, 40.8142378], [14.3845652, 40.81416], [14.3846153, 40.8140883], [14.384669, 40.8140226], [14.3847264, 40.8139626], [14.3847877, 40.8139084], [14.384853, 40.8138597], [14.3849115, 40.8138225], [14.3849753, 40.8137873], [14.3850446, 40.8137539], [14.3851194, 40.8137223], [14.3851999, 40.8136925], [14.3852863, 40.8136643], [14.3853789, 40.8136376], [14.3854782, 40.8136124], [14.3855733, 40.8135908], [14.385675, 40.8135701], [14.3857842, 40.8135501], [14.3859027, 40.8135304], [14.3861134, 40.813499], [14.3865315, 40.8134423], [14.3866991, 40.8134182], [14.3868773, 40.8133935], [14.38706, 40.8133726], [14.3872473, 40.8133554], [14.3874396, 40.8133419], [14.3876371, 40.813332], [14.3878405, 40.8133259], [14.3880502, 40.8133233], [14.388267, 40.8133243], [14.3884837, 40.8133288], [14.3887091, 40.8133366], [14.3889449, 40.8133479], [14.3891937, 40.8133628], [14.3894497, 40.8133807], [14.3897291, 40.8134027], [14.3904563, 40.813467], [14.3908407, 40.8134985], [14.3917349, 40.8135624], [14.3919444, 40.8135794], [14.3921342, 40.8135965], [14.3923731, 40.8136211], [14.3925937, 40.8136477], [14.3928, 40.8136768], [14.3929942, 40.8137087], [14.3932017, 40.8137486], [14.3933969, 40.8137927], [14.3935808, 40.8138413], [14.3936688, 40.8138673], [14.3937542, 40.8138944], [14.3938372, 40.8139228], [14.3939178, 40.8139524], [14.3939959, 40.8139833], [14.3940717, 40.8140154], [14.3941452, 40.8140488], [14.3942164, 40.8140834], [14.3942853, 40.8141194], [14.394352, 40.8141566], [14.3944421, 40.8142109], [14.394532, 40.8142692], [14.3946218, 40.8143318], [14.3947115, 40.8143986], [14.3948013, 40.8144697], [14.3948912, 40.8145452], [14.3949815, 40.8146252], [14.3950723, 40.81471], [14.3951622, 40.814798], [14.3952532, 40.8148911], [14.3953455, 40.8149896], [14.3954398, 40.8150942], [14.3955358, 40.8152043], [14.3956358, 40.8153228], [14.3957418, 40.8154518], [14.3958604, 40.8155995], [14.3959608, 40.8157304], [14.3960576, 40.8158664], [14.3961509, 40.8160077], [14.396241, 40.8161546], [14.3963279, 40.8163072], [14.3964119, 40.816466], [14.3964932, 40.8166315], [14.3965722, 40.8168043], [14.3966461, 40.8169774], [14.3967186, 40.817159], [14.3967903, 40.8173505], [14.3968622, 40.8175545], [14.3969319, 40.8177635], [14.3970054, 40.8179941], [14.3970827, 40.8182462], [14.3971982, 40.8186317], [14.3972314, 40.818738], [14.3972711, 40.818857], [14.3974264, 40.8192955], [14.3974876, 40.8194764], [14.397518, 40.8195728], [14.3975445, 40.8196627], [14.3975674, 40.8197478], [14.3975872, 40.819829], [14.3995, 40.820814], [14.3997791, 40.8210892], [14.4010168, 40.821034], [14.4026517, 40.8211529], [14.4043668, 40.8224184], [14.4052021, 40.8236272], [14.4077995, 40.8246796], [14.4077852, 40.8246907], [14.4075972, 40.8248261], [14.4074133, 40.8249669], [14.4072342, 40.8251125], [14.4070607, 40.8252624], [14.4068935, 40.8254159], [14.4067331, 40.8255726], [14.40658, 40.8257318], [14.4065064, 40.8258123], [14.4064348, 40.8258932], [14.4063043, 40.8260481], [14.4061818, 40.8262041], [14.4060673, 40.8263608], [14.4059612, 40.8265177], [14.4059114, 40.8265962], [14.4058637, 40.8266747], [14.4058183, 40.8267531], [14.405775, 40.8268314], [14.405734, 40.8269095], [14.4056953, 40.8269874], [14.4056588, 40.8270652], [14.4056246, 40.8271427], [14.4055586, 40.8273004], [14.4055015, 40.8274442], [14.4054509, 40.8275797], [14.4054064, 40.8277085], [14.4053671, 40.8278329], [14.4053333, 40.8279525], [14.4053047, 40.828068], [14.4052812, 40.8281797], [14.4052627, 40.8282891], [14.4052494, 40.828395], [14.4052413, 40.8284976], [14.4052384, 40.8285969], [14.4052407, 40.8286932], [14.4052481, 40.8287865], [14.4052608, 40.8288767], [14.4052786, 40.828964], [14.4053174, 40.8290743], [14.4053633, 40.8291868], [14.4054163, 40.8293015], [14.4054764, 40.8294183], [14.4055435, 40.8295373], [14.4056178, 40.8296584], [14.405699, 40.8297817], [14.4057874, 40.8299072], [14.4059102, 40.8300661], [14.4060855, 40.8302853], [14.4062149, 40.8304343], [14.4063533, 40.8305861], [14.4065005, 40.8307407], [14.406657, 40.8308985], [14.4047958, 40.8319091], [14.401262, 40.8317071], [14.3980665, 40.8329876], [14.3952941, 40.8347284], [14.3917031, 40.8348282], [14.3884146, 40.8336564], [14.3860774, 40.8315436], [14.3851054, 40.8294458]]]}}, {"type": "Feature", "properties": {"id": "52297", "FIREDATE": "2021-08-08 10:15:00", "FINALDATE": "2021-08-09 00:56:00", "LASTUPDATE": "2022-01-26 11:45:36.105095", "COUNTRY": "IT", "PROVINCE": "Napoli", "COMMUNE": "Torre del Greco", "AREA_HA": "11", "BROADLEA": "0", "CONIFER": "66.66666666592592", "MIXED": "0", "SCLEROPH": "0", "TRANSIT": "0", "OTHERNATLC": "0", "AGRIAREAS": "33.33333333296296", "ARTIFSURF": "0", "OTHERLC": "0", "PERCNA2K": "100", "CLASS": "FireSeason"}, "geometry": {"type": "Polygon", "coordinates": [[[14.4100782, 40.7943116], [14.4099546, 40.7944966], [14.4094836, 40.7944578], [14.4086652, 40.7941952], [14.4074995, 40.7937089], [14.4066169, 40.7931539], [14.4060172, 40.7925301], [14.4057005, 40.7918376], [14.4056668, 40.7910765], [14.4058945, 40.7905653], [14.4063835, 40.7903042], [14.4071339, 40.7902932], [14.4081456, 40.7905322], [14.4088954, 40.7908613], [14.4093833, 40.7912807], [14.4096091, 40.7917903], [14.4095731, 40.7923901], [14.4096019, 40.7929421], [14.4096957, 40.7934464], [14.4098545, 40.7939029], [14.4100782, 40.7943116]]]}}, {"type": "Feature", "properties": {"id": "217111", "FIREDATE": "2023-07-15 10:57:31.414", "FINALDATE": "2023-07-16 10:57:35.877", "LASTUPDATE": "2023-08-09 08:57:42.839295", "COUNTRY": "IT", "PROVINCE": "Napoli", "COMMUNE": "Terzigno", "AREA_HA": "8", "BROADLEA": "0", "CONIFER": "0", "MIXED": "0", "SCLEROPH": "0", "TRANSIT": "0", "OTHERNATLC": "77.77777777691358", "AGRIAREAS": "22.222222221975308", "ARTIFSURF": "0", "OTHERLC": "0", "PERCNA2K": "100", "CLASS": "FireSeason"}, "geometry": {"type": "Polygon", "coordinates": [[[14.4755758, 40.8053077], [14.4755574, 40.8054619], [14.4754676, 40.805542], [14.4753064, 40.8055479], [14.4750739, 40.8054796], [14.4749085, 40.8053745], [14.4748103, 40.8052326], [14.4747792, 40.8050539], [14.4748153, 40.8048384], [14.4748647, 40.8046293], [14.4749275, 40.8044267], [14.4750035, 40.8042305], [14.4750928, 40.8040407], [14.4752017, 40.8038416], [14.4753302, 40.8036331], [14.4754781, 40.8034154], [14.4756456, 40.8031883], [14.4758639, 40.8029786], [14.476133, 40.8027863], [14.476453, 40.8026113], [14.4768237, 40.8024538], [14.477147, 40.8022999], [14.4774227, 40.8021495], [14.477651, 40.8020026], [14.4778318, 40.8018594], [14.4780125, 40.8017667], [14.4781931, 40.8017248], [14.4783737, 40.8017335], [14.4785542, 40.8017928], [14.4787118, 40.8018659], [14.4788465, 40.8019527], [14.4789583, 40.8020531], [14.4790472, 40.8021673], [14.4791173, 40.8022753], [14.4791686, 40.8023771], [14.4792011, 40.8024727], [14.4792148, 40.8025621], [14.4792323, 40.8026528], [14.4792535, 40.8027447], [14.4792785, 40.8028378], [14.4793072, 40.8029322], [14.4793296, 40.8030663], [14.4793456, 40.80324], [14.4793553, 40.8034535], [14.4793586, 40.8037066], [14.4793062, 40.8038989], [14.479198, 40.8040305], [14.4790341, 40.8041012], [14.4788145, 40.8041112], [14.4784596, 40.8041568], [14.4779696, 40.8042381], [14.4773444, 40.8043551], [14.476584, 40.8045078], [14.476027, 40.8046794], [14.4756732, 40.8048699], [14.4755229, 40.8050793], [14.4755758, 40.8053077]]]}}, {"type": "Feature", "properties": {"id": "235748", "FIREDATE": "2024-07-29 09:24:00", "FINALDATE": "2024-07-30 12:32:00", "LASTUPDATE": "2024-08-04 14:59:11.076891", "COUNTRY": "IT", "PROVINCE": "Napoli", "COMMUNE": "Torre del Greco", "AREA_HA": "54", "BROADLEA": "39.99999999992727", "CONIFER": "7.272727272714049", "MIXED": "1.8181818181785123", "SCLEROPH": "0", "TRANSIT": "43.6363636362843", "OTHERNATLC": "7.272727272714049", "AGRIAREAS": "0", "ARTIFSURF": "0", "OTHERLC": "0", "PERCNA2K": "100", "CLASS": "FireSeason"}, "geometry": {"type": "Polygon", "coordinates": [[[14.4056666, 40.8008965], [14.4055498, 40.8007643], [14.4054745, 40.8006763], [14.4053835, 40.8005655], [14.4053273, 40.8004914], [14.4052633, 40.8003973], [14.4052426, 40.8003342], [14.4052495, 40.8002542], [14.4052821, 40.8001792], [14.4053652, 40.8000521], [14.4054344, 40.7999835], [14.4055424, 40.7999213], [14.4056595, 40.7998825], [14.4058749, 40.7998376], [14.4060109, 40.7998327], [14.4061713, 40.7998638], [14.4063118, 40.7999225], [14.4065394, 40.8000533], [14.4066831, 40.8001361], [14.4068523, 40.8002338], [14.4070003, 40.8003195], [14.40724, 40.8004587], [14.4073896, 40.8005443], [14.4075629, 40.8006419], [14.4077123, 40.8007244], [14.4079513, 40.8008547], [14.4080912, 40.8009307], [14.4082383, 40.8010103], [14.4083521, 40.8010715], [14.4085194, 40.801161], [14.4086098, 40.8012105], [14.4086922, 40.8012579], [14.4087439, 40.80129], [14.4088043, 40.8013314], [14.4087924, 40.8013814], [14.4086993, 40.801478], [14.4085505, 40.8015948], [14.4082328, 40.8018204], [14.4080696, 40.8019193], [14.4079364, 40.8019665], [14.4079523, 40.8020798], [14.4081294, 40.8023452], [14.4084699, 40.8024077], [14.4092331, 40.8023146], [14.4095519, 40.8023303], [14.4096692, 40.8024666], [14.4096858, 40.8026239], [14.4096143, 40.802922], [14.4095098, 40.8031018], [14.4092928, 40.8033003], [14.4092132, 40.8035174], [14.4092105, 40.8039186], [14.4092424, 40.8043742], [14.4093332, 40.8052314], [14.409258, 40.8056704], [14.4089596, 40.8060258], [14.4088098, 40.8061948], [14.4086944, 40.8063061], [14.4086434, 40.8064536], [14.4086179, 40.8067497], [14.4086067, 40.8069083], [14.4086012, 40.8070501], [14.4084747, 40.807154], [14.4081308, 40.8072991], [14.4078921, 40.807314], [14.4075769, 40.8072101], [14.4072784, 40.8072448], [14.4067689, 40.8074444], [14.4064089, 40.8074776], [14.405924, 40.8073695], [14.4056497, 40.8073518], [14.4053767, 40.8074112], [14.4052077, 40.8074657], [14.4050139, 40.8075569], [14.4049881, 40.807746], [14.4051106, 40.808177], [14.4051299, 40.8083726], [14.4050606, 40.8084819], [14.4048529, 40.8084613], [14.4043486, 40.808295], [14.4040032, 40.8083787], [14.4035538, 40.8087763], [14.4032038, 40.808873], [14.4026866, 40.8087427], [14.4022233, 40.8084943], [14.4014608, 40.8079384], [14.4010786, 40.8074941], [14.4007854, 40.806823], [14.4005667, 40.8064056], [14.400256, 40.805924], [14.4000708, 40.8054282], [14.3998703, 40.8045405], [14.3998709, 40.8040707], [14.4000732, 40.8036606], [14.4002303, 40.8034357], [14.4004619, 40.8032248], [14.4006392, 40.8030504], [14.4008974, 40.8027793], [14.4011614, 40.8027291], [14.4016325, 40.8028615], [14.4019106, 40.8028534], [14.4022077, 40.8026986], [14.4022231, 40.8025996], [14.4019685, 40.8024812], [14.4018821, 40.8023612], [14.401898, 40.8021481], [14.4019856, 40.802046], [14.4022117, 40.8019769], [14.402237, 40.8018605], [14.4020808, 40.8016079], [14.4019776, 40.8014075], [14.4018488, 40.8011065], [14.4019258, 40.8009322], [14.4022673, 40.8007518], [14.4024765, 40.8007938], [14.4027127, 40.80109], [14.4028717, 40.8012922], [14.4030748, 40.8015544], [14.4031928, 40.8016474], [14.4033155, 40.801642], [14.4036357, 40.8015978], [14.4043973, 40.8014812], [14.4047967, 40.8013737], [14.4051381, 40.8011933], [14.4053556, 40.8010895], [14.405615, 40.800983], [14.4056666, 40.8008965]]]}}, {"type": "Feature", "properties": {"id": "237298", "FIREDATE": "2024-08-04 11:21:00", "FINALDATE": "2024-08-05 11:21:00", "LASTUPDATE": "2024-08-12 09:36:52.669584", "COUNTRY": "IT", "PROVINCE": "Napoli", "COMMUNE": "Torre del Greco", "AREA_HA": "16", "BROADLEA": "0", "CONIFER": "56.249999999648445", "MIXED": "0", "SCLEROPH": "0", "TRANSIT": "0", "OTHERNATLC": "0", "AGRIAREAS": "43.74999999972657", "ARTIFSURF": "0", "OTHERLC": "0", "PERCNA2K": "99.99999999999997", "CLASS": "FireSeason"}, "geometry": {"type": "Polygon", "coordinates": [[[14.4335368, 40.7909891], [14.4333748, 40.7914128], [14.4332371, 40.7915934], [14.4330187, 40.7916685], [14.4327772, 40.791635], [14.4323286, 40.7914674], [14.4319073, 40.791235], [14.4311921, 40.7907608], [14.4306753, 40.7904322], [14.4299631, 40.7899988], [14.4296319, 40.7895672], [14.4294295, 40.7888088], [14.4293827, 40.7884177], [14.429456, 40.788096], [14.4295638, 40.7878191], [14.4297883, 40.7873763], [14.4299578, 40.7871529], [14.4302012, 40.7869787], [14.4305109, 40.7869411], [14.4311231, 40.7870116], [14.4314797, 40.787037], [14.4318525, 40.7870366], [14.4320829, 40.7870765], [14.4323463, 40.7871872], [14.4324672, 40.787371], [14.4325377, 40.7877679], [14.4326709, 40.7880162], [14.4329682, 40.7883049], [14.4331195, 40.7883721], [14.43324, 40.7882687], [14.433293, 40.7881451], [14.4333189, 40.7879071], [14.4334292, 40.787775], [14.4337079, 40.7876482], [14.433823, 40.7876401], [14.4338623, 40.7877445], [14.4339085, 40.787908], [14.4339969, 40.7882551], [14.4341597, 40.7884311], [14.434521, 40.78857], [14.4347498, 40.7886425], [14.4350204, 40.7887038], [14.4352194, 40.7887363], [14.4354984, 40.7887646], [14.4356772, 40.7888393], [14.4358921, 40.7890175], [14.4359233, 40.7891314], [14.4357944, 40.7892678], [14.4355895, 40.7893154], [14.4351524, 40.7893106], [14.4348817, 40.7893552], [14.4345711, 40.7894835], [14.434434, 40.7895636], [14.434366, 40.7896564], [14.4341847, 40.7899306], [14.4337521, 40.7905951], [14.4335368, 40.7909891]]]}}, {"type": "Feature", "properties": {"id": "278540", "FIREDATE": "2025-08-07 11:36:00", "FINALDATE": "2025-08-09 11:36:00", "LASTUPDATE": "2025-08-18 12:58:30.606612", "COUNTRY": "IT", "PROVINCE": "Napoli", "COMMUNE": "Terzigno", "AREA_HA": "681", "BROADLEA": "1.4492753623186305", "CONIFER": "0", "MIXED": "10.289855072462275", "SCLEROPH": "0", "TRANSIT": "1.0144927536230413", "OTHERNATLC": "80.86956521737957", "AGRIAREAS": "6.376811594201974", "ARTIFSURF": "0", "OTHERLC": "0", "PERCNA2K": "100.00000000000013", "CLASS": "FireSeason"}, "geometry": {"type": "Polygon", "coordinates": [[[14.444142, 40.8274441], [14.4438709, 40.8275045], [14.4438555, 40.8272853], [14.443822, 40.8270309], [14.4437794, 40.826835], [14.4436963, 40.8266482], [14.4435854, 40.8264993], [14.4433435, 40.8262661], [14.443008, 40.8259845], [14.4426222, 40.8256923], [14.4422453, 40.8254345], [14.4417895, 40.8252526], [14.4413249, 40.8251746], [14.4406476, 40.8251574], [14.4398617, 40.8252037], [14.4393203, 40.8252399], [14.4391066, 40.8252605], [14.4387046, 40.8252905], [14.4381762, 40.8253252], [14.4376776, 40.825419], [14.4372857, 40.8255575], [14.4369138, 40.8255742], [14.4366193, 40.8254666], [14.4363373, 40.8253245], [14.4361112, 40.8251698], [14.4357555, 40.8250845], [14.4353249, 40.8250819], [14.434965, 40.8251576], [14.4347311, 40.8252999], [14.4346688, 40.8253843], [14.4346699, 40.8251112], [14.4347031, 40.8248711], [14.4347631, 40.8247032], [14.4348529, 40.8244777], [14.4349586, 40.8242291], [14.4351781, 40.8239509], [14.4354777, 40.8236858], [14.4356569, 40.8235302], [14.4356882, 40.8235082], [14.4357153, 40.8234481], [14.435734, 40.8233592], [14.4357611, 40.823221], [14.4357924, 40.8230547], [14.435566, 40.8227077], [14.4351165, 40.8222334], [14.434598, 40.8218221], [14.4340901, 40.8215371], [14.4335052, 40.8213967], [14.4329332, 40.8214224], [14.432227, 40.8214362], [14.4314953, 40.8214361], [14.4311236, 40.8212325], [14.4311689, 40.8208568], [14.4312336, 40.8205622], [14.4313078, 40.820394], [14.4315558, 40.8201626], [14.4319392, 40.8199036], [14.4322416, 40.8197829], [14.4324162, 40.819819], [14.4327225, 40.8198648], [14.4331133, 40.8199132], [14.433591, 40.8198561], [14.4340823, 40.8197021], [14.4346144, 40.8195898], [14.4351055, 40.8195364], [14.4352297, 40.8192995], [14.4349678, 40.8189154], [14.4348249, 40.8186433], [14.4348228, 40.8185249], [14.4345338, 40.8183536], [14.4340022, 40.8181558], [14.4335638, 40.8176556], [14.433286, 40.8169299], [14.4332374, 40.8158031], [14.4334254, 40.8144485], [14.4331705, 40.8132251], [14.4325118, 40.812321], [14.4319734, 40.8116513], [14.4316384, 40.811319], [14.4314453, 40.8109748], [14.431424, 40.8106718], [14.4312319, 40.8099042], [14.4308985, 40.8087901], [14.4308226, 40.8077116], [14.4310159, 40.8068344], [14.4310525, 40.8060448], [14.4309267, 40.8054642], [14.4309256, 40.8047939], [14.4310494, 40.804137], [14.4314961, 40.8035054], [14.4321969, 40.8029963], [14.4329499, 40.8025744], [14.4336393, 40.8023046], [14.4343654, 40.8021544], [14.4350165, 40.8021469], [14.4355433, 40.8022174], [14.4358646, 40.8023549], [14.4364302, 40.8025412], [14.4371531, 40.8027476], [14.4376195, 40.8028324], [14.4377576, 40.8027828], [14.4382377, 40.8028436], [14.4389858, 40.8030054], [14.4397585, 40.8032999], [14.4404371, 40.803682], [14.4409738, 40.803893], [14.441286, 40.8039007], [14.4417305, 40.8038925], [14.4422389, 40.8038696], [14.4429605, 40.8038724], [14.4437841, 40.8039005], [14.4446285, 40.8041213], [14.4453636, 40.8045007], [14.4460099, 40.8047421], [14.4464679, 40.8048084], [14.4470873, 40.8048863], [14.4477728, 40.804964], [14.4488529, 40.8050447], [14.4501613, 40.8051161], [14.4516119, 40.8052271], [14.4527448, 40.8053377], [14.4534864, 40.8048954], [14.4540917, 40.804629], [14.454882, 40.8046252], [14.4554946, 40.804757], [14.4556523, 40.8048196], [14.4561796, 40.805029], [14.4565551, 40.8050439], [14.4568196, 40.8046653], [14.4569798, 40.8041004], [14.4570028, 40.8040194], [14.4580956, 40.8035875], [14.4585462, 40.8034874], [14.4588416, 40.8032509], [14.4598672, 40.8030452], [14.460634, 40.8032975], [14.4606854, 40.8033218], [14.4607226, 40.8033202], [14.4607624, 40.8033184], [14.4608113, 40.8033144], [14.4608617, 40.8033089], [14.460918, 40.8033015], [14.4609715, 40.8032931], [14.4610333, 40.8032822], [14.4610942, 40.8032703], [14.461159, 40.8032565], [14.4612179, 40.803243], [14.4612719, 40.8032241], [14.4613129, 40.8032029], [14.4613441, 40.8031776], [14.4613608, 40.803152], [14.4613665, 40.8031207], [14.4613604, 40.8030886], [14.4613419, 40.803053], [14.4613139, 40.8030193], [14.4612859, 40.8029779], [14.4612623, 40.802935], [14.4612411, 40.8028872], [14.4612255, 40.8028418], [14.4612123, 40.8027892], [14.4612035, 40.8027374], [14.4611984, 40.8026821], [14.4611981, 40.8026661], [14.4611248, 40.8025898], [14.4605861, 40.8023272], [14.4605602, 40.8019617], [14.4604694, 40.8018542], [14.4603948, 40.8016822], [14.4607512, 40.801427], [14.4610566, 40.8013335], [14.4614423, 40.8014914], [14.4614614, 40.8017616], [14.4614817, 40.8020476], [14.4617071, 40.8022925], [14.4617149, 40.8023094], [14.461763, 40.8023063], [14.461813, 40.8023057], [14.4618618, 40.8023079], [14.461902, 40.8023126], [14.4619484, 40.8023247], [14.4619939, 40.8023422], [14.4620421, 40.8023666], [14.4620857, 40.8023942], [14.462134, 40.8024308], [14.4621794, 40.8024708], [14.4622259, 40.8025175], [14.4622662, 40.8025637], [14.4623101, 40.8026188], [14.4623508, 40.8026744], [14.4623917, 40.8027351], [14.4624266, 40.8027914], [14.4624628, 40.8028555], [14.4624947, 40.8029174], [14.462525, 40.8029822], [14.462549, 40.8030401], [14.4625885, 40.8031004], [14.4626374, 40.8031538], [14.4626997, 40.8032048], [14.4627658, 40.8032456], [14.4628499, 40.8032847], [14.4629389, 40.8033162], [14.4630402, 40.8033427], [14.4631383, 40.8033601], [14.4632413, 40.8033775], [14.4633332, 40.8033923], [14.4634219, 40.8034055], [14.4634936, 40.8034153], [14.4635635, 40.8034236], [14.4636209, 40.8034293], [14.4636705, 40.8034327], [14.4637047, 40.8034333], [14.4637441, 40.8034364], [14.4637825, 40.8034415], [14.4638232, 40.803449], [14.4638599, 40.8034578], [14.4639004, 40.8034697], [14.4639385, 40.8034829], [14.4639772, 40.8034985], [14.4640108, 40.803514], [14.464044, 40.8035266], [14.4640719, 40.8035342], [14.4640966, 40.8035374], [14.4641145, 40.8035358], [14.4641293, 40.8035291], [14.4641386, 40.8035182], [14.4641434, 40.8035023], [14.4641429, 40.8034837], [14.4641434, 40.8034646], [14.464145, 40.8034477], [14.4641478, 40.8034317], [14.4641514, 40.803419], [14.4641564, 40.803407], [14.4641621, 40.8033975], [14.4641691, 40.8033897], [14.4641762, 40.8033849], [14.4641861, 40.8033792], [14.4641973, 40.8033736], [14.4642108, 40.8033677], [14.4642245, 40.8033622], [14.4642412, 40.8033562], [14.4642585, 40.8033505], [14.4642776, 40.8033446], [14.4642958, 40.8033395], [14.464318, 40.8033336], [14.4643409, 40.803328], [14.4643664, 40.8033221], [14.4643905, 40.8033168], [14.4644184, 40.803311], [14.4644458, 40.8033057], [14.4644749, 40.8033003], [14.4645013, 40.8032957], [14.4645337, 40.8032904], [14.464567, 40.8032854], [14.464604, 40.80328], [14.4646391, 40.8032752], [14.4646796, 40.80327], [14.4647194, 40.8032652], [14.4647617, 40.8032603], [14.4648, 40.8032561], [14.4648451, 40.8032514], [14.4648901, 40.803247], [14.4649388, 40.8032424], [14.4649836, 40.8032384], [14.465034, 40.8032342], [14.4650822, 40.8032303], [14.4651324, 40.8032265], [14.4651767, 40.8032234], [14.4652252, 40.8032184], [14.4652702, 40.8032124], [14.4653157, 40.8032047], [14.4653545, 40.8031967], [14.4653949, 40.8031865], [14.4654307, 40.8031758], [14.465465, 40.8031636], [14.4654923, 40.8031519], [14.4655204, 40.8031373], [14.4655451, 40.8031221], [14.4655682, 40.803105], [14.4655863, 40.8030887], [14.4656032, 40.8030696], [14.4656164, 40.8030507], [14.4656268, 40.8030305], [14.4656329, 40.803012], [14.4656366, 40.8029904], [14.4656373, 40.802969], [14.465635, 40.802946], [14.4656301, 40.802925], [14.4656216, 40.8029015], [14.4656108, 40.8028792], [14.4655967, 40.8028561], [14.4655816, 40.8028358], [14.4655612, 40.8028126], [14.4655386, 40.8027901], [14.4655119, 40.8027664], [14.4654853, 40.8027452], [14.4654531, 40.8027219], [14.4654202, 40.8027001], [14.465384, 40.802678], [14.46535, 40.8026591], [14.4653113, 40.8026371], [14.465274, 40.8026155], [14.4652349, 40.8025925], [14.4652, 40.8025717], [14.465162, 40.8025485], [14.4651267, 40.8025266], [14.4650911, 40.8025041], [14.4650608, 40.8024845], [14.4650271, 40.8024623], [14.4649953, 40.8024409], [14.4649627, 40.8024185], [14.4649343, 40.8023985], [14.4649042, 40.8023768], [14.4648769, 40.8023567], [14.4648502, 40.8023365], [14.4648281, 40.8023192], [14.4648063, 40.8022985], [14.4647879, 40.8022774], [14.4647714, 40.8022543], [14.4647595, 40.8022326], [14.4647495, 40.8022078], [14.4647431, 40.8021837], [14.4647396, 40.8021583], [14.4647396, 40.8021355], [14.4647431, 40.8021088], [14.4647495, 40.8020825], [14.4647595, 40.8020542], [14.4647714, 40.8020283], [14.4647878, 40.8019995], [14.4648061, 40.801972], [14.464828, 40.8019436], [14.46485, 40.8019187], [14.4648803, 40.8018932], [14.4649141, 40.801871], [14.4649544, 40.8018502], [14.4649949, 40.8018341], [14.4650442, 40.8018192], [14.4650947, 40.8018078], [14.4651507, 40.8017991], [14.4652034, 40.8017942], [14.4652679, 40.8017919], [14.465334, 40.8017925], [14.4654075, 40.8017961], [14.4654769, 40.8018021], [14.465557, 40.8018118], [14.4656355, 40.8018237], [14.4657188, 40.8018388], [14.4657942, 40.8018547], [14.4658769, 40.8018738], [14.4659542, 40.8018929], [14.4660326, 40.8019139], [14.4660999, 40.8019333], [14.4661705, 40.8019555], [14.4662334, 40.8019768], [14.466294, 40.8019992], [14.4663429, 40.8020192], [14.4663939, 40.8020424], [14.466439, 40.8020652], [14.4664822, 40.8020896], [14.4665167, 40.8021118], [14.4665499, 40.8021365], [14.4665767, 40.8021598], [14.4665992, 40.8021838], [14.4666141, 40.8022048], [14.4666303, 40.8022304], [14.4666455, 40.8022566], [14.4666608, 40.8022857], [14.4666739, 40.8023132], [14.4666876, 40.8023449], [14.4666998, 40.8023759], [14.4667114, 40.8024089], [14.4667208, 40.8024387], [14.4667305, 40.8024737], [14.466739, 40.8025085], [14.466747, 40.8025462], [14.4667534, 40.8025807], [14.4667595, 40.8026196], [14.4667642, 40.8026568], [14.4667681, 40.8026953], [14.4667705, 40.8027294], [14.4667734, 40.8027696], [14.4667762, 40.8028097], [14.4667793, 40.8028532], [14.4667821, 40.8028932], [14.4667853, 40.8029384], [14.4667884, 40.8029818], [14.4667916, 40.8030269], [14.4667944, 40.8030669], [14.4667976, 40.8031119], [14.4668007, 40.803155], [14.4668039, 40.8031999], [14.4668067, 40.8032396], [14.4668097, 40.8032825], [14.4668125, 40.8033221], [14.4668153, 40.8033616], [14.4668177, 40.803395], [14.4668321, 40.8034288], [14.4668562, 40.8034578], [14.4668921, 40.8034845], [14.4669343, 40.8035048], [14.4669917, 40.803523], [14.4670554, 40.8035362], [14.4671309, 40.8035456], [14.4672064, 40.8035497], [14.4672817, 40.8035569], [14.4673451, 40.803566], [14.4674021, 40.803578], [14.4674437, 40.8035908], [14.4674789, 40.8036072], [14.4675022, 40.8036248], [14.4675156, 40.8036449], [14.467517, 40.8036645], [14.4675191, 40.8036933], [14.4675214, 40.8037269], [14.4675244, 40.8037681], [14.4675274, 40.8038106], [14.4675311, 40.8038632], [14.467535, 40.8039181], [14.4675394, 40.8039796], [14.4675435, 40.8040383], [14.4675383, 40.8040992], [14.4675246, 40.8041529], [14.4675011, 40.8042039], [14.4674716, 40.8042443], [14.4674297, 40.8042826], [14.4673819, 40.804313], [14.4673242, 40.804338], [14.4672654, 40.8043537], [14.4672008, 40.8043704], [14.4671402, 40.8043853], [14.4670786, 40.8043999], [14.4670254, 40.8044117], [14.4669694, 40.8044235], [14.4669192, 40.8044332], [14.4668707, 40.8044418], [14.4668312, 40.804448], [14.4667883, 40.8044547], [14.4667484, 40.804461], [14.4667083, 40.8044673], [14.4666741, 40.8044727], [14.4666387, 40.8044783], [14.4666074, 40.8044833], [14.4665777, 40.804488], [14.4665541, 40.8044919], [14.4665273, 40.8044991], [14.4665014, 40.8045086], [14.4664743, 40.8045211], [14.4664502, 40.8045349], [14.4664238, 40.8045526], [14.4663994, 40.8045717], [14.4663804, 40.804588], [14.4663699, 40.8045988], [14.4663772, 40.8046328], [14.4664012, 40.8046848], [14.4667396, 40.8048611], [14.4669367, 40.8049508], [14.4668083, 40.8051244], [14.4669406, 40.8054969], [14.4679892, 40.805855], [14.4686937, 40.8063368], [14.4693784, 40.8070358], [14.4699526, 40.807172], [14.4701116, 40.8072216], [14.4699816, 40.807373], [14.4697432, 40.8074952], [14.4695543, 40.8076063], [14.4694439, 40.8076893], [14.469384, 40.8077342], [14.469384, 40.8077343], [14.4695169, 40.8078225], [14.4697623, 40.8079853], [14.4700168, 40.8081469], [14.4702413, 40.8082824], [14.4704198, 40.8083802], [14.4705247, 40.808425], [14.4706266, 40.8084722], [14.4707098, 40.8085146], [14.4707811, 40.8085555], [14.4708297, 40.8085887], [14.4709014, 40.8086338], [14.4709851, 40.8086837], [14.4710879, 40.8087427], [14.4711938, 40.8088017], [14.4712756, 40.8089095], [14.4713206, 40.8090495], [14.4713326, 40.8092334], [14.4713097, 40.8094329], [14.4711869, 40.8096291], [14.470983, 40.8097919], [14.4706811, 40.8099349], [14.4703275, 40.8100359], [14.4700023, 40.8101196], [14.4697556, 40.810173], [14.4695667, 40.8102005], [14.4694648, 40.8101981], [14.4692629, 40.810195], [14.4689921, 40.8101919], [14.4686299, 40.8101885], [14.4682319, 40.8101852], [14.467837, 40.8102955], [14.4675059, 40.8105025], [14.4672111, 40.8108233], [14.466998, 40.8112085], [14.4667694, 40.811622], [14.4665607, 40.8119999], [14.4663545, 40.812374], [14.4661824, 40.8126865], [14.4660669, 40.8129267], [14.4660259, 40.8130577], [14.4664405, 40.8133984], [14.4672469, 40.8138964], [14.4677453, 40.8143868], [14.4678593, 40.8147942], [14.4675906, 40.8153356], [14.4669808, 40.8159277], [14.466496, 40.816667], [14.4662107, 40.8174398], [14.4659587, 40.8182157], [14.4657787, 40.8188752], [14.4649725, 40.819629], [14.463664, 40.8203612], [14.4626792, 40.8209008], [14.4621696, 40.8211647], [14.461894, 40.8215029], [14.4618947, 40.8218633], [14.4618073, 40.8221339], [14.461645, 40.8222731], [14.4614794, 40.8224495], [14.4613361, 40.8226358], [14.4610032, 40.8229625], [14.4605319, 40.8233795], [14.4602168, 40.8237184], [14.4601064, 40.8239272], [14.4600441, 40.8241248], [14.4600395, 40.8242809], [14.4599692, 40.8244854], [14.459844, 40.8247069], [14.4596075, 40.8249578], [14.4592959, 40.8251997], [14.4591018, 40.8253318], [14.459055, 40.825334], [14.4586758, 40.8252472], [14.4580226, 40.8250848], [14.4575299, 40.8249512], [14.4572735, 40.8248668], [14.4568477, 40.824815], [14.4563179, 40.8248037], [14.4559255, 40.824869], [14.4557308, 40.8250009], [14.4551436, 40.8251834], [14.4542542, 40.8253884], [14.4532727, 40.8255755], [14.45235, 40.825716], [14.4516558, 40.8257889], [14.4512967, 40.8257831], [14.4508285, 40.8257566], [14.4503233, 40.8257134], [14.4497649, 40.8256195], [14.4492392, 40.8254893], [14.4487375, 40.8254286], [14.4483371, 40.8254466], [14.4480444, 40.8254836], [14.4479045, 40.8255339], [14.4473438, 40.8257377], [14.4464486, 40.8260637], [14.4458538, 40.8263346], [14.4456508, 40.8265085], [14.4453816, 40.8266576], [14.4450874, 40.8267587], [14.4449198, 40.8268094], [14.4449045, 40.8268017], [14.4448455, 40.8268677], [14.4447518, 40.8269972], [14.4445047, 40.8271997], [14.444142, 40.8274441]]]}}, {"type": "Feature", "properties": {"id": "278005", "FIREDATE": "2025-08-09 10:45:00", "FINALDATE": "2025-08-10 12:32:00", "LASTUPDATE": "2025-08-12 09:11:09.248769", "COUNTRY": "IT", "PROVINCE": "Napoli", "COMMUNE": "Ottaviano", "AREA_HA": "37", "BROADLEA": "0", "CONIFER": "0", "MIXED": "0", "SCLEROPH": "0", "TRANSIT": "0", "OTHERNATLC": "99.99999999972972", "AGRIAREAS": "0", "ARTIFSURF": "0", "OTHERLC": "0", "PERCNA2K": "100.00000000000009", "CLASS": "FireSeason"}, "geometry": {"type": "Polygon", "coordinates": [[[14.4354315, 40.8278632], [14.4353351, 40.8278199], [14.4351299, 40.82772], [14.4348474, 40.8275788], [14.4345784, 40.8274004], [14.4343642, 40.8272122], [14.4342039, 40.8269217], [14.434122, 40.8265737], [14.4341639, 40.8262861], [14.4343232, 40.8261031], [14.4344602, 40.825841], [14.4345537, 40.8255401], [14.4347311, 40.8252999], [14.434965, 40.8251576], [14.4353249, 40.8250819], [14.4357555, 40.8250845], [14.4361112, 40.8251698], [14.4363373, 40.8253245], [14.4366193, 40.8254666], [14.4369138, 40.8255742], [14.4372857, 40.8255575], [14.4376776, 40.825419], [14.4381762, 40.8253252], [14.4387046, 40.8252905], [14.4391066, 40.8252605], [14.4393203, 40.8252399], [14.4398617, 40.8252037], [14.4406476, 40.8251574], [14.4413249, 40.8251746], [14.4417895, 40.8252526], [14.4422453, 40.8254345], [14.4426222, 40.8256923], [14.443008, 40.8259845], [14.4433435, 40.8262661], [14.4435854, 40.8264993], [14.4436963, 40.8266482], [14.4437794, 40.826835], [14.443822, 40.8270309], [14.4438555, 40.8272853], [14.4438748, 40.8275592], [14.4438851, 40.827708], [14.4438848, 40.8277087], [14.4439101, 40.827714], [14.4439569, 40.8277229], [14.444061, 40.8277924], [14.4442062, 40.8279116], [14.4443289, 40.8280763], [14.4444104, 40.8282612], [14.4444371, 40.8284303], [14.4444051, 40.8285574], [14.4442117, 40.8286513], [14.4438866, 40.8286973], [14.443608, 40.8287382], [14.4434186, 40.8287677], [14.4431475, 40.8289161], [14.4428365, 40.8291606], [14.4423662, 40.8294257], [14.441809, 40.8296708], [14.441482, 40.8300771], [14.4414355, 40.8305821], [14.4413191, 40.8309278], [14.4411507, 40.8310611], [14.4409417, 40.8311443], [14.4407243, 40.8311645], [14.4405215, 40.8310204], [14.4403645, 40.8307341], [14.440134, 40.8305118], [14.4398653, 40.8303877], [14.439692, 40.8302422], [14.4396408, 40.8300979], [14.4395804, 40.8298736], [14.4395201, 40.8296041], [14.4393495, 40.8294551], [14.4390948, 40.8294498], [14.4387927, 40.8294851], [14.4384896, 40.8295557], [14.4381666, 40.8296417], [14.4378736, 40.8297298], [14.437586, 40.8298274], [14.4373481, 40.8299194], [14.4370418, 40.8299725], [14.4367141, 40.8299784], [14.4363379, 40.8299376], [14.4359709, 40.8298564], [14.4356918, 40.8297349], [14.4355436, 40.8295917], [14.4355139, 40.8294148], [14.4356072, 40.8292316], [14.4356738, 40.8290051], [14.4357033, 40.8287701], [14.4356982, 40.8285071], [14.4356593, 40.8282566], [14.435598, 40.82806], [14.4355238, 40.8279476], [14.4354315, 40.8278632]]]}}, {"type": "Feature", "properties": {"id": "276273", "FIREDATE": "2025-08-05 11:36:00", "FINALDATE": "2025-08-06 12:57:00", "LASTUPDATE": "2025-08-01 06:52:22.461877", "COUNTRY": "IT", "PROVINCE": "Napoli", "COMMUNE": "Terzigno", "AREA_HA": "36", "BROADLEA": "0", "CONIFER": "0", "MIXED": "0", "SCLEROPH": "0", "TRANSIT": "0", "OTHERNATLC": "78.37837837816654", "AGRIAREAS": "21.621621621563182", "ARTIFSURF": "0", "OTHERLC": "0", "PERCNA2K": "100.00000000000003", "CLASS": "FireSeason"}, "geometry": {"type": "Polygon", "coordinates": [[[14.4703949, 40.8040629], [14.4704145, 40.8040035], [14.4704876, 40.8039512], [14.4706029, 40.8039141], [14.4707425, 40.8038979], [14.4709483, 40.803963], [14.4711884, 40.8040993], [14.4713672, 40.8041762], [14.4714572, 40.804182], [14.471582, 40.8041816], [14.4717224, 40.8041753], [14.4719221, 40.8041556], [14.4721504, 40.8041256], [14.4723805, 40.8040461], [14.4725771, 40.8039293], [14.4728847, 40.8038676], [14.4732562, 40.8038704], [14.4734998, 40.8038771], [14.4735782, 40.8038868], [14.47368, 40.8038731], [14.4737895, 40.8038381], [14.4739158, 40.8037758], [14.4740396, 40.8036958], [14.474134, 40.803604], [14.4741846, 40.8035144], [14.4741956, 40.8034196], [14.4741652, 40.8033342], [14.4741476, 40.803237], [14.4741453, 40.8031431], [14.4741582, 40.8030446], [14.4741843, 40.8029566], [14.4742314, 40.8028711], [14.4742921, 40.8028012], [14.4743716, 40.8027411], [14.4744577, 40.8027], [14.4745441, 40.8026359], [14.4746175, 40.8025587], [14.474684, 40.802462], [14.4747334, 40.8023606], [14.4748164, 40.8022613], [14.4749201, 40.8021793], [14.4750532, 40.802108], [14.4751953, 40.8020582], [14.4753795, 40.8020372], [14.4755774, 40.8020484], [14.4758057, 40.8020926], [14.4760291, 40.8021631], [14.4762507, 40.8022149], [14.4764366, 40.80224], [14.476602, 40.8022406], [14.4767216, 40.8022166], [14.4768693, 40.8021671], [14.4770222, 40.8020997], [14.4771932, 40.8020089], [14.477356, 40.8019085], [14.4775502, 40.8018112], [14.4777461, 40.8017318], [14.47796, 40.8016637], [14.478159, 40.8016175], [14.4783571, 40.8015957], [14.478524, 40.8016015], [14.4786736, 40.8016356], [14.4787828, 40.8016926], [14.4788837, 40.8017762], [14.4789607, 40.8018734], [14.4790203, 40.8019924], [14.4790533, 40.8021149], [14.4790931, 40.8022567], [14.4791337, 40.8023958], [14.4791783, 40.8025441], [14.4792203, 40.8026785], [14.4792632, 40.8028359], [14.4793006, 40.8029921], [14.4793355, 40.8031599], [14.4793627, 40.8033136], [14.4793621, 40.8034831], [14.479334, 40.8036422], [14.4792759, 40.8038041], [14.4791969, 40.8039441], [14.4790069, 40.8040866], [14.4787353, 40.8042097], [14.4783592, 40.8043237], [14.4779367, 40.8044111], [14.4775563, 40.8045307], [14.4772766, 40.8046643], [14.4770743, 40.8048229], [14.4769804, 40.8049821], [14.4768776, 40.805138], [14.4767816, 40.8052666], [14.4766843, 40.8053785], [14.4766009, 40.8054567], [14.4765008, 40.805527], [14.4763993, 40.8055786], [14.476288, 40.8056158], [14.476184, 40.8056329], [14.4760209, 40.8056416], [14.4758236, 40.8056405], [14.4755758, 40.8056294], [14.4753156, 40.8056102], [14.4750808, 40.805615], [14.4749075, 40.805643], [14.4747813, 40.8056966], [14.4747216, 40.8057675], [14.474705, 40.8058943], [14.4747342, 40.8060575], [14.4748114, 40.8062707], [14.4749248, 40.8065011], [14.4750144, 40.806721], [14.4750663, 40.8068966], [14.4750849, 40.8070425], [14.4750673, 40.8071363], [14.474976, 40.8072053], [14.474825, 40.807239], [14.4746018, 40.8072402], [14.4743407, 40.8072086], [14.474185, 40.8071744], [14.4741586, 40.8071427], [14.4740988, 40.8071769], [14.4740147, 40.8072717], [14.4739709, 40.8074452], [14.4739741, 40.8076707], [14.4739455, 40.8078527], [14.4738893, 40.8079631], [14.4737298, 40.8080607], [14.4734915, 40.8081304], [14.4733037, 40.8081229], [14.4731953, 40.8080395], [14.4730128, 40.8079096], [14.4728673, 40.8078102], [14.4721803, 40.8082337], [14.4715216, 40.8083987], [14.4709589, 40.8084242], [14.4707677, 40.8082166], [14.4707103, 40.8074081], [14.4699526, 40.807172], [14.4693784, 40.8070358], [14.4686937, 40.8063368], [14.4679892, 40.805855], [14.4669406, 40.8054969], [14.4668083, 40.8051244], [14.4670981, 40.8047327], [14.4677721, 40.8047834], [14.4682407, 40.8049244], [14.4691142, 40.8048038], [14.469154, 40.8043694], [14.4693497, 40.8041442], [14.4698734, 40.8040665], [14.4703949, 40.8040629]]]}}], "fetched": "2026-09-23"}